<?xml version="1.0" encoding="UTF-8"?>
<kml xmlns="http://www.opengis.net/kml/2.2"><Document><name>Rutas</name><Style id="l0"><LineStyle><color>ffB74A53</color><width>4</width></LineStyle></Style><Style id="l1"><LineStyle><color>ff2e1a1a</color><width>4</width></LineStyle></Style>
<Placemark><name>Antofagasta → Calama</name><description><![CDATA[Antofagasta → Calama · 215 km · ~2h 30min<br>Tramo: ~2h 30min]]></description><styleUrl>#l0</styleUrl><LineString><tessellate>1</tessellate><coordinates>-70.396,-23.652,0 -68.924,-22.456,0</coordinates></LineString></Placemark>
<Placemark><name>La Serena → Coquimbo</name><description><![CDATA[La Serena → Coquimbo · 15 km · ~20 min<br>Tramo: ~20 min]]></description><styleUrl>#l0</styleUrl><LineString><tessellate>1</tessellate><coordinates>-71.254,-29.907,0 -71.344,-29.954,0</coordinates></LineString></Placemark>
<Placemark><name>Calera → Quillota → Quilpué</name><description><![CDATA[Calera → Quillota → Quilpué · ~45 min total<br>Tramo: ~12 min<br>Tramo: ~20 min]]></description><styleUrl>#l0</styleUrl><LineString><tessellate>1</tessellate><coordinates>-71.2,-32.786,0 -71.248,-32.879,0 -71.443,-33.049,0</coordinates></LineString></Placemark>
<Placemark><name>Viña del Mar → Valparaíso</name><description><![CDATA[Viña del Mar → Valparaíso · 8 km · ~12 min<br>Tramo: ~12 min]]></description><styleUrl>#l0</styleUrl><LineString><tessellate>1</tessellate><coordinates>-71.552,-33.024,0 -71.619,-33.047,0</coordinates></LineString></Placemark>
<Placemark><name>Vespucio → Oeste → Parque → Costanera → Egaña</name><description><![CDATA[Vespucio → Oeste → Parque → Costanera → Egaña · ~1h 10min total<br>Tramo: ~20 min<br>Tramo: ~22 min<br>Tramo: ~8 min<br>Tramo: ~15 min]]></description><styleUrl>#l1</styleUrl><LineString><tessellate>1</tessellate><coordinates>-70.58,-33.5,0 -70.73,-33.51,0 -70.6,-33.49,0 -70.607,-33.415,0 -70.565,-33.462,0</coordinates></LineString></Placemark>
<Placemark><name>Los Ángeles → Chillán → Concepción → Barros Arana</name><description><![CDATA[Los Ángeles → Chillán → Concepción → Barros Arana · ~2h 30min total<br>Tramo: ~1h<br>Tramo: ~1h 10min<br>Tramo: ~8 min]]></description><styleUrl>#l0</styleUrl><LineString><tessellate>1</tessellate><coordinates>-72.353,-37.47,0 -72.103,-36.607,0 -73.044,-36.82,0 -73.054,-36.83,0</coordinates></LineString></Placemark>
<Placemark><name>Temuco → Valdivia</name><description><![CDATA[Temuco → Valdivia · 100 km · ~1h 10min<br>Tramo: ~1h 10min]]></description><styleUrl>#l0</styleUrl><LineString><tessellate>1</tessellate><coordinates>-72.59,-38.735,0 -73.246,-39.814,0</coordinates></LineString></Placemark>
</Document></kml>