<?xml version="1.0" encoding="UTF-8"?>
<kml xmlns="http://www.opengis.net/kml/2.2"><Document><name>Ciudades y dotación</name><Style id="s"><IconStyle><color>ff2e1a1a</color><scale>1</scale><Icon><href>https://www.gstatic.com/mapspro/images/stock/503-wht-blank_maps.png</href></Icon></IconStyle></Style>
<Placemark><name>Arica</name><description><![CDATA[Región: Arica y Parinacota<br>1× Excl. ropa<br>⏱ 30 hrs/sem]]></description><styleUrl>#s</styleUrl><Point><coordinates>-70.312,-18.478,0</coordinates></Point></Placemark>
<Placemark><name>Iquique</name><description><![CDATA[Región: Tarapacá<br>1× Ruta 42 hrs<br>1× Excl. ropa<br>1× Promotor 30<br>1× Promotor 20<br>⏱ 122 hrs/sem]]></description><styleUrl>#s</styleUrl><Point><coordinates>-70.152,-20.213,0</coordinates></Point></Placemark>
<Placemark><name>Antofagasta</name><description><![CDATA[Región: Antofagasta<br>1× Ruta 42 hrs<br>1× Ruta 30 hrs<br>1× Excl. ropa<br>⏱ 102 hrs/sem]]></description><styleUrl>#s</styleUrl><Point><coordinates>-70.396,-23.652,0</coordinates></Point></Placemark>
<Placemark><name>Calama</name><description><![CDATA[Región: Antofagasta<br>1× Ruta 30 hrs<br>1× Excl. ropa<br>⏱ 60 hrs/sem]]></description><styleUrl>#s</styleUrl><Point><coordinates>-68.924,-22.456,0</coordinates></Point></Placemark>
<Placemark><name>Copiapó</name><description><![CDATA[Región: Atacama<br>1× Ruta 30 hrs<br>⏱ 30 hrs/sem]]></description><styleUrl>#s</styleUrl><Point><coordinates>-70.332,-27.367,0</coordinates></Point></Placemark>
<Placemark><name>La Serena</name><description><![CDATA[Región: Coquimbo<br>1× Ruta 42 hrs<br>1× Promotor 30<br>⏱ 72 hrs/sem]]></description><styleUrl>#s</styleUrl><Point><coordinates>-71.254,-29.907,0</coordinates></Point></Placemark>
<Placemark><name>Coquimbo</name><description><![CDATA[Región: Coquimbo<br>1× Ruta 30 hrs<br>⏱ 30 hrs/sem]]></description><styleUrl>#s</styleUrl><Point><coordinates>-71.344,-29.954,0</coordinates></Point></Placemark>
<Placemark><name>Calera</name><description><![CDATA[Región: Valparaíso<br>1× Ruta 42 hrs<br>1× Promotor 30<br>⏱ 72 hrs/sem]]></description><styleUrl>#s</styleUrl><Point><coordinates>-71.2,-32.786,0</coordinates></Point></Placemark>
<Placemark><name>Quillota</name><description><![CDATA[Región: Valparaíso<br>1× Promotor 30<br>⏱ 30 hrs/sem]]></description><styleUrl>#s</styleUrl><Point><coordinates>-71.248,-32.879,0</coordinates></Point></Placemark>
<Placemark><name>Quilpué</name><description><![CDATA[Región: Valparaíso<br>Zona de cobertura]]></description><styleUrl>#s</styleUrl><Point><coordinates>-71.443,-33.049,0</coordinates></Point></Placemark>
<Placemark><name>Viña del Mar</name><description><![CDATA[Región: Valparaíso<br>1× Ruta 42 hrs<br>1× Ruta 30 hrs<br>1× Excl. ropa<br>3× Promotor 30<br>⏱ 192 hrs/sem]]></description><styleUrl>#s</styleUrl><Point><coordinates>-71.552,-33.024,0</coordinates></Point></Placemark>
<Placemark><name>Valparaíso</name><description><![CDATA[Región: Valparaíso<br>1× Excl. ropa<br>⏱ 30 hrs/sem]]></description><styleUrl>#s</styleUrl><Point><coordinates>-71.619,-33.047,0</coordinates></Point></Placemark>
<Placemark><name>Santiago Centro</name><description><![CDATA[Región: RM<br>1× Ruta 42 hrs<br>⏱ 42 hrs/sem]]></description><styleUrl>#s</styleUrl><Point><coordinates>-70.648,-33.457,0</coordinates></Point></Placemark>
<Placemark><name>Vespucio</name><description><![CDATA[Región: RM<br>1× Ruta 42 hrs<br>1× Excl. ropa<br>3× Promotor 30<br>⏱ 162 hrs/sem]]></description><styleUrl>#s</styleUrl><Point><coordinates>-70.58,-33.5,0</coordinates></Point></Placemark>
<Placemark><name>Oeste</name><description><![CDATA[Región: RM<br>3× Promotor 30<br>⏱ 90 hrs/sem]]></description><styleUrl>#s</styleUrl><Point><coordinates>-70.73,-33.51,0</coordinates></Point></Placemark>
<Placemark><name>Parque</name><description><![CDATA[Región: RM<br>3× Promotor 30<br>⏱ 90 hrs/sem]]></description><styleUrl>#s</styleUrl><Point><coordinates>-70.5773,-33.4023,0</coordinates></Point></Placemark>
<Placemark><name>Costanera</name><description><![CDATA[Región: RM<br>3× Promotor 30<br>⏱ 90 hrs/sem]]></description><styleUrl>#s</styleUrl><Point><coordinates>-70.607,-33.415,0</coordinates></Point></Placemark>
<Placemark><name>Florida Center</name><description><![CDATA[Región: RM<br>1× Excl. ropa<br>⏱ 30 hrs/sem]]></description><styleUrl>#s</styleUrl><Point><coordinates>-70.56,-33.54,0</coordinates></Point></Placemark>
<Placemark><name>Egaña</name><description><![CDATA[Región: RM<br>1× Excl. ropa<br>1× Promotor 20<br>⏱ 50 hrs/sem]]></description><styleUrl>#s</styleUrl><Point><coordinates>-70.565,-33.462,0</coordinates></Point></Placemark>
<Placemark><name>Bandera</name><description><![CDATA[Región: RM<br>1× Excl. ropa<br>⏱ 30 hrs/sem]]></description><styleUrl>#s</styleUrl><Point><coordinates>-70.655,-33.437,0</coordinates></Point></Placemark>
<Placemark><name>Arauco Maipú</name><description><![CDATA[Región: RM<br>1× Ruta 30 hrs<br>1× Excl. ropa<br>⏱ 60 hrs/sem]]></description><styleUrl>#s</styleUrl><Point><coordinates>-70.764,-33.524,0</coordinates></Point></Placemark>
<Placemark><name>Rancagua</name><description><![CDATA[Región: O'Higgins<br>1× Ruta 30 hrs<br>2× Promotor 20<br>⏱ 70 hrs/sem]]></description><styleUrl>#s</styleUrl><Point><coordinates>-70.744,-34.17,0</coordinates></Point></Placemark>
<Placemark><name>Curicó</name><description><![CDATA[Región: Maule<br>1× Excl. ropa<br>⏱ 30 hrs/sem]]></description><styleUrl>#s</styleUrl><Point><coordinates>-71.239,-34.985,0</coordinates></Point></Placemark>
<Placemark><name>Talca</name><description><![CDATA[Región: Maule<br>1× Ruta 30 hrs<br>⏱ 30 hrs/sem]]></description><styleUrl>#s</styleUrl><Point><coordinates>-71.655,-35.426,0</coordinates></Point></Placemark>
<Placemark><name>Los Ángeles</name><description><![CDATA[Región: Biobío<br>Zona de cobertura]]></description><styleUrl>#s</styleUrl><Point><coordinates>-72.353,-37.47,0</coordinates></Point></Placemark>
<Placemark><name>Chillán</name><description><![CDATA[Región: Ñuble<br>1× Ruta 42 hrs<br>⏱ 42 hrs/sem]]></description><styleUrl>#s</styleUrl><Point><coordinates>-72.103,-36.607,0</coordinates></Point></Placemark>
<Placemark><name>Concepción</name><description><![CDATA[Región: Biobío<br>1× Ruta 30 hrs<br>⏱ 30 hrs/sem]]></description><styleUrl>#s</styleUrl><Point><coordinates>-73.044,-36.82,0</coordinates></Point></Placemark>
<Placemark><name>Barros Arana</name><description><![CDATA[Región: Biobío<br>1× Ruta 30 hrs<br>⏱ 30 hrs/sem]]></description><styleUrl>#s</styleUrl><Point><coordinates>-73.054,-36.83,0</coordinates></Point></Placemark>
<Placemark><name>Temuco</name><description><![CDATA[Región: La Araucanía<br>1× Ruta 42 hrs<br>3× Promotor 20<br>⏱ 102 hrs/sem]]></description><styleUrl>#s</styleUrl><Point><coordinates>-72.59,-38.735,0</coordinates></Point></Placemark>
<Placemark><name>Valdivia</name><description><![CDATA[Región: Los Ríos<br>Zona de cobertura]]></description><styleUrl>#s</styleUrl><Point><coordinates>-73.246,-39.814,0</coordinates></Point></Placemark>
<Placemark><name>Osorno</name><description><![CDATA[Región: Los Lagos<br>1× Ruta 30 hrs<br>⏱ 30 hrs/sem]]></description><styleUrl>#s</styleUrl><Point><coordinates>-73.134,-40.574,0</coordinates></Point></Placemark>
<Placemark><name>Puerto Montt</name><description><![CDATA[Región: Los Lagos<br>1× Ruta 30 hrs<br>2× Promotor 20<br>⏱ 70 hrs/sem]]></description><styleUrl>#s</styleUrl><Point><coordinates>-72.936,-41.472,0</coordinates></Point></Placemark>
</Document></kml>