<?xml version="1.0" encoding="UTF-8"?>
<kml xmlns="http://www.opengis.net/kml/2.2"><Document><name>Belsport</name><Style id="s"><IconStyle><color>ffEB6325</color><scale>1</scale><Icon><href>https://www.gstatic.com/mapspro/images/stock/503-wht-blank_maps.png</href></Icon></IconStyle></Style>
<Placemark><name>Belsport Ahumada</name><description><![CDATA[Ahumada 352, Santiago<br><a href="https://www.google.com/maps/search/?api=1&query=Belsport%20Ahumada%2C%20Ahumada%20352%2C%20Santiago">Ver en Google Maps</a>]]></description><styleUrl>#s</styleUrl><Point><coordinates>-70.65119,-33.439054,0</coordinates></Point></Placemark>
<Placemark><name>Belsport Alameda</name><description><![CDATA[Av.Bernardo Ohiggins 3470, Santiago<br><a href="https://www.google.com/maps/search/?api=1&query=Belsport%20Alameda%2C%20Av.Bernardo%20Ohiggins%203470%2C%20Santiago">Ver en Google Maps</a>]]></description><styleUrl>#s</styleUrl><Point><coordinates>-70.682277,-33.452674,0</coordinates></Point></Placemark>
<Placemark><name>Belsport Anibal Pinto</name><description><![CDATA[Anibal Pinto 547, Santiago<br><a href="https://www.google.com/maps/search/?api=1&query=Belsport%20Anibal%20Pinto%2C%20Anibal%20Pinto%20547%2C%20Santiago">Ver en Google Maps</a>]]></description><styleUrl>#s</styleUrl><Point><coordinates>-70.651,-33.4401,0</coordinates></Point></Placemark>
<Placemark><name>Belsport Antofagasta</name><description><![CDATA[Arturo Prat 546, Antofagasta<br><a href="https://www.google.com/maps/search/?api=1&query=Belsport%20Antofagasta%2C%20Arturo%20Prat%20546%2C%20Antofagasta">Ver en Google Maps</a>]]></description><styleUrl>#s</styleUrl><Point><coordinates>-70.397015,-23.648369,0</coordinates></Point></Placemark>
<Placemark><name>Belsport Antofagasta 2</name><description><![CDATA[Av. Balmaceda 2355, Antofagasta<br><a href="https://www.google.com/maps/search/?api=1&query=Belsport%20Antofagasta%202%2C%20Av.%20Balmaceda%202355%2C%20Antofagasta">Ver en Google Maps</a>]]></description><styleUrl>#s</styleUrl><Point><coordinates>-70.403163,-23.644667,0</coordinates></Point></Placemark>
<Placemark><name>Belsport Belloto</name><description><![CDATA[Av Freire 2414, Quilpué<br><a href="https://www.google.com/maps/search/?api=1&query=Belsport%20Belloto%2C%20Av%20Freire%202414%2C%20Quilpu%C3%A9">Ver en Google Maps</a>]]></description><styleUrl>#s</styleUrl><Point><coordinates>-71.422598,-33.045283,0</coordinates></Point></Placemark>
<Placemark><name>Belsport Calama</name><description><![CDATA[Av. Balmaceda 3242, Calama<br><a href="https://www.google.com/maps/search/?api=1&query=Belsport%20Calama%2C%20Av.%20Balmaceda%203242%2C%20Calama">Ver en Google Maps</a>]]></description><styleUrl>#s</styleUrl><Point><coordinates>-68.92149,-22.449693,0</coordinates></Point></Placemark>
<Placemark><name>Belsport Chillan</name><description><![CDATA[Av. El Roble 770, Chillán<br><a href="https://www.google.com/maps/search/?api=1&query=Belsport%20Chillan%2C%20Av.%20El%20Roble%20770%2C%20Chill%C3%A1n">Ver en Google Maps</a>]]></description><styleUrl>#s</styleUrl><Point><coordinates>-72.100568,-36.609455,0</coordinates></Point></Placemark>
<Placemark><name>Belsport Chiloé</name><description><![CDATA[Eleuterio Ramírez 240, Castro<br><a href="https://www.google.com/maps/search/?api=1&query=Belsport%20Chilo%C3%A9%2C%20Eleuterio%20Ram%C3%ADrez%20240%2C%20Castro">Ver en Google Maps</a>]]></description><styleUrl>#s</styleUrl><Point><coordinates>-73.762384,-42.479653,0</coordinates></Point></Placemark>
<Placemark><name>Belsport Concepción</name><description><![CDATA[Av. Jorge Alessandri 3177, Concepción<br><a href="https://www.google.com/maps/search/?api=1&query=Belsport%20Concepci%C3%B3n%2C%20Av.%20Jorge%20Alessandri%203177%2C%20Concepci%C3%B3n">Ver en Google Maps</a>]]></description><styleUrl>#s</styleUrl><Point><coordinates>-73.066404,-36.79137,0</coordinates></Point></Placemark>
<Placemark><name>Belsport Concepción Barros</name><description><![CDATA[Barros Arana 715, Concepción<br><a href="https://www.google.com/maps/search/?api=1&query=Belsport%20Concepci%C3%B3n%20Barros%2C%20Barros%20Arana%20715%2C%20Concepci%C3%B3n">Ver en Google Maps</a>]]></description><styleUrl>#s</styleUrl><Point><coordinates>-73.049702,-36.82611,0</coordinates></Point></Placemark>
<Placemark><name>Belsport Copiapó</name><description><![CDATA[Atacama 567, Copiapó<br><a href="https://www.google.com/maps/search/?api=1&query=Belsport%20Copiap%C3%B3%2C%20Atacama%20567%2C%20Copiap%C3%B3">Ver en Google Maps</a>]]></description><styleUrl>#s</styleUrl><Point><coordinates>-70.334205,-27.367196,0</coordinates></Point></Placemark>
<Placemark><name>Belsport Copiapó 2</name><description><![CDATA[Maipu 110, Copiapó<br><a href="https://www.google.com/maps/search/?api=1&query=Belsport%20Copiap%C3%B3%202%2C%20Maipu%20110%2C%20Copiap%C3%B3">Ver en Google Maps</a>]]></description><styleUrl>#s</styleUrl><Point><coordinates>-70.339569,-27.369193,0</coordinates></Point></Placemark>
<Placemark><name>Belsport Cordovez</name><description><![CDATA[Cordovez 532, La Serena<br><a href="https://www.google.com/maps/search/?api=1&query=Belsport%20Cordovez%2C%20Cordovez%20532%2C%20La%20Serena">Ver en Google Maps</a>]]></description><styleUrl>#s</styleUrl><Point><coordinates>-71.249484,-29.903015,0</coordinates></Point></Placemark>
<Placemark><name>Belsport Coronel</name><description><![CDATA[Av. Carlos Prat 901, Coronel<br><a href="https://www.google.com/maps/search/?api=1&query=Belsport%20Coronel%2C%20Av.%20Carlos%20Prat%20901%2C%20Coronel">Ver en Google Maps</a>]]></description><styleUrl>#s</styleUrl><Point><coordinates>-73.15977,-37.013313,0</coordinates></Point></Placemark>
<Placemark><name>Belsport Costanera</name><description><![CDATA[Andres Bello 2247, Santiago<br><a href="https://www.google.com/maps/search/?api=1&query=Belsport%20Costanera%2C%20Andres%20Bello%202247%2C%20Santiago">Ver en Google Maps</a>]]></description><styleUrl>#s</styleUrl><Point><coordinates>-70.606302,-33.417898,0</coordinates></Point></Placemark>
<Placemark><name>Belsport Curicó</name><description><![CDATA[Av.Bernardo Ohiggins 201, Curicó<br><a href="https://www.google.com/maps/search/?api=1&query=Belsport%20Curic%C3%B3%2C%20Av.Bernardo%20Ohiggins%20201%2C%20Curic%C3%B3">Ver en Google Maps</a>]]></description><styleUrl>#s</styleUrl><Point><coordinates>-71.24503,-34.990951,0</coordinates></Point></Placemark>
<Placemark><name>Belsport El Llano</name><description><![CDATA[Av. El Llano Subercaseaux 3519, San Miguel<br><a href="https://www.google.com/maps/search/?api=1&query=Belsport%20El%20Llano%2C%20Av.%20El%20Llano%20Subercaseaux%203519%2C%20San%20Miguel">Ver en Google Maps</a>]]></description><styleUrl>#s</styleUrl><Point><coordinates>-70.651607,-33.485974,0</coordinates></Point></Placemark>
<Placemark><name>Belsport Estación</name><description><![CDATA[San Francisco De Borja 84, Santiago<br><a href="https://www.google.com/maps/search/?api=1&query=Belsport%20Estaci%C3%B3n%2C%20San%20Francisco%20De%20Borja%2084%2C%20Santiago">Ver en Google Maps</a>]]></description><styleUrl>#s</styleUrl><Point><coordinates>-70.680242,-33.453058,0</coordinates></Point></Placemark>
<Placemark><name>Belsport Gran Avenida</name><description><![CDATA[Jose Miguel Carrera 6150, San Miguel<br><a href="https://www.google.com/maps/search/?api=1&query=Belsport%20Gran%20Avenida%2C%20Jose%20Miguel%20Carrera%206150%2C%20San%20Miguel">Ver en Google Maps</a>]]></description><styleUrl>#s</styleUrl><Point><coordinates>-70.656746,-33.512467,0</coordinates></Point></Placemark>
<Placemark><name>Belsport Huechuraba</name><description><![CDATA[Av. Americo Vespucio 1737, Huechuraba<br><a href="https://www.google.com/maps/search/?api=1&query=Belsport%20Huechuraba%2C%20Av.%20Americo%20Vespucio%201737%2C%20Huechuraba">Ver en Google Maps</a>]]></description><styleUrl>#s</styleUrl><Point><coordinates>-70.678445,-33.366312,0</coordinates></Point></Placemark>
<Placemark><name>Belsport Independencia</name><description><![CDATA[Av.Independencia 565, Independencia<br><a href="https://www.google.com/maps/search/?api=1&query=Belsport%20Independencia%2C%20Av.Independencia%20565%2C%20Independencia">Ver en Google Maps</a>]]></description><styleUrl>#s</styleUrl><Point><coordinates>-70.654728,-33.424686,0</coordinates></Point></Placemark>
<Placemark><name>Belsport Iquique</name><description><![CDATA[Vivar 618, Iquique<br><a href="https://www.google.com/maps/search/?api=1&query=Belsport%20Iquique%2C%20Vivar%20618%2C%20Iquique">Ver en Google Maps</a>]]></description><styleUrl>#s</styleUrl><Point><coordinates>-70.148594,-20.215821,0</coordinates></Point></Placemark>
<Placemark><name>Belsport La Florida</name><description><![CDATA[Av. Vicuña Mackenna oriente 6100, La Florida<br><a href="https://www.google.com/maps/search/?api=1&query=Belsport%20La%20Florida%2C%20Av.%20Vicu%C3%B1a%20Mackenna%20oriente%206100%2C%20La%20Florida">Ver en Google Maps</a>]]></description><styleUrl>#s</styleUrl><Point><coordinates>-70.607384,-33.510328,0</coordinates></Point></Placemark>
<Placemark><name>Belsport La Serena</name><description><![CDATA[Alberto Solari 1400, La Serena<br><a href="https://www.google.com/maps/search/?api=1&query=Belsport%20La%20Serena%2C%20Alberto%20Solari%201400%2C%20La%20Serena">Ver en Google Maps</a>]]></description><styleUrl>#s</styleUrl><Point><coordinates>-71.25824,-29.912734,0</coordinates></Point></Placemark>
<Placemark><name>Belsport Los Ángeles</name><description><![CDATA[Valdivia 440, Los Ángeles<br><a href="https://www.google.com/maps/search/?api=1&query=Belsport%20Los%20%C3%81ngeles%2C%20Valdivia%20440%2C%20Los%20%C3%81ngeles">Ver en Google Maps</a>]]></description><styleUrl>#s</styleUrl><Point><coordinates>-72.352809,-37.468337,0</coordinates></Point></Placemark>
<Placemark><name>Belsport Maipu</name><description><![CDATA[Av. Americo Vespucio 399, Maipú<br><a href="https://www.google.com/maps/search/?api=1&query=Belsport%20Maipu%2C%20Av.%20Americo%20Vespucio%20399%2C%20Maip%C3%BA">Ver en Google Maps</a>]]></description><styleUrl>#s</styleUrl><Point><coordinates>-70.751863,-33.481308,0</coordinates></Point></Placemark>
<Placemark><name>Belsport Marina</name><description><![CDATA[Av. Libertad 1348, Viña del Mar<br><a href="https://www.google.com/maps/search/?api=1&query=Belsport%20Marina%2C%20Av.%20Libertad%201348%2C%20Vi%C3%B1a%20del%20Mar">Ver en Google Maps</a>]]></description><styleUrl>#s</styleUrl><Point><coordinates>-71.548395,-33.008622,0</coordinates></Point></Placemark>
<Placemark><name>Belsport Osorno</name><description><![CDATA[Plazuela Yungay 609, Osorno<br><a href="https://www.google.com/maps/search/?api=1&query=Belsport%20Osorno%2C%20Plazuela%20Yungay%20609%2C%20Osorno">Ver en Google Maps</a>]]></description><styleUrl>#s</styleUrl><Point><coordinates>-73.1353,-40.574,0</coordinates></Point></Placemark>
<Placemark><name>Belsport Ovalle II</name><description><![CDATA[Avda Benavente 1075, Ovalle<br><a href="https://www.google.com/maps/search/?api=1&query=Belsport%20Ovalle%20II%2C%20Avda%20Benavente%201075%2C%20Ovalle">Ver en Google Maps</a>]]></description><styleUrl>#s</styleUrl><Point><coordinates>-71.184077,-30.598208,0</coordinates></Point></Placemark>
<Placemark><name>Belsport Pajaritos</name><description><![CDATA[Avenida 5 De Abril 33, Maipú<br><a href="https://www.google.com/maps/search/?api=1&query=Belsport%20Pajaritos%2C%20Avenida%205%20De%20Abril%2033%2C%20Maip%C3%BA">Ver en Google Maps</a>]]></description><styleUrl>#s</styleUrl><Point><coordinates>-70.757687,-33.510298,0</coordinates></Point></Placemark>
<Placemark><name>Belsport Parque Arauco</name><description><![CDATA[Av. Kennedy 5413, Las Condes<br><a href="https://www.google.com/maps/search/?api=1&query=Belsport%20Parque%20Arauco%2C%20Av.%20Kennedy%205413%2C%20Las%20Condes">Ver en Google Maps</a>]]></description><styleUrl>#s</styleUrl><Point><coordinates>-70.579016,-33.401899,0</coordinates></Point></Placemark>
<Placemark><name>Belsport Peña</name><description><![CDATA[Peña 799, Valparaíso<br><a href="https://www.google.com/maps/search/?api=1&query=Belsport%20Pe%C3%B1a%2C%20Pe%C3%B1a%20799%2C%20Valpara%C3%ADso">Ver en Google Maps</a>]]></description><styleUrl>#s</styleUrl><Point><coordinates>-71.618,-33.044,0</coordinates></Point></Placemark>
<Placemark><name>Belsport Plaza Arica</name><description><![CDATA[Avenida Diego Portales 640, Arica<br><a href="https://www.google.com/maps/search/?api=1&query=Belsport%20Plaza%20Arica%2C%20Avenida%20Diego%20Portales%20640%2C%20Arica">Ver en Google Maps</a>]]></description><styleUrl>#s</styleUrl><Point><coordinates>-70.308588,-18.469274,0</coordinates></Point></Placemark>
<Placemark><name>Belsport Plaza Egaña</name><description><![CDATA[Avda. Larrain 5862, Ñuñoa<br><a href="https://www.google.com/maps/search/?api=1&query=Belsport%20Plaza%20Ega%C3%B1a%2C%20Avda.%20Larrain%205862%2C%20%C3%91u%C3%B1oa">Ver en Google Maps</a>]]></description><styleUrl>#s</styleUrl><Point><coordinates>-70.56947,-33.452438,0</coordinates></Point></Placemark>
<Placemark><name>Belsport Plaza Oeste</name><description><![CDATA[Av. Americo Vespucio 1501, Pudahuel<br><a href="https://www.google.com/maps/search/?api=1&query=Belsport%20Plaza%20Oeste%2C%20Av.%20Americo%20Vespucio%201501%2C%20Pudahuel">Ver en Google Maps</a>]]></description><styleUrl>#s</styleUrl><Point><coordinates>-70.716106,-33.51718,0</coordinates></Point></Placemark>
<Placemark><name>Belsport Plaza Sur</name><description><![CDATA[Av. Jorge Alesandri 20040, Puente Alto<br><a href="https://www.google.com/maps/search/?api=1&query=Belsport%20Plaza%20Sur%2C%20Av.%20Jorge%20Alesandri%2020040%2C%20Puente%20Alto">Ver en Google Maps</a>]]></description><styleUrl>#s</styleUrl><Point><coordinates>-70.710785,-33.632274,0</coordinates></Point></Placemark>
<Placemark><name>Belsport Puente</name><description><![CDATA[Puente 565, Santiago<br><a href="https://www.google.com/maps/search/?api=1&query=Belsport%20Puente%2C%20Puente%20565%2C%20Santiago">Ver en Google Maps</a>]]></description><styleUrl>#s</styleUrl><Point><coordinates>-70.651079,-33.436541,0</coordinates></Point></Placemark>
<Placemark><name>Belsport Puente Alto</name><description><![CDATA[Av. Concha Y Toro 230, Puente Alto<br><a href="https://www.google.com/maps/search/?api=1&query=Belsport%20Puente%20Alto%2C%20Av.%20Concha%20Y%20Toro%20230%2C%20Puente%20Alto">Ver en Google Maps</a>]]></description><styleUrl>#s</styleUrl><Point><coordinates>-70.57611,-33.609774,0</coordinates></Point></Placemark>
<Placemark><name>Belsport Puerto Montt</name><description><![CDATA[Illapel 10, Puerto Montt<br><a href="https://www.google.com/maps/search/?api=1&query=Belsport%20Puerto%20Montt%2C%20Illapel%2010%2C%20Puerto%20Montt">Ver en Google Maps</a>]]></description><styleUrl>#s</styleUrl><Point><coordinates>-72.936349,-41.472193,0</coordinates></Point></Placemark>
<Placemark><name>Belsport Puerto Montt 2</name><description><![CDATA[Urmeneta 580, Puerto Montt<br><a href="https://www.google.com/maps/search/?api=1&query=Belsport%20Puerto%20Montt%202%2C%20Urmeneta%20580%2C%20Puerto%20Montt">Ver en Google Maps</a>]]></description><styleUrl>#s</styleUrl><Point><coordinates>-72.943418,-41.471923,0</coordinates></Point></Placemark>
<Placemark><name>Belsport Punta Arenas</name><description><![CDATA[Av. Frei 1110, Punta Arenas<br><a href="https://www.google.com/maps/search/?api=1&query=Belsport%20Punta%20Arenas%2C%20Av.%20Frei%201110%2C%20Punta%20Arenas">Ver en Google Maps</a>]]></description><styleUrl>#s</styleUrl><Point><coordinates>-70.93056,-53.155624,0</coordinates></Point></Placemark>
<Placemark><name>Belsport Quilicura</name><description><![CDATA[Av. Ohiggins 581, Quilicura<br><a href="https://www.google.com/maps/search/?api=1&query=Belsport%20Quilicura%2C%20Av.%20Ohiggins%20581%2C%20Quilicura">Ver en Google Maps</a>]]></description><styleUrl>#s</styleUrl><Point><coordinates>-70.73002,-33.368358,0</coordinates></Point></Placemark>
<Placemark><name>Belsport Rancagua</name><description><![CDATA[Independencia 675, Rancagua<br><a href="https://www.google.com/maps/search/?api=1&query=Belsport%20Rancagua%2C%20Independencia%20675%2C%20Rancagua">Ver en Google Maps</a>]]></description><styleUrl>#s</styleUrl><Point><coordinates>-70.744469,-34.169684,0</coordinates></Point></Placemark>
<Placemark><name>Belsport Rosas</name><description><![CDATA[Puente 689, Santiago<br><a href="https://www.google.com/maps/search/?api=1&query=Belsport%20Rosas%2C%20Puente%20689%2C%20Santiago">Ver en Google Maps</a>]]></description><styleUrl>#s</styleUrl><Point><coordinates>-70.651465,-33.434567,0</coordinates></Point></Placemark>
<Placemark><name>Belsport San Bernardo</name><description><![CDATA[Eyzaguirre 539, San Bernardo<br><a href="https://www.google.com/maps/search/?api=1&query=Belsport%20San%20Bernardo%2C%20Eyzaguirre%20539%2C%20San%20Bernardo">Ver en Google Maps</a>]]></description><styleUrl>#s</styleUrl><Point><coordinates>-70.705421,-33.593164,0</coordinates></Point></Placemark>
<Placemark><name>Belsport San Fernando</name><description><![CDATA[Bernardo O'Higgins 701, San Fernando<br><a href="https://www.google.com/maps/search/?api=1&query=Belsport%20San%20Fernando%2C%20Bernardo%20O'Higgins%20701%2C%20San%20Fernando">Ver en Google Maps</a>]]></description><styleUrl>#s</styleUrl><Point><coordinates>-70.985795,-34.586152,0</coordinates></Point></Placemark>
<Placemark><name>Belsport San Pablo</name><description><![CDATA[Puente 755, Santiago<br><a href="https://www.google.com/maps/search/?api=1&query=Belsport%20San%20Pablo%2C%20Puente%20755%2C%20Santiago">Ver en Google Maps</a>]]></description><styleUrl>#s</styleUrl><Point><coordinates>-70.651553,-33.434595,0</coordinates></Point></Placemark>
<Placemark><name>Belsport Talca</name><description><![CDATA[Av Circunvalacion Oriente 1055, Talca<br><a href="https://www.google.com/maps/search/?api=1&query=Belsport%20Talca%2C%20Av%20Circunvalacion%20Oriente%201055%2C%20Talca">Ver en Google Maps</a>]]></description><styleUrl>#s</styleUrl><Point><coordinates>-71.626345,-35.427268,0</coordinates></Point></Placemark>
<Placemark><name>Belsport Talca 2</name><description><![CDATA[Uno Sur 1168, Talca<br><a href="https://www.google.com/maps/search/?api=1&query=Belsport%20Talca%202%2C%20Uno%20Sur%201168%2C%20Talca">Ver en Google Maps</a>]]></description><styleUrl>#s</styleUrl><Point><coordinates>-71.660244,-35.427589,0</coordinates></Point></Placemark>
<Placemark><name>Belsport Temuco</name><description><![CDATA[Av Alemania 671, Temuco<br><a href="https://www.google.com/maps/search/?api=1&query=Belsport%20Temuco%2C%20Av%20Alemania%20671%2C%20Temuco">Ver en Google Maps</a>]]></description><styleUrl>#s</styleUrl><Point><coordinates>-72.610499,-38.734116,0</coordinates></Point></Placemark>
<Placemark><name>Belsport Temuco 2</name><description><![CDATA[Manuel Bulnes 332, Temuco<br><a href="https://www.google.com/maps/search/?api=1&query=Belsport%20Temuco%202%2C%20Manuel%20Bulnes%20332%2C%20Temuco">Ver en Google Maps</a>]]></description><styleUrl>#s</styleUrl><Point><coordinates>-72.588854,-38.736992,0</coordinates></Point></Placemark>
<Placemark><name>Belsport Tobalaba</name><description><![CDATA[Camilo Henriquez 3692, Puente Alto<br><a href="https://www.google.com/maps/search/?api=1&query=Belsport%20Tobalaba%2C%20Camilo%20Henriquez%203692%2C%20Puente%20Alto">Ver en Google Maps</a>]]></description><styleUrl>#s</styleUrl><Point><coordinates>-70.557325,-33.569309,0</coordinates></Point></Placemark>
<Placemark><name>Belsport Valdivia</name><description><![CDATA[Arauco 561, Valdivia<br><a href="https://www.google.com/maps/search/?api=1&query=Belsport%20Valdivia%2C%20Arauco%20561%2C%20Valdivia">Ver en Google Maps</a>]]></description><styleUrl>#s</styleUrl><Point><coordinates>-73.242429,-39.816243,0</coordinates></Point></Placemark>
<Placemark><name>Belsport Valdivia 2</name><description><![CDATA[Ramon Picarte 422, Valdivia<br><a href="https://www.google.com/maps/search/?api=1&query=Belsport%20Valdivia%202%2C%20Ramon%20Picarte%20422%2C%20Valdivia">Ver en Google Maps</a>]]></description><styleUrl>#s</styleUrl><Point><coordinates>-73.243483,-39.814368,0</coordinates></Point></Placemark>
<Placemark><name>Belsport Vespucio</name><description><![CDATA[Av. Vicuña Mackena 7110, La Florida<br><a href="https://www.google.com/maps/search/?api=1&query=Belsport%20Vespucio%2C%20Av.%20Vicu%C3%B1a%20Mackena%207110%2C%20La%20Florida">Ver en Google Maps</a>]]></description><styleUrl>#s</styleUrl><Point><coordinates>-70.598357,-33.518505,0</coordinates></Point></Placemark>
<Placemark><name>Belsport Viña del Mar</name><description><![CDATA[Av. Valparaiso 602, Viña del Mar<br><a href="https://www.google.com/maps/search/?api=1&query=Belsport%20Vi%C3%B1a%20del%20Mar%2C%20Av.%20Valparaiso%20602%2C%20Vi%C3%B1a%20del%20Mar">Ver en Google Maps</a>]]></description><styleUrl>#s</styleUrl><Point><coordinates>-71.553928,-33.024835,0</coordinates></Point></Placemark>
<Placemark><name>Belsport Vivo Coquimbo</name><description><![CDATA[Avenida General Baquedano 86, Coquimbo<br><a href="https://www.google.com/maps/search/?api=1&query=Belsport%20Vivo%20Coquimbo%2C%20Avenida%20General%20Baquedano%2086%2C%20Coquimbo">Ver en Google Maps</a>]]></description><styleUrl>#s</styleUrl><Point><coordinates>-71.336685,-29.959528,0</coordinates></Point></Placemark>
</Document></kml>