<?xml version="1.0" encoding="UTF-8"?>
<kml xmlns="http://www.opengis.net/kml/2.2"><Document><name>Bold</name><Style id="s"><IconStyle><color>ff08B3EA</color><scale>1</scale><Icon><href>https://www.gstatic.com/mapspro/images/stock/503-wht-blank_maps.png</href></Icon></IconStyle></Style>
<Placemark><name>Bold Alto Las Condes</name><description><![CDATA[Avenida Kennedy 9001, Las Condes<br><a href="https://www.google.com/maps/search/?api=1&query=Bold%20Alto%20Las%20Condes%2C%20Avenida%20Kennedy%209001%2C%20Las%20Condes">Ver en Google Maps</a>]]></description><styleUrl>#s</styleUrl><Point><coordinates>-70.545985,-33.391703,0</coordinates></Point></Placemark>
<Placemark><name>Bold Parque Arauco</name><description><![CDATA[Avda Kennedy 5413, Las Condes<br><a href="https://www.google.com/maps/search/?api=1&query=Bold%20Parque%20Arauco%2C%20Avda%20Kennedy%205413%2C%20Las%20Condes">Ver en Google Maps</a>]]></description><styleUrl>#s</styleUrl><Point><coordinates>-70.577226,-33.401751,0</coordinates></Point></Placemark>
<Placemark><name>Bold Costanera Center</name><description><![CDATA[Avda Andrés Bello 2447, Providencia<br><a href="https://www.google.com/maps/search/?api=1&query=Bold%20Costanera%20Center%2C%20Avda%20Andr%C3%A9s%20Bello%202447%2C%20Providencia">Ver en Google Maps</a>]]></description><styleUrl>#s</styleUrl><Point><coordinates>-70.606085,-33.417594,0</coordinates></Point></Placemark>
<Placemark><name>Bold Mall Plaza Egaña</name><description><![CDATA[Avda Larrain 5862, Ñuñoa<br><a href="https://www.google.com/maps/search/?api=1&query=Bold%20Mall%20Plaza%20Ega%C3%B1a%2C%20Avda%20Larrain%205862%2C%20%C3%91u%C3%B1oa">Ver en Google Maps</a>]]></description><styleUrl>#s</styleUrl><Point><coordinates>-70.56947,-33.452438,0</coordinates></Point></Placemark>
<Placemark><name>Bold Mall Barrio Independencia</name><description><![CDATA[Avda Independencia 565, Independencia<br><a href="https://www.google.com/maps/search/?api=1&query=Bold%20Mall%20Barrio%20Independencia%2C%20Avda%20Independencia%20565%2C%20Independencia">Ver en Google Maps</a>]]></description><styleUrl>#s</styleUrl><Point><coordinates>-70.654728,-33.424686,0</coordinates></Point></Placemark>
<Placemark><name>Bold Mall Plaza Norte</name><description><![CDATA[Avda Americo Vespucio 1737, Huechuraba<br><a href="https://www.google.com/maps/search/?api=1&query=Bold%20Mall%20Plaza%20Norte%2C%20Avda%20Americo%20Vespucio%201737%2C%20Huechuraba">Ver en Google Maps</a>]]></description><styleUrl>#s</styleUrl><Point><coordinates>-70.679045,-33.367441,0</coordinates></Point></Placemark>
<Placemark><name>Bold Ahumada</name><description><![CDATA[Ahumada 252, Santiago<br><a href="https://www.google.com/maps/search/?api=1&query=Bold%20Ahumada%2C%20Ahumada%20252%2C%20Santiago">Ver en Google Maps</a>]]></description><styleUrl>#s</styleUrl><Point><coordinates>-70.651025,-33.440185,0</coordinates></Point></Placemark>
<Placemark><name>Bold Mall Vivo Imperio</name><description><![CDATA[Huerfanos 830, Santiago<br><a href="https://www.google.com/maps/search/?api=1&query=Bold%20Mall%20Vivo%20Imperio%2C%20Huerfanos%20830%2C%20Santiago">Ver en Google Maps</a>]]></description><styleUrl>#s</styleUrl><Point><coordinates>-70.648587,-33.439611,0</coordinates></Point></Placemark>
<Placemark><name>Bold Puente</name><description><![CDATA[Calle Puente 721, Santiago<br><a href="https://www.google.com/maps/search/?api=1&query=Bold%20Puente%2C%20Calle%20Puente%20721%2C%20Santiago">Ver en Google Maps</a>]]></description><styleUrl>#s</styleUrl><Point><coordinates>-70.651047,-33.440296,0</coordinates></Point></Placemark>
<Placemark><name>Bold Florida Center</name><description><![CDATA[Avda Vicuña Mackenna oriente 6100, La Florida<br><a href="https://www.google.com/maps/search/?api=1&query=Bold%20Florida%20Center%2C%20Avda%20Vicu%C3%B1a%20Mackenna%20oriente%206100%2C%20La%20Florida">Ver en Google Maps</a>]]></description><styleUrl>#s</styleUrl><Point><coordinates>-70.608022,-33.510466,0</coordinates></Point></Placemark>
<Placemark><name>Bold Mall Plaza Alameda</name><description><![CDATA[Avda Libertador Bernardo Ohiggins 3470, Santiago<br><a href="https://www.google.com/maps/search/?api=1&query=Bold%20Mall%20Plaza%20Alameda%2C%20Avda%20Libertador%20Bernardo%20Ohiggins%203470%2C%20Santiago">Ver en Google Maps</a>]]></description><styleUrl>#s</styleUrl><Point><coordinates>-70.682277,-33.452674,0</coordinates></Point></Placemark>
<Placemark><name>Bold Plaza Vespucio</name><description><![CDATA[Avda Vicuña Mackenna 7110, La Florida<br><a href="https://www.google.com/maps/search/?api=1&query=Bold%20Plaza%20Vespucio%2C%20Avda%20Vicu%C3%B1a%20Mackenna%207110%2C%20La%20Florida">Ver en Google Maps</a>]]></description><styleUrl>#s</styleUrl><Point><coordinates>-70.59693,-33.517081,0</coordinates></Point></Placemark>
<Placemark><name>Bold Mall Plaza Tobalaba</name><description><![CDATA[Avda Camilo Henriquez 3692, Puente Alto<br><a href="https://www.google.com/maps/search/?api=1&query=Bold%20Mall%20Plaza%20Tobalaba%2C%20Avda%20Camilo%20Henriquez%203692%2C%20Puente%20Alto">Ver en Google Maps</a>]]></description><styleUrl>#s</styleUrl><Point><coordinates>-70.554144,-33.574682,0</coordinates></Point></Placemark>
<Placemark><name>Bold Mall Plaza Oeste</name><description><![CDATA[Avda Americo Vepucio 1501, Pudahuel<br><a href="https://www.google.com/maps/search/?api=1&query=Bold%20Mall%20Plaza%20Oeste%2C%20Avda%20Americo%20Vepucio%201501%2C%20Pudahuel">Ver en Google Maps</a>]]></description><styleUrl>#s</styleUrl><Point><coordinates>-70.717268,-33.516986,0</coordinates></Point></Placemark>
<Placemark><name>Bold Arauco Maipu</name><description><![CDATA[Avda Américo Vespucio 399, Maipú<br><a href="https://www.google.com/maps/search/?api=1&query=Bold%20Arauco%20Maipu%2C%20Avda%20Am%C3%A9rico%20Vespucio%20399%2C%20Maip%C3%BA">Ver en Google Maps</a>]]></description><styleUrl>#s</styleUrl><Point><coordinates>-70.750283,-33.483004,0</coordinates></Point></Placemark>
<Placemark><name>Bold San Bernardo</name><description><![CDATA[Eyzaguirre 597, San Bernardo<br><a href="https://www.google.com/maps/search/?api=1&query=Bold%20San%20Bernardo%2C%20Eyzaguirre%20597%2C%20San%20Bernardo">Ver en Google Maps</a>]]></description><styleUrl>#s</styleUrl><Point><coordinates>-70.705818,-33.594308,0</coordinates></Point></Placemark>
<Placemark><name>Bold Mall Plaza Sur</name><description><![CDATA[Avda Jorge Alessandri 20040, Puente Alto<br><a href="https://www.google.com/maps/search/?api=1&query=Bold%20Mall%20Plaza%20Sur%2C%20Avda%20Jorge%20Alessandri%2020040%2C%20Puente%20Alto">Ver en Google Maps</a>]]></description><styleUrl>#s</styleUrl><Point><coordinates>-70.710314,-33.632144,0</coordinates></Point></Placemark>
<Placemark><name>Bold Rancagua</name><description><![CDATA[Independencia 690, Rancagua<br><a href="https://www.google.com/maps/search/?api=1&query=Bold%20Rancagua%2C%20Independencia%20690%2C%20Rancagua">Ver en Google Maps</a>]]></description><styleUrl>#s</styleUrl><Point><coordinates>-70.744678,-34.169864,0</coordinates></Point></Placemark>
<Placemark><name>Bold Mall Marina Arauco</name><description><![CDATA[Calle 14 Norte 976, Viña del Mar<br><a href="https://www.google.com/maps/search/?api=1&query=Bold%20Mall%20Marina%20Arauco%2C%20Calle%2014%20Norte%20976%2C%20Vi%C3%B1a%20del%20Mar">Ver en Google Maps</a>]]></description><styleUrl>#s</styleUrl><Point><coordinates>-71.545738,-33.010254,0</coordinates></Point></Placemark>
<Placemark><name>Bold Talca</name><description><![CDATA[Calle 1 Sur 1543, Talca<br><a href="https://www.google.com/maps/search/?api=1&query=Bold%20Talca%2C%20Calle%201%20Sur%201543%2C%20Talca">Ver en Google Maps</a>]]></description><styleUrl>#s</styleUrl><Point><coordinates>-71.65482,-35.427506,0</coordinates></Point></Placemark>
<Placemark><name>Bold Mall Vivo Coquimbo</name><description><![CDATA[Avda General Baquedano 86, Coquimbo<br><a href="https://www.google.com/maps/search/?api=1&query=Bold%20Mall%20Vivo%20Coquimbo%2C%20Avda%20General%20Baquedano%2086%2C%20Coquimbo">Ver en Google Maps</a>]]></description><styleUrl>#s</styleUrl><Point><coordinates>-71.337616,-29.957957,0</coordinates></Point></Placemark>
<Placemark><name>Bold La Serena</name><description><![CDATA[Avenida Alberto Solari 1400, La Serena<br><a href="https://www.google.com/maps/search/?api=1&query=Bold%20La%20Serena%2C%20Avenida%20Alberto%20Solari%201400%2C%20La%20Serena">Ver en Google Maps</a>]]></description><styleUrl>#s</styleUrl><Point><coordinates>-71.257094,-29.91207,0</coordinates></Point></Placemark>
<Placemark><name>Bold Mall Plaza Trebol</name><description><![CDATA[Avda Jorge Alesandri 3177, Concepción<br><a href="https://www.google.com/maps/search/?api=1&query=Bold%20Mall%20Plaza%20Trebol%2C%20Avda%20Jorge%20Alesandri%203177%2C%20Concepci%C3%B3n">Ver en Google Maps</a>]]></description><styleUrl>#s</styleUrl><Point><coordinates>-73.064165,-36.790121,0</coordinates></Point></Placemark>
<Placemark><name>Bold Coronel</name><description><![CDATA[Avenida Carlos Prats 0901, Coronel<br><a href="https://www.google.com/maps/search/?api=1&query=Bold%20Coronel%2C%20Avenida%20Carlos%20Prats%200901%2C%20Coronel">Ver en Google Maps</a>]]></description><styleUrl>#s</styleUrl><Point><coordinates>-73.158321,-37.012989,0</coordinates></Point></Placemark>
<Placemark><name>Bold Mall Portal Temuco</name><description><![CDATA[Avda Alemania 0671, Temuco<br><a href="https://www.google.com/maps/search/?api=1&query=Bold%20Mall%20Portal%20Temuco%2C%20Avda%20Alemania%200671%2C%20Temuco">Ver en Google Maps</a>]]></description><styleUrl>#s</styleUrl><Point><coordinates>-72.610636,-38.732908,0</coordinates></Point></Placemark>
<Placemark><name>Bold Mall Paseo Valdivia</name><description><![CDATA[Ramon Picarte 422, Valdivia<br><a href="https://www.google.com/maps/search/?api=1&query=Bold%20Mall%20Paseo%20Valdivia%2C%20Ramon%20Picarte%20422%2C%20Valdivia">Ver en Google Maps</a>]]></description><styleUrl>#s</styleUrl><Point><coordinates>-73.243483,-39.814368,0</coordinates></Point></Placemark>
<Placemark><name>Bold Puerto Montt</name><description><![CDATA[Juan Soler Manfredini 131, Puerto Montt<br><a href="https://www.google.com/maps/search/?api=1&query=Bold%20Puerto%20Montt%2C%20Juan%20Soler%20Manfredini%20131%2C%20Puerto%20Montt">Ver en Google Maps</a>]]></description><styleUrl>#s</styleUrl><Point><coordinates>-72.934268,-41.473875,0</coordinates></Point></Placemark>
<Placemark><name>Bold Chiloe</name><description><![CDATA[Ignacio Serrano 240, Castro<br><a href="https://www.google.com/maps/search/?api=1&query=Bold%20Chiloe%2C%20Ignacio%20Serrano%20240%2C%20Castro">Ver en Google Maps</a>]]></description><styleUrl>#s</styleUrl><Point><coordinates>-73.762288,-42.479621,0</coordinates></Point></Placemark>
<Placemark><name>Bold Antofagasta</name><description><![CDATA[Avda Balmaceda 2355, Antofagasta<br><a href="https://www.google.com/maps/search/?api=1&query=Bold%20Antofagasta%2C%20Avda%20Balmaceda%202355%2C%20Antofagasta">Ver en Google Maps</a>]]></description><styleUrl>#s</styleUrl><Point><coordinates>-70.401256,-23.646264,0</coordinates></Point></Placemark>
<Placemark><name>Bold Mall Plaza Calama</name><description><![CDATA[Avda Balmaceda 3242, Calama<br><a href="https://www.google.com/maps/search/?api=1&query=Bold%20Mall%20Plaza%20Calama%2C%20Avda%20Balmaceda%203242%2C%20Calama">Ver en Google Maps</a>]]></description><styleUrl>#s</styleUrl><Point><coordinates>-68.92142,-22.44986,0</coordinates></Point></Placemark>
<Placemark><name>Bold Mall Plaza Iquique</name><description><![CDATA[Avda Heroes de la Concepcion 2555, Iquique<br><a href="https://www.google.com/maps/search/?api=1&query=Bold%20Mall%20Plaza%20Iquique%2C%20Avda%20Heroes%20de%20la%20Concepcion%202555%2C%20Iquique">Ver en Google Maps</a>]]></description><styleUrl>#s</styleUrl><Point><coordinates>-70.142829,-20.232984,0</coordinates></Point></Placemark>
<Placemark><name>Bold Mall Plaza Arica</name><description><![CDATA[Avda Diego Portales 640, Arica<br><a href="https://www.google.com/maps/search/?api=1&query=Bold%20Mall%20Plaza%20Arica%2C%20Avda%20Diego%20Portales%20640%2C%20Arica">Ver en Google Maps</a>]]></description><styleUrl>#s</styleUrl><Point><coordinates>-70.308456,-18.46946,0</coordinates></Point></Placemark>
</Document></kml>