<?xml version="1.0" encoding="UTF-8"?>
<kml xmlns="http://www.opengis.net/kml/2.2"><Document><name>Falabella</name><Style id="s"><IconStyle><color>ff4AA316</color><scale>1</scale><Icon><href>https://www.gstatic.com/mapspro/images/stock/503-wht-blank_maps.png</href></Icon></IconStyle></Style>
<Placemark><name>Falabella Costanera Center</name><description><![CDATA[Andrés Bello 2447, Providencia<br><a href="https://www.google.com/maps/search/?api=1&query=Falabella%20Costanera%20Center%2C%20Andr%C3%A9s%20Bello%202447%2C%20Providencia">Ver en Google Maps</a>]]></description><styleUrl>#s</styleUrl><Point><coordinates>-70.606149,-33.417438,0</coordinates></Point></Placemark>
<Placemark><name>Falabella Independencia</name><description><![CDATA[Av. Independencia 565, Independencia<br><a href="https://www.google.com/maps/search/?api=1&query=Falabella%20Independencia%2C%20Av.%20Independencia%20565%2C%20Independencia">Ver en Google Maps</a>]]></description><styleUrl>#s</styleUrl><Point><coordinates>-70.653499,-33.424221,0</coordinates></Point></Placemark>
<Placemark><name>Falabella Centro Ahumada</name><description><![CDATA[Ahumada 280, Santiago<br><a href="https://www.google.com/maps/search/?api=1&query=Falabella%20Centro%20Ahumada%2C%20Ahumada%20280%2C%20Santiago">Ver en Google Maps</a>]]></description><styleUrl>#s</styleUrl><Point><coordinates>-70.651063,-33.439922,0</coordinates></Point></Placemark>
<Placemark><name>Falabella Los Domínicos</name><description><![CDATA[Av. Padre Hurtado 785, Las Condes<br><a href="https://www.google.com/maps/search/?api=1&query=Falabella%20Los%20Dom%C3%ADnicos%2C%20Av.%20Padre%20Hurtado%20785%2C%20Las%20Condes">Ver en Google Maps</a>]]></description><styleUrl>#s</styleUrl><Point><coordinates>-70.544615,-33.401421,0</coordinates></Point></Placemark>
<Placemark><name>Falabella Mall Alto Las Condes</name><description><![CDATA[Av. Kennedy 9001, Las Condes<br><a href="https://www.google.com/maps/search/?api=1&query=Falabella%20Mall%20Alto%20Las%20Condes%2C%20Av.%20Kennedy%209001%2C%20Las%20Condes">Ver en Google Maps</a>]]></description><styleUrl>#s</styleUrl><Point><coordinates>-70.54563,-33.390182,0</coordinates></Point></Placemark>
<Placemark><name>Falabella Mall Arauco Maipú</name><description><![CDATA[Av. Américo Vespucio 399, Maipú<br><a href="https://www.google.com/maps/search/?api=1&query=Falabella%20Mall%20Arauco%20Maip%C3%BA%2C%20Av.%20Am%C3%A9rico%20Vespucio%20399%2C%20Maip%C3%BA">Ver en Google Maps</a>]]></description><styleUrl>#s</styleUrl><Point><coordinates>-70.751195,-33.481044,0</coordinates></Point></Placemark>
<Placemark><name>Falabella Mall La Dehesa</name><description><![CDATA[Av. La Dehesa 1445, Lo Barnechea<br><a href="https://www.google.com/maps/search/?api=1&query=Falabella%20Mall%20La%20Dehesa%2C%20Av.%20La%20Dehesa%201445%2C%20Lo%20Barnechea">Ver en Google Maps</a>]]></description><styleUrl>#s</styleUrl><Point><coordinates>-70.514935,-33.357521,0</coordinates></Point></Placemark>
<Placemark><name>Falabella Mall Parque Arauco</name><description><![CDATA[Av. Kennedy 5413, Las Condes<br><a href="https://www.google.com/maps/search/?api=1&query=Falabella%20Mall%20Parque%20Arauco%2C%20Av.%20Kennedy%205413%2C%20Las%20Condes">Ver en Google Maps</a>]]></description><styleUrl>#s</styleUrl><Point><coordinates>-70.577304,-33.402322,0</coordinates></Point></Placemark>
<Placemark><name>Falabella Mall Plaza Norte</name><description><![CDATA[Av. Américo Vespucio 1737, Huechuraba<br><a href="https://www.google.com/maps/search/?api=1&query=Falabella%20Mall%20Plaza%20Norte%2C%20Av.%20Am%C3%A9rico%20Vespucio%201737%2C%20Huechuraba">Ver en Google Maps</a>]]></description><styleUrl>#s</styleUrl><Point><coordinates>-70.679426,-33.36573,0</coordinates></Point></Placemark>
<Placemark><name>Falabella Mall Plaza Oeste</name><description><![CDATA[Av. Américo Vespucio 1501, Pudahuel<br><a href="https://www.google.com/maps/search/?api=1&query=Falabella%20Mall%20Plaza%20Oeste%2C%20Av.%20Am%C3%A9rico%20Vespucio%201501%2C%20Pudahuel">Ver en Google Maps</a>]]></description><styleUrl>#s</styleUrl><Point><coordinates>-70.746,-33.488,0</coordinates></Point></Placemark>
<Placemark><name>Falabella Mall Plaza Vespucio</name><description><![CDATA[Av. Vicuña Mackenna 7110, La Florida<br><a href="https://www.google.com/maps/search/?api=1&query=Falabella%20Mall%20Plaza%20Vespucio%2C%20Av.%20Vicu%C3%B1a%20Mackenna%207110%2C%20La%20Florida">Ver en Google Maps</a>]]></description><styleUrl>#s</styleUrl><Point><coordinates>-70.601126,-33.517052,0</coordinates></Point></Placemark>
<Placemark><name>Falabella Mall Plaza Egaña</name><description><![CDATA[Av. Larraín 5862, Ñuñoa<br><a href="https://www.google.com/maps/search/?api=1&query=Falabella%20Mall%20Plaza%20Ega%C3%B1a%2C%20Av.%20Larra%C3%ADn%205862%2C%20%C3%91u%C3%B1oa">Ver en Google Maps</a>]]></description><styleUrl>#s</styleUrl><Point><coordinates>-70.564,-33.458,0</coordinates></Point></Placemark>
<Placemark><name>Falabella Melipilla</name><description><![CDATA[O'Higgins 580, Melipilla<br><a href="https://www.google.com/maps/search/?api=1&query=Falabella%20Melipilla%2C%20O'Higgins%20580%2C%20Melipilla">Ver en Google Maps</a>]]></description><styleUrl>#s</styleUrl><Point><coordinates>-71.213,-33.692,0</coordinates></Point></Placemark>
<Placemark><name>Falabella Express Puente Alto</name><description><![CDATA[Av. Concha y Toro 230, Puente Alto<br><a href="https://www.google.com/maps/search/?api=1&query=Falabella%20Express%20Puente%20Alto%2C%20Av.%20Concha%20y%20Toro%20230%2C%20Puente%20Alto">Ver en Google Maps</a>]]></description><styleUrl>#s</styleUrl><Point><coordinates>-70.574581,-33.615381,0</coordinates></Point></Placemark>
<Placemark><name>Falabella Expo Grecia</name><description><![CDATA[Av. Grecia 3042, Ñuñoa<br><a href="https://www.google.com/maps/search/?api=1&query=Falabella%20Expo%20Grecia%2C%20Av.%20Grecia%203042%2C%20%C3%91u%C3%B1oa">Ver en Google Maps</a>]]></description><styleUrl>#s</styleUrl><Point><coordinates>-70.599776,-33.464416,0</coordinates></Point></Placemark>
<Placemark><name>Falabella Plaza Puente</name><description><![CDATA[Puente 689, Santiago<br><a href="https://www.google.com/maps/search/?api=1&query=Falabella%20Plaza%20Puente%2C%20Puente%20689%2C%20Santiago">Ver en Google Maps</a>]]></description><styleUrl>#s</styleUrl><Point><coordinates>-70.65146,-33.435253,0</coordinates></Point></Placemark>
<Placemark><name>Falabella Tobalaba</name><description><![CDATA[Av. Camilo Henríquez 3692, Puente Alto<br><a href="https://www.google.com/maps/search/?api=1&query=Falabella%20Tobalaba%2C%20Av.%20Camilo%20Henr%C3%ADquez%203692%2C%20Puente%20Alto">Ver en Google Maps</a>]]></description><styleUrl>#s</styleUrl><Point><coordinates>-70.557338,-33.570293,0</coordinates></Point></Placemark>
<Placemark><name>Falabella Mall Plaza Arica</name><description><![CDATA[Av. Diego Portales 640, Arica<br><a href="https://www.google.com/maps/search/?api=1&query=Falabella%20Mall%20Plaza%20Arica%2C%20Av.%20Diego%20Portales%20640%2C%20Arica">Ver en Google Maps</a>]]></description><styleUrl>#s</styleUrl><Point><coordinates>-70.309542,-18.469548,0</coordinates></Point></Placemark>
<Placemark><name>Falabella Mall Plaza Iquique</name><description><![CDATA[Av. Héroes de la Concepción 2555, Iquique<br><a href="https://www.google.com/maps/search/?api=1&query=Falabella%20Mall%20Plaza%20Iquique%2C%20Av.%20H%C3%A9roes%20de%20la%20Concepci%C3%B3n%202555%2C%20Iquique">Ver en Google Maps</a>]]></description><styleUrl>#s</styleUrl><Point><coordinates>-70.135,-20.23,0</coordinates></Point></Placemark>
<Placemark><name>Falabella Mall Plaza Antofagasta</name><description><![CDATA[Av. Balmaceda 2355, Antofagasta<br><a href="https://www.google.com/maps/search/?api=1&query=Falabella%20Mall%20Plaza%20Antofagasta%2C%20Av.%20Balmaceda%202355%2C%20Antofagasta">Ver en Google Maps</a>]]></description><styleUrl>#s</styleUrl><Point><coordinates>-70.40235,-23.645766,0</coordinates></Point></Placemark>
<Placemark><name>Falabella Mall Plaza Calama</name><description><![CDATA[Av. Balmaceda 3242, Calama<br><a href="https://www.google.com/maps/search/?api=1&query=Falabella%20Mall%20Plaza%20Calama%2C%20Av.%20Balmaceda%203242%2C%20Calama">Ver en Google Maps</a>]]></description><styleUrl>#s</styleUrl><Point><coordinates>-68.921671,-22.448362,0</coordinates></Point></Placemark>
<Placemark><name>Falabella Mall Plaza Copiapó</name><description><![CDATA[Av. Copayapu 5490, Copiapó<br><a href="https://www.google.com/maps/search/?api=1&query=Falabella%20Mall%20Plaza%20Copiap%C3%B3%2C%20Av.%20Copayapu%205490%2C%20Copiap%C3%B3">Ver en Google Maps</a>]]></description><styleUrl>#s</styleUrl><Point><coordinates>-70.325,-27.37,0</coordinates></Point></Placemark>
<Placemark><name>Falabella Mall Plaza La Serena</name><description><![CDATA[Av. Alberto Solari 1400, La Serena<br><a href="https://www.google.com/maps/search/?api=1&query=Falabella%20Mall%20Plaza%20La%20Serena%2C%20Av.%20Alberto%20Solari%201400%2C%20La%20Serena">Ver en Google Maps</a>]]></description><styleUrl>#s</styleUrl><Point><coordinates>-71.257094,-29.91207,0</coordinates></Point></Placemark>
<Placemark><name>Falabella Open Ovalle</name><description><![CDATA[Av. Benavente 1075, Ovalle<br><a href="https://www.google.com/maps/search/?api=1&query=Falabella%20Open%20Ovalle%2C%20Av.%20Benavente%201075%2C%20Ovalle">Ver en Google Maps</a>]]></description><styleUrl>#s</styleUrl><Point><coordinates>-71.183643,-30.598752,0</coordinates></Point></Placemark>
<Placemark><name>Falabella Mall de Quilpué</name><description><![CDATA[Av. Freire 2414, Quilpué<br><a href="https://www.google.com/maps/search/?api=1&query=Falabella%20Mall%20de%20Quilpu%C3%A9%2C%20Av.%20Freire%202414%2C%20Quilpu%C3%A9">Ver en Google Maps</a>]]></description><styleUrl>#s</styleUrl><Point><coordinates>-71.422598,-33.045283,0</coordinates></Point></Placemark>
<Placemark><name>Falabella Open La Calera</name><description><![CDATA[J.J. Pérez 90, La Calera<br><a href="https://www.google.com/maps/search/?api=1&query=Falabella%20Open%20La%20Calera%2C%20J.J.%20P%C3%A9rez%2090%2C%20La%20Calera">Ver en Google Maps</a>]]></description><styleUrl>#s</styleUrl><Point><coordinates>-71.198,-32.786,0</coordinates></Point></Placemark>
<Placemark><name>Falabella Open San Felipe</name><description><![CDATA[Av. Manuel Rodríguez 299, San Felipe<br><a href="https://www.google.com/maps/search/?api=1&query=Falabella%20Open%20San%20Felipe%2C%20Av.%20Manuel%20Rodr%C3%ADguez%20299%2C%20San%20Felipe">Ver en Google Maps</a>]]></description><styleUrl>#s</styleUrl><Point><coordinates>-70.726,-32.749,0</coordinates></Point></Placemark>
<Placemark><name>Falabella Valparaíso</name><description><![CDATA[Plaza Victoria, Valparaíso<br><a href="https://www.google.com/maps/search/?api=1&query=Falabella%20Valpara%C3%ADso%2C%20Plaza%20Victoria%2C%20Valpara%C3%ADso">Ver en Google Maps</a>]]></description><styleUrl>#s</styleUrl><Point><coordinates>-71.619804,-33.046252,0</coordinates></Point></Placemark>
<Placemark><name>Falabella Viña del Mar</name><description><![CDATA[Av. Valparaíso 602, Viña del Mar<br><a href="https://www.google.com/maps/search/?api=1&query=Falabella%20Vi%C3%B1a%20del%20Mar%2C%20Av.%20Valpara%C3%ADso%20602%2C%20Vi%C3%B1a%20del%20Mar">Ver en Google Maps</a>]]></description><styleUrl>#s</styleUrl><Point><coordinates>-71.551,-33.024,0</coordinates></Point></Placemark>
<Placemark><name>Falabella Viña del Mar Mall</name><description><![CDATA[Av. Libertad 1348, Viña del Mar<br><a href="https://www.google.com/maps/search/?api=1&query=Falabella%20Vi%C3%B1a%20del%20Mar%20Mall%2C%20Av.%20Libertad%201348%2C%20Vi%C3%B1a%20del%20Mar">Ver en Google Maps</a>]]></description><styleUrl>#s</styleUrl><Point><coordinates>-71.548036,-33.0087,0</coordinates></Point></Placemark>
<Placemark><name>Falabella Mall de San Fernando</name><description><![CDATA[Bernardo O'Higgins 701, San Fernando<br><a href="https://www.google.com/maps/search/?api=1&query=Falabella%20Mall%20de%20San%20Fernando%2C%20Bernardo%20O'Higgins%20701%2C%20San%20Fernando">Ver en Google Maps</a>]]></description><styleUrl>#s</styleUrl><Point><coordinates>-70.985456,-34.586035,0</coordinates></Point></Placemark>
<Placemark><name>Falabella Open Rancagua</name><description><![CDATA[Av. Independencia 675, Rancagua<br><a href="https://www.google.com/maps/search/?api=1&query=Falabella%20Open%20Rancagua%2C%20Av.%20Independencia%20675%2C%20Rancagua">Ver en Google Maps</a>]]></description><styleUrl>#s</styleUrl><Point><coordinates>-70.743,-34.168,0</coordinates></Point></Placemark>
<Placemark><name>Falabella Curicó</name><description><![CDATA[O'Higgins 201, Curicó<br><a href="https://www.google.com/maps/search/?api=1&query=Falabella%20Curic%C3%B3%2C%20O'Higgins%20201%2C%20Curic%C3%B3">Ver en Google Maps</a>]]></description><styleUrl>#s</styleUrl><Point><coordinates>-71.245095,-34.991144,0</coordinates></Point></Placemark>
<Placemark><name>Falabella Talca</name><description><![CDATA[1 Sur 1100, Talca<br><a href="https://www.google.com/maps/search/?api=1&query=Falabella%20Talca%2C%201%20Sur%201100%2C%20Talca">Ver en Google Maps</a>]]></description><styleUrl>#s</styleUrl><Point><coordinates>-71.656,-35.426,0</coordinates></Point></Placemark>
<Placemark><name>Falabella Chillán</name><description><![CDATA[Av. El Roble 770, Chillán<br><a href="https://www.google.com/maps/search/?api=1&query=Falabella%20Chill%C3%A1n%2C%20Av.%20El%20Roble%20770%2C%20Chill%C3%A1n">Ver en Google Maps</a>]]></description><styleUrl>#s</styleUrl><Point><coordinates>-72.100852,-36.609769,0</coordinates></Point></Placemark>
<Placemark><name>Falabella Concepción Centro</name><description><![CDATA[Barros Arana 839, Concepción<br><a href="https://www.google.com/maps/search/?api=1&query=Falabella%20Concepci%C3%B3n%20Centro%2C%20Barros%20Arana%20839%2C%20Concepci%C3%B3n">Ver en Google Maps</a>]]></description><styleUrl>#s</styleUrl><Point><coordinates>-73.048368,-36.825415,0</coordinates></Point></Placemark>
<Placemark><name>Falabella Mall Plaza El Trébol</name><description><![CDATA[Av. Jorge Alessandri 3177, Concepción<br><a href="https://www.google.com/maps/search/?api=1&query=Falabella%20Mall%20Plaza%20El%20Tr%C3%A9bol%2C%20Av.%20Jorge%20Alessandri%203177%2C%20Concepci%C3%B3n">Ver en Google Maps</a>]]></description><styleUrl>#s</styleUrl><Point><coordinates>-73.069146,-36.790921,0</coordinates></Point></Placemark>
<Placemark><name>Falabella Mall Plaza Los Ángeles</name><description><![CDATA[Valdivia 440, Los Ángeles<br><a href="https://www.google.com/maps/search/?api=1&query=Falabella%20Mall%20Plaza%20Los%20%C3%81ngeles%2C%20Valdivia%20440%2C%20Los%20%C3%81ngeles">Ver en Google Maps</a>]]></description><styleUrl>#s</styleUrl><Point><coordinates>-72.352546,-37.468319,0</coordinates></Point></Placemark>
<Placemark><name>Falabella Pucón</name><description><![CDATA[O'Higgins 415, Pucón<br><a href="https://www.google.com/maps/search/?api=1&query=Falabella%20Puc%C3%B3n%2C%20O'Higgins%20415%2C%20Puc%C3%B3n">Ver en Google Maps</a>]]></description><styleUrl>#s</styleUrl><Point><coordinates>-71.974154,-39.276282,0</coordinates></Point></Placemark>
<Placemark><name>Falabella Temuco</name><description><![CDATA[Av. Alemania 671, Temuco<br><a href="https://www.google.com/maps/search/?api=1&query=Falabella%20Temuco%2C%20Av.%20Alemania%20671%2C%20Temuco">Ver en Google Maps</a>]]></description><styleUrl>#s</styleUrl><Point><coordinates>-72.610161,-38.73265,0</coordinates></Point></Placemark>
<Placemark><name>Falabella Mall de Castro</name><description><![CDATA[Eleuterio Ramírez 240, Castro<br><a href="https://www.google.com/maps/search/?api=1&query=Falabella%20Mall%20de%20Castro%2C%20Eleuterio%20Ram%C3%ADrez%20240%2C%20Castro">Ver en Google Maps</a>]]></description><styleUrl>#s</styleUrl><Point><coordinates>-73.761,-42.478,0</coordinates></Point></Placemark>
<Placemark><name>Falabella Mall de Osorno</name><description><![CDATA[Plazuela Yungay 609, Osorno<br><a href="https://www.google.com/maps/search/?api=1&query=Falabella%20Mall%20de%20Osorno%2C%20Plazuela%20Yungay%20609%2C%20Osorno">Ver en Google Maps</a>]]></description><styleUrl>#s</styleUrl><Point><coordinates>-73.130676,-40.573778,0</coordinates></Point></Placemark>
<Placemark><name>Falabella Mall de Puerto Montt</name><description><![CDATA[Juan Soler Manfredini 10, Puerto Montt<br><a href="https://www.google.com/maps/search/?api=1&query=Falabella%20Mall%20de%20Puerto%20Montt%2C%20Juan%20Soler%20Manfredini%2010%2C%20Puerto%20Montt">Ver en Google Maps</a>]]></description><styleUrl>#s</styleUrl><Point><coordinates>-72.938,-41.471,0</coordinates></Point></Placemark>
<Placemark><name>Falabella Mall de Punta Arenas</name><description><![CDATA[Av. Eduardo Frei Montalva 1110, Punta Arenas<br><a href="https://www.google.com/maps/search/?api=1&query=Falabella%20Mall%20de%20Punta%20Arenas%2C%20Av.%20Eduardo%20Frei%20Montalva%201110%2C%20Punta%20Arenas">Ver en Google Maps</a>]]></description><styleUrl>#s</styleUrl><Point><coordinates>-70.908275,-53.131182,0</coordinates></Point></Placemark>
</Document></kml>