<?xml version="1.0" encoding="UTF-8"?>
<kml xmlns="http://www.opengis.net/kml/2.2"><Document><name>Ripley</name><Style id="s"><IconStyle><color>ffED3A7C</color><scale>1</scale><Icon><href>https://www.gstatic.com/mapspro/images/stock/503-wht-blank_maps.png</href></Icon></IconStyle></Style>
<Placemark><name>Ripley Arica</name><description><![CDATA[Av. Diego Portales 640, Arica<br><a href="https://www.google.com/maps/search/?api=1&query=Ripley%20Arica%2C%20Av.%20Diego%20Portales%20640%2C%20Arica">Ver en Google Maps</a>]]></description><styleUrl>#s</styleUrl><Point><coordinates>-70.309542,-18.469548,0</coordinates></Point></Placemark>
<Placemark><name>Ripley Antofagasta</name><description><![CDATA[Arturo Prat 530, Antofagasta<br><a href="https://www.google.com/maps/search/?api=1&query=Ripley%20Antofagasta%2C%20Arturo%20Prat%20530%2C%20Antofagasta">Ver en Google Maps</a>]]></description><styleUrl>#s</styleUrl><Point><coordinates>-70.397101,-23.64828,0</coordinates></Point></Placemark>
<Placemark><name>Ripley Mall Calama</name><description><![CDATA[Balmaceda 3242, Calama<br><a href="https://www.google.com/maps/search/?api=1&query=Ripley%20Mall%20Calama%2C%20Balmaceda%203242%2C%20Calama">Ver en Google Maps</a>]]></description><styleUrl>#s</styleUrl><Point><coordinates>-68.92142,-22.44986,0</coordinates></Point></Placemark>
<Placemark><name>Ripley Chillán</name><description><![CDATA[5 de Abril 699, Chillán<br><a href="https://www.google.com/maps/search/?api=1&query=Ripley%20Chill%C3%A1n%2C%205%20de%20Abril%20699%2C%20Chill%C3%A1n">Ver en Google Maps</a>]]></description><styleUrl>#s</styleUrl><Point><coordinates>-72.100992,-36.60886,0</coordinates></Point></Placemark>
<Placemark><name>Ripley Concepción Barros Arana</name><description><![CDATA[Barros Arana 839, Concepción<br><a href="https://www.google.com/maps/search/?api=1&query=Ripley%20Concepci%C3%B3n%20Barros%20Arana%2C%20Barros%20Arana%20839%2C%20Concepci%C3%B3n">Ver en Google Maps</a>]]></description><styleUrl>#s</styleUrl><Point><coordinates>-73.048368,-36.825415,0</coordinates></Point></Placemark>
<Placemark><name>Ripley Concepción Castellón</name><description><![CDATA[Castellón 520, Concepción<br><a href="https://www.google.com/maps/search/?api=1&query=Ripley%20Concepci%C3%B3n%20Castell%C3%B3n%2C%20Castell%C3%B3n%20520%2C%20Concepci%C3%B3n">Ver en Google Maps</a>]]></description><styleUrl>#s</styleUrl><Point><coordinates>-73.05,-36.826,0</coordinates></Point></Placemark>
<Placemark><name>Ripley El Trébol</name><description><![CDATA[Av. Jorge Alessandri 3177, Concepción<br><a href="https://www.google.com/maps/search/?api=1&query=Ripley%20El%20Tr%C3%A9bol%2C%20Av.%20Jorge%20Alessandri%203177%2C%20Concepci%C3%B3n">Ver en Google Maps</a>]]></description><styleUrl>#s</styleUrl><Point><coordinates>-73.069146,-36.790921,0</coordinates></Point></Placemark>
<Placemark><name>Ripley Mall Del Centro Concepción</name><description><![CDATA[Barros Arana 1068, Concepción<br><a href="https://www.google.com/maps/search/?api=1&query=Ripley%20Mall%20Del%20Centro%20Concepci%C3%B3n%2C%20Barros%20Arana%201068%2C%20Concepci%C3%B3n">Ver en Google Maps</a>]]></description><styleUrl>#s</styleUrl><Point><coordinates>-73.045021,-36.824918,0</coordinates></Point></Placemark>
<Placemark><name>Ripley Coquimbo</name><description><![CDATA[Baquedano 86, Coquimbo<br><a href="https://www.google.com/maps/search/?api=1&query=Ripley%20Coquimbo%2C%20Baquedano%2086%2C%20Coquimbo">Ver en Google Maps</a>]]></description><styleUrl>#s</styleUrl><Point><coordinates>-71.337477,-29.958445,0</coordinates></Point></Placemark>
<Placemark><name>Ripley Curicó</name><description><![CDATA[O'Higgins 201, Curicó<br><a href="https://www.google.com/maps/search/?api=1&query=Ripley%20Curic%C3%B3%2C%20O'Higgins%20201%2C%20Curic%C3%B3">Ver en Google Maps</a>]]></description><styleUrl>#s</styleUrl><Point><coordinates>-71.245095,-34.991144,0</coordinates></Point></Placemark>
<Placemark><name>Ripley Iquique</name><description><![CDATA[Vivar 550, Iquique<br><a href="https://www.google.com/maps/search/?api=1&query=Ripley%20Iquique%2C%20Vivar%20550%2C%20Iquique">Ver en Google Maps</a>]]></description><styleUrl>#s</styleUrl><Point><coordinates>-70.14808,-20.213803,0</coordinates></Point></Placemark>
<Placemark><name>Ripley La Calera</name><description><![CDATA[J.J. Pérez 90, La Calera<br><a href="https://www.google.com/maps/search/?api=1&query=Ripley%20La%20Calera%2C%20J.J.%20P%C3%A9rez%2090%2C%20La%20Calera">Ver en Google Maps</a>]]></description><styleUrl>#s</styleUrl><Point><coordinates>-71.198,-32.786,0</coordinates></Point></Placemark>
<Placemark><name>Ripley La Serena</name><description><![CDATA[Gregorio Cordovez 499, La Serena<br><a href="https://www.google.com/maps/search/?api=1&query=Ripley%20La%20Serena%2C%20Gregorio%20Cordovez%20499%2C%20La%20Serena">Ver en Google Maps</a>]]></description><styleUrl>#s</styleUrl><Point><coordinates>-71.250357,-29.903506,0</coordinates></Point></Placemark>
<Placemark><name>Ripley Los Andes</name><description><![CDATA[Santa Teresa 683, Los Andes<br><a href="https://www.google.com/maps/search/?api=1&query=Ripley%20Los%20Andes%2C%20Santa%20Teresa%20683%2C%20Los%20Andes">Ver en Google Maps</a>]]></description><styleUrl>#s</styleUrl><Point><coordinates>-70.605191,-32.834812,0</coordinates></Point></Placemark>
<Placemark><name>Ripley Los Ángeles</name><description><![CDATA[Valdivia 440, Los Ángeles<br><a href="https://www.google.com/maps/search/?api=1&query=Ripley%20Los%20%C3%81ngeles%2C%20Valdivia%20440%2C%20Los%20%C3%81ngeles">Ver en Google Maps</a>]]></description><styleUrl>#s</styleUrl><Point><coordinates>-72.352546,-37.468319,0</coordinates></Point></Placemark>
<Placemark><name>Ripley Mall Costanera Puerto Montt</name><description><![CDATA[Juan Soler Manfredini 10, Puerto Montt<br><a href="https://www.google.com/maps/search/?api=1&query=Ripley%20Mall%20Costanera%20Puerto%20Montt%2C%20Juan%20Soler%20Manfredini%2010%2C%20Puerto%20Montt">Ver en Google Maps</a>]]></description><styleUrl>#s</styleUrl><Point><coordinates>-72.936,-41.47,0</coordinates></Point></Placemark>
<Placemark><name>Ripley Puerto Montt</name><description><![CDATA[Urmeneta 595, Puerto Montt<br><a href="https://www.google.com/maps/search/?api=1&query=Ripley%20Puerto%20Montt%2C%20Urmeneta%20595%2C%20Puerto%20Montt">Ver en Google Maps</a>]]></description><styleUrl>#s</styleUrl><Point><coordinates>-72.943922,-41.472001,0</coordinates></Point></Placemark>
<Placemark><name>Ripley Punta Arenas</name><description><![CDATA[Av. Eduardo Frei Montalva 1110, Punta Arenas<br><a href="https://www.google.com/maps/search/?api=1&query=Ripley%20Punta%20Arenas%2C%20Av.%20Eduardo%20Frei%20Montalva%201110%2C%20Punta%20Arenas">Ver en Google Maps</a>]]></description><styleUrl>#s</styleUrl><Point><coordinates>-70.908275,-53.131182,0</coordinates></Point></Placemark>
<Placemark><name>Ripley Quilpué</name><description><![CDATA[Claudio Vicuña 922, Quilpué<br><a href="https://www.google.com/maps/search/?api=1&query=Ripley%20Quilpu%C3%A9%2C%20Claudio%20Vicu%C3%B1a%20922%2C%20Quilpu%C3%A9">Ver en Google Maps</a>]]></description><styleUrl>#s</styleUrl><Point><coordinates>-71.443,-33.049,0</coordinates></Point></Placemark>
<Placemark><name>Ripley Rancagua</name><description><![CDATA[José Domingo Mujica 490, Rancagua<br><a href="https://www.google.com/maps/search/?api=1&query=Ripley%20Rancagua%2C%20Jos%C3%A9%20Domingo%20Mujica%20490%2C%20Rancagua">Ver en Google Maps</a>]]></description><styleUrl>#s</styleUrl><Point><coordinates>-70.741484,-34.168062,0</coordinates></Point></Placemark>
<Placemark><name>Ripley San Fernando</name><description><![CDATA[Bernardo O'Higgins 701, San Fernando<br><a href="https://www.google.com/maps/search/?api=1&query=Ripley%20San%20Fernando%2C%20Bernardo%20O'Higgins%20701%2C%20San%20Fernando">Ver en Google Maps</a>]]></description><styleUrl>#s</styleUrl><Point><coordinates>-70.985456,-34.586035,0</coordinates></Point></Placemark>
<Placemark><name>Ripley Alto Las Condes</name><description><![CDATA[Av. Kennedy 9001, Las Condes<br><a href="https://www.google.com/maps/search/?api=1&query=Ripley%20Alto%20Las%20Condes%2C%20Av.%20Kennedy%209001%2C%20Las%20Condes">Ver en Google Maps</a>]]></description><styleUrl>#s</styleUrl><Point><coordinates>-70.54563,-33.390182,0</coordinates></Point></Placemark>
<Placemark><name>Ripley Astor</name><description><![CDATA[Huérfanos 886, Santiago<br><a href="https://www.google.com/maps/search/?api=1&query=Ripley%20Astor%2C%20Hu%C3%A9rfanos%20886%2C%20Santiago">Ver en Google Maps</a>]]></description><styleUrl>#s</styleUrl><Point><coordinates>-70.649243,-33.439554,0</coordinates></Point></Placemark>
<Placemark><name>Ripley Copiapó</name><description><![CDATA[Maipu 109, Copiapó<br><a href="https://www.google.com/maps/search/?api=1&query=Ripley%20Copiap%C3%B3%2C%20Maipu%20109%2C%20Copiap%C3%B3">Ver en Google Maps</a>]]></description><styleUrl>#s</styleUrl><Point><coordinates>-70.331,-27.37,0</coordinates></Point></Placemark>
<Placemark><name>Ripley Costanera Center</name><description><![CDATA[Andrés Bello 2447, Providencia<br><a href="https://www.google.com/maps/search/?api=1&query=Ripley%20Costanera%20Center%2C%20Andr%C3%A9s%20Bello%202447%2C%20Providencia">Ver en Google Maps</a>]]></description><styleUrl>#s</styleUrl><Point><coordinates>-70.606149,-33.417438,0</coordinates></Point></Placemark>
<Placemark><name>Ripley Crillón</name><description><![CDATA[Agustinas 1025, Santiago<br><a href="https://www.google.com/maps/search/?api=1&query=Ripley%20Crill%C3%B3n%2C%20Agustinas%201025%2C%20Santiago">Ver en Google Maps</a>]]></description><styleUrl>#s</styleUrl><Point><coordinates>-70.651199,-33.440709,0</coordinates></Point></Placemark>
<Placemark><name>Ripley Florida</name><description><![CDATA[Av. Vicuña Mackenna 6100, La Florida<br><a href="https://www.google.com/maps/search/?api=1&query=Ripley%20Florida%2C%20Av.%20Vicu%C3%B1a%20Mackenna%206100%2C%20La%20Florida">Ver en Google Maps</a>]]></description><styleUrl>#s</styleUrl><Point><coordinates>-70.607731,-33.509917,0</coordinates></Point></Placemark>
<Placemark><name>Ripley Mall Plaza Norte</name><description><![CDATA[Américo Vespucio 1737, Huechuraba<br><a href="https://www.google.com/maps/search/?api=1&query=Ripley%20Mall%20Plaza%20Norte%2C%20Am%C3%A9rico%20Vespucio%201737%2C%20Huechuraba">Ver en Google Maps</a>]]></description><styleUrl>#s</styleUrl><Point><coordinates>-70.679426,-33.36573,0</coordinates></Point></Placemark>
<Placemark><name>Ripley Huérfanos</name><description><![CDATA[Huérfanos 967, Santiago<br><a href="https://www.google.com/maps/search/?api=1&query=Ripley%20Hu%C3%A9rfanos%2C%20Hu%C3%A9rfanos%20967%2C%20Santiago">Ver en Google Maps</a>]]></description><styleUrl>#s</styleUrl><Point><coordinates>-70.650443,-33.439492,0</coordinates></Point></Placemark>
<Placemark><name>Ripley La Dehesa</name><description><![CDATA[Av. La Dehesa 1445, Lo Barnechea<br><a href="https://www.google.com/maps/search/?api=1&query=Ripley%20La%20Dehesa%2C%20Av.%20La%20Dehesa%201445%2C%20Lo%20Barnechea">Ver en Google Maps</a>]]></description><styleUrl>#s</styleUrl><Point><coordinates>-70.514935,-33.357521,0</coordinates></Point></Placemark>
<Placemark><name>Ripley Arauco Maipú</name><description><![CDATA[Av. Américo Vespucio 399, Maipú<br><a href="https://www.google.com/maps/search/?api=1&query=Ripley%20Arauco%20Maip%C3%BA%2C%20Av.%20Am%C3%A9rico%20Vespucio%20399%2C%20Maip%C3%BA">Ver en Google Maps</a>]]></description><styleUrl>#s</styleUrl><Point><coordinates>-70.751195,-33.481044,0</coordinates></Point></Placemark>
<Placemark><name>Ripley Mall Alameda</name><description><![CDATA[Av. Bernardo O'Higgins 3470, Santiago<br><a href="https://www.google.com/maps/search/?api=1&query=Ripley%20Mall%20Alameda%2C%20Av.%20Bernardo%20O'Higgins%203470%2C%20Santiago">Ver en Google Maps</a>]]></description><styleUrl>#s</styleUrl><Point><coordinates>-70.682307,-33.452696,0</coordinates></Point></Placemark>
<Placemark><name>Ripley Mall del Centro</name><description><![CDATA[Puente 689, Santiago<br><a href="https://www.google.com/maps/search/?api=1&query=Ripley%20Mall%20del%20Centro%2C%20Puente%20689%2C%20Santiago">Ver en Google Maps</a>]]></description><styleUrl>#s</styleUrl><Point><coordinates>-70.65146,-33.435253,0</coordinates></Point></Placemark>
<Placemark><name>Ripley Marina Arauco</name><description><![CDATA[Av. Libertad 1348, Viña del Mar<br><a href="https://www.google.com/maps/search/?api=1&query=Ripley%20Marina%20Arauco%2C%20Av.%20Libertad%201348%2C%20Vi%C3%B1a%20del%20Mar">Ver en Google Maps</a>]]></description><styleUrl>#s</styleUrl><Point><coordinates>-71.548036,-33.0087,0</coordinates></Point></Placemark>
<Placemark><name>Ripley Parque Arauco</name><description><![CDATA[Av. Kennedy 5413, Las Condes<br><a href="https://www.google.com/maps/search/?api=1&query=Ripley%20Parque%20Arauco%2C%20Av.%20Kennedy%205413%2C%20Las%20Condes">Ver en Google Maps</a>]]></description><styleUrl>#s</styleUrl><Point><coordinates>-70.577304,-33.402322,0</coordinates></Point></Placemark>
<Placemark><name>Ripley Plaza Oeste</name><description><![CDATA[Av. Américo Vespucio 1501, Pudahuel<br><a href="https://www.google.com/maps/search/?api=1&query=Ripley%20Plaza%20Oeste%2C%20Av.%20Am%C3%A9rico%20Vespucio%201501%2C%20Pudahuel">Ver en Google Maps</a>]]></description><styleUrl>#s</styleUrl><Point><coordinates>-70.746,-33.488,0</coordinates></Point></Placemark>
<Placemark><name>Ripley Plaza Tobalaba</name><description><![CDATA[Av. Camilo Henríquez 3296, Puente Alto<br><a href="https://www.google.com/maps/search/?api=1&query=Ripley%20Plaza%20Tobalaba%2C%20Av.%20Camilo%20Henr%C3%ADquez%203296%2C%20Puente%20Alto">Ver en Google Maps</a>]]></description><styleUrl>#s</styleUrl><Point><coordinates>-70.557486,-33.569303,0</coordinates></Point></Placemark>
<Placemark><name>Ripley Plaza Vespucio</name><description><![CDATA[Av. Vicuña Mackenna 7110, La Florida<br><a href="https://www.google.com/maps/search/?api=1&query=Ripley%20Plaza%20Vespucio%2C%20Av.%20Vicu%C3%B1a%20Mackenna%207110%2C%20La%20Florida">Ver en Google Maps</a>]]></description><styleUrl>#s</styleUrl><Point><coordinates>-70.601126,-33.517052,0</coordinates></Point></Placemark>
<Placemark><name>Ripley Plaza Egaña</name><description><![CDATA[Av. Larraín 5800, Ñuñoa<br><a href="https://www.google.com/maps/search/?api=1&query=Ripley%20Plaza%20Ega%C3%B1a%2C%20Av.%20Larra%C3%ADn%205800%2C%20%C3%91u%C3%B1oa">Ver en Google Maps</a>]]></description><styleUrl>#s</styleUrl><Point><coordinates>-70.564,-33.458,0</coordinates></Point></Placemark>
<Placemark><name>Ripley Puente</name><description><![CDATA[21 de Mayo 698, Valparaíso<br><a href="https://www.google.com/maps/search/?api=1&query=Ripley%20Puente%2C%2021%20de%20Mayo%20698%2C%20Valpara%C3%ADso">Ver en Google Maps</a>]]></description><styleUrl>#s</styleUrl><Point><coordinates>-71.616,-33.044,0</coordinates></Point></Placemark>
<Placemark><name>Ripley Plaza Sur</name><description><![CDATA[Av. Jorge Alessandri 20030, Puente Alto<br><a href="https://www.google.com/maps/search/?api=1&query=Ripley%20Plaza%20Sur%2C%20Av.%20Jorge%20Alessandri%2020030%2C%20Puente%20Alto">Ver en Google Maps</a>]]></description><styleUrl>#s</styleUrl><Point><coordinates>-70.587,-33.692,0</coordinates></Point></Placemark>
<Placemark><name>Ripley Los Domínicos</name><description><![CDATA[Av. Padre Hurtado 785, Las Condes<br><a href="https://www.google.com/maps/search/?api=1&query=Ripley%20Los%20Dom%C3%ADnicos%2C%20Av.%20Padre%20Hurtado%20785%2C%20Las%20Condes">Ver en Google Maps</a>]]></description><styleUrl>#s</styleUrl><Point><coordinates>-70.544615,-33.401421,0</coordinates></Point></Placemark>
<Placemark><name>Ripley Talca</name><description><![CDATA[8 Oriente 1212, Talca<br><a href="https://www.google.com/maps/search/?api=1&query=Ripley%20Talca%2C%208%20Oriente%201212%2C%20Talca">Ver en Google Maps</a>]]></description><styleUrl>#s</styleUrl><Point><coordinates>-71.65488,-35.426605,0</coordinates></Point></Placemark>
<Placemark><name>Ripley Portal Temuco</name><description><![CDATA[Av. Alemania 0671, Temuco<br><a href="https://www.google.com/maps/search/?api=1&query=Ripley%20Portal%20Temuco%2C%20Av.%20Alemania%200671%2C%20Temuco">Ver en Google Maps</a>]]></description><styleUrl>#s</styleUrl><Point><coordinates>-72.610364,-38.733065,0</coordinates></Point></Placemark>
<Placemark><name>Ripley Temuco Centro</name><description><![CDATA[Arturo Prat 656, Temuco<br><a href="https://www.google.com/maps/search/?api=1&query=Ripley%20Temuco%20Centro%2C%20Arturo%20Prat%20656%2C%20Temuco">Ver en Google Maps</a>]]></description><styleUrl>#s</styleUrl><Point><coordinates>-72.591005,-38.740122,0</coordinates></Point></Placemark>
<Placemark><name>Ripley Valdivia</name><description><![CDATA[Arauco 561, Valdivia<br><a href="https://www.google.com/maps/search/?api=1&query=Ripley%20Valdivia%2C%20Arauco%20561%2C%20Valdivia">Ver en Google Maps</a>]]></description><styleUrl>#s</styleUrl><Point><coordinates>-73.242294,-39.816061,0</coordinates></Point></Placemark>
<Placemark><name>Ripley Valparaíso</name><description><![CDATA[Plaza Victoria 1646, Valparaíso<br><a href="https://www.google.com/maps/search/?api=1&query=Ripley%20Valpara%C3%ADso%2C%20Plaza%20Victoria%201646%2C%20Valpara%C3%ADso">Ver en Google Maps</a>]]></description><styleUrl>#s</styleUrl><Point><coordinates>-71.619804,-33.046252,0</coordinates></Point></Placemark>
<Placemark><name>Ripley Viña del Mar</name><description><![CDATA[Sucre 290, Viña del Mar<br><a href="https://www.google.com/maps/search/?api=1&query=Ripley%20Vi%C3%B1a%20del%20Mar%2C%20Sucre%20290%2C%20Vi%C3%B1a%20del%20Mar">Ver en Google Maps</a>]]></description><styleUrl>#s</styleUrl><Point><coordinates>-71.552638,-33.025779,0</coordinates></Point></Placemark>
</Document></kml>