<?xml version="1.0" encoding="UTF-8"?>
<kml xmlns="http://www.opengis.net/kml/2.2"><Document><name>Paris</name><Style id="s"><IconStyle><color>ff8a3a1e</color><scale>1</scale><Icon><href>https://www.gstatic.com/mapspro/images/stock/503-wht-blank_maps.png</href></Icon></IconStyle></Style>
<Placemark><name>Paris Tarapacá</name><description><![CDATA[Tarapacá 465, Iquique<br><a href="https://www.google.com/maps/search/?api=1&query=Paris%20Tarapac%C3%A1%2C%20Tarapac%C3%A1%20465%2C%20Iquique">Ver en Google Maps</a>]]></description><styleUrl>#s</styleUrl><Point><coordinates>-70.151,-20.213,0</coordinates></Point></Placemark>
<Placemark><name>Paris Mall Plaza Antofagasta</name><description><![CDATA[Mall Plaza Antofagasta, Antofagasta<br><a href="https://www.google.com/maps/search/?api=1&query=Paris%20Mall%20Plaza%20Antofagasta%2C%20Mall%20Plaza%20Antofagasta%2C%20Antofagasta">Ver en Google Maps</a>]]></description><styleUrl>#s</styleUrl><Point><coordinates>-70.41,-23.634,0</coordinates></Point></Placemark>
<Placemark><name>Paris Mall Plaza Calama</name><description><![CDATA[Av. Balmaceda 3242, Calama<br><a href="https://www.google.com/maps/search/?api=1&query=Paris%20Mall%20Plaza%20Calama%2C%20Av.%20Balmaceda%203242%2C%20Calama">Ver en Google Maps</a>]]></description><styleUrl>#s</styleUrl><Point><coordinates>-68.921671,-22.448362,0</coordinates></Point></Placemark>
<Placemark><name>Paris Portal Copiapó</name><description><![CDATA[Portal Copiapó, Copiapó<br><a href="https://www.google.com/maps/search/?api=1&query=Paris%20Portal%20Copiap%C3%B3%2C%20Portal%20Copiap%C3%B3%2C%20Copiap%C3%B3">Ver en Google Maps</a>]]></description><styleUrl>#s</styleUrl><Point><coordinates>-70.328,-27.368,0</coordinates></Point></Placemark>
<Placemark><name>Paris Mall Plaza La Serena</name><description><![CDATA[Av. Alberto Solari 1400, La Serena<br><a href="https://www.google.com/maps/search/?api=1&query=Paris%20Mall%20Plaza%20La%20Serena%2C%20Av.%20Alberto%20Solari%201400%2C%20La%20Serena">Ver en Google Maps</a>]]></description><styleUrl>#s</styleUrl><Point><coordinates>-71.257094,-29.91207,0</coordinates></Point></Placemark>
<Placemark><name>Paris Mall Vivo Coquimbo</name><description><![CDATA[Av. General Baquedano 86, Coquimbo<br><a href="https://www.google.com/maps/search/?api=1&query=Paris%20Mall%20Vivo%20Coquimbo%2C%20Av.%20General%20Baquedano%2086%2C%20Coquimbo">Ver en Google Maps</a>]]></description><styleUrl>#s</styleUrl><Point><coordinates>-71.338,-29.956,0</coordinates></Point></Placemark>
<Placemark><name>Paris Av. Vicuña Mackenna</name><description><![CDATA[Av. Vicuña Mackenna 85, San Joaquín<br><a href="https://www.google.com/maps/search/?api=1&query=Paris%20Av.%20Vicu%C3%B1a%20Mackenna%2C%20Av.%20Vicu%C3%B1a%20Mackenna%2085%2C%20San%20Joaqu%C3%ADn">Ver en Google Maps</a>]]></description><styleUrl>#s</styleUrl><Point><coordinates>-70.625,-33.476,0</coordinates></Point></Placemark>
<Placemark><name>Paris Combate de Las Coimas</name><description><![CDATA[Combate de Las Coimas 1262, Pudahuel<br><a href="https://www.google.com/maps/search/?api=1&query=Paris%20Combate%20de%20Las%20Coimas%2C%20Combate%20de%20Las%20Coimas%201262%2C%20Pudahuel">Ver en Google Maps</a>]]></description><styleUrl>#s</styleUrl><Point><coordinates>-70.75,-33.44,0</coordinates></Point></Placemark>
<Placemark><name>Paris Mall Paseo del Valle</name><description><![CDATA[O'Higgins 176, Quilpué<br><a href="https://www.google.com/maps/search/?api=1&query=Paris%20Mall%20Paseo%20del%20Valle%2C%20O'Higgins%20176%2C%20Quilpu%C3%A9">Ver en Google Maps</a>]]></description><styleUrl>#s</styleUrl><Point><coordinates>-71.443,-33.049,0</coordinates></Point></Placemark>
<Placemark><name>Paris Mall Marina</name><description><![CDATA[Av. Libertad 1348, Viña del Mar<br><a href="https://www.google.com/maps/search/?api=1&query=Paris%20Mall%20Marina%2C%20Av.%20Libertad%201348%2C%20Vi%C3%B1a%20del%20Mar">Ver en Google Maps</a>]]></description><styleUrl>#s</styleUrl><Point><coordinates>-71.548036,-33.0087,0</coordinates></Point></Placemark>
<Placemark><name>Paris Portal Belloto</name><description><![CDATA[Av. Freire 2414, Quilpué<br><a href="https://www.google.com/maps/search/?api=1&query=Paris%20Portal%20Belloto%2C%20Av.%20Freire%202414%2C%20Quilpu%C3%A9">Ver en Google Maps</a>]]></description><styleUrl>#s</styleUrl><Point><coordinates>-71.422598,-33.045283,0</coordinates></Point></Placemark>
<Placemark><name>Paris Portal Valparaíso</name><description><![CDATA[Portal Valparaíso, Valparaíso<br><a href="https://www.google.com/maps/search/?api=1&query=Paris%20Portal%20Valpara%C3%ADso%2C%20Portal%20Valpara%C3%ADso%2C%20Valpara%C3%ADso">Ver en Google Maps</a>]]></description><styleUrl>#s</styleUrl><Point><coordinates>-71.615,-33.046,0</coordinates></Point></Placemark>
<Placemark><name>Paris Mall Espacio Urbano Vargas</name><description><![CDATA[Vargas 449, Viña del Mar<br><a href="https://www.google.com/maps/search/?api=1&query=Paris%20Mall%20Espacio%20Urbano%20Vargas%2C%20Vargas%20449%2C%20Vi%C3%B1a%20del%20Mar">Ver en Google Maps</a>]]></description><styleUrl>#s</styleUrl><Point><coordinates>-71.553,-33.023,0</coordinates></Point></Placemark>
<Placemark><name>Paris Mall Arauco San Antonio</name><description><![CDATA[Mall Arauco San Antonio, San Antonio<br><a href="https://www.google.com/maps/search/?api=1&query=Paris%20Mall%20Arauco%20San%20Antonio%2C%20Mall%20Arauco%20San%20Antonio%2C%20San%20Antonio">Ver en Google Maps</a>]]></description><styleUrl>#s</styleUrl><Point><coordinates>-71.606,-33.593,0</coordinates></Point></Placemark>
<Placemark><name>Paris Portal La Dehesa</name><description><![CDATA[Av. La Dehesa 1445, Lo Barnechea<br><a href="https://www.google.com/maps/search/?api=1&query=Paris%20Portal%20La%20Dehesa%2C%20Av.%20La%20Dehesa%201445%2C%20Lo%20Barnechea">Ver en Google Maps</a>]]></description><styleUrl>#s</styleUrl><Point><coordinates>-70.514935,-33.357521,0</coordinates></Point></Placemark>
<Placemark><name>Paris Mall Alto Las Condes</name><description><![CDATA[Av. Kennedy 9001, Las Condes<br><a href="https://www.google.com/maps/search/?api=1&query=Paris%20Mall%20Alto%20Las%20Condes%2C%20Av.%20Kennedy%209001%2C%20Las%20Condes">Ver en Google Maps</a>]]></description><styleUrl>#s</styleUrl><Point><coordinates>-70.54563,-33.390182,0</coordinates></Point></Placemark>
<Placemark><name>Paris Mall Parque Arauco</name><description><![CDATA[Av. Kennedy 5413, Las Condes<br><a href="https://www.google.com/maps/search/?api=1&query=Paris%20Mall%20Parque%20Arauco%2C%20Av.%20Kennedy%205413%2C%20Las%20Condes">Ver en Google Maps</a>]]></description><styleUrl>#s</styleUrl><Point><coordinates>-70.577304,-33.402322,0</coordinates></Point></Placemark>
<Placemark><name>Paris Mall Costanera Center</name><description><![CDATA[Andrés Bello 2247, Providencia<br><a href="https://www.google.com/maps/search/?api=1&query=Paris%20Mall%20Costanera%20Center%2C%20Andr%C3%A9s%20Bello%202247%2C%20Providencia">Ver en Google Maps</a>]]></description><styleUrl>#s</styleUrl><Point><coordinates>-70.606,-33.416,0</coordinates></Point></Placemark>
<Placemark><name>Paris Av. Nueva Providencia</name><description><![CDATA[Av. Nueva Providencia 2221, Providencia<br><a href="https://www.google.com/maps/search/?api=1&query=Paris%20Av.%20Nueva%20Providencia%2C%20Av.%20Nueva%20Providencia%202221%2C%20Providencia">Ver en Google Maps</a>]]></description><styleUrl>#s</styleUrl><Point><coordinates>-70.609087,-33.422626,0</coordinates></Point></Placemark>
<Placemark><name>Paris Portal Ñuñoa</name><description><![CDATA[Portal Ñuñoa, Ñuñoa<br><a href="https://www.google.com/maps/search/?api=1&query=Paris%20Portal%20%C3%91u%C3%B1oa%2C%20Portal%20%C3%91u%C3%B1oa%2C%20%C3%91u%C3%B1oa">Ver en Google Maps</a>]]></description><styleUrl>#s</styleUrl><Point><coordinates>-70.593,-33.456,0</coordinates></Point></Placemark>
<Placemark><name>Paris Mall Paseo Quilin</name><description><![CDATA[Av. Quilín 6100, Macul<br><a href="https://www.google.com/maps/search/?api=1&query=Paris%20Mall%20Paseo%20Quilin%2C%20Av.%20Quil%C3%ADn%206100%2C%20Macul">Ver en Google Maps</a>]]></description><styleUrl>#s</styleUrl><Point><coordinates>-70.57,-33.482,0</coordinates></Point></Placemark>
<Placemark><name>Paris Mall Florida Center</name><description><![CDATA[Av. Vicuña Mackenna 6100, La Florida<br><a href="https://www.google.com/maps/search/?api=1&query=Paris%20Mall%20Florida%20Center%2C%20Av.%20Vicu%C3%B1a%20Mackenna%206100%2C%20La%20Florida">Ver en Google Maps</a>]]></description><styleUrl>#s</styleUrl><Point><coordinates>-70.607731,-33.509917,0</coordinates></Point></Placemark>
<Placemark><name>Paris Mall Plaza Vespucio</name><description><![CDATA[Av. Vicuña Mackenna 7110, La Florida<br><a href="https://www.google.com/maps/search/?api=1&query=Paris%20Mall%20Plaza%20Vespucio%2C%20Av.%20Vicu%C3%B1a%20Mackenna%207110%2C%20La%20Florida">Ver en Google Maps</a>]]></description><styleUrl>#s</styleUrl><Point><coordinates>-70.601126,-33.517052,0</coordinates></Point></Placemark>
<Placemark><name>Paris Mall Espacio Urbano Concha y Toro</name><description><![CDATA[Concha y Toro 1120, Puente Alto<br><a href="https://www.google.com/maps/search/?api=1&query=Paris%20Mall%20Espacio%20Urbano%20Concha%20y%20Toro%2C%20Concha%20y%20Toro%201120%2C%20Puente%20Alto">Ver en Google Maps</a>]]></description><styleUrl>#s</styleUrl><Point><coordinates>-70.577986,-33.600463,0</coordinates></Point></Placemark>
<Placemark><name>Paris Llano Subercaseaux</name><description><![CDATA[Llano Subercaseaux 3519, San Miguel<br><a href="https://www.google.com/maps/search/?api=1&query=Paris%20Llano%20Subercaseaux%2C%20Llano%20Subercaseaux%203519%2C%20San%20Miguel">Ver en Google Maps</a>]]></description><styleUrl>#s</styleUrl><Point><coordinates>-70.651517,-33.48647,0</coordinates></Point></Placemark>
<Placemark><name>Paris Mall Plaza Oeste</name><description><![CDATA[Av. Américo Vespucio 1501, Pudahuel<br><a href="https://www.google.com/maps/search/?api=1&query=Paris%20Mall%20Plaza%20Oeste%2C%20Av.%20Am%C3%A9rico%20Vespucio%201501%2C%20Pudahuel">Ver en Google Maps</a>]]></description><styleUrl>#s</styleUrl><Point><coordinates>-70.746,-33.488,0</coordinates></Point></Placemark>
<Placemark><name>Paris Mall Arauco Maipú</name><description><![CDATA[Av. Américo Vespucio 399, Maipú<br><a href="https://www.google.com/maps/search/?api=1&query=Paris%20Mall%20Arauco%20Maip%C3%BA%2C%20Av.%20Am%C3%A9rico%20Vespucio%20399%2C%20Maip%C3%BA">Ver en Google Maps</a>]]></description><styleUrl>#s</styleUrl><Point><coordinates>-70.751195,-33.481044,0</coordinates></Point></Placemark>
<Placemark><name>Paris Mall Paseo San Bernardo</name><description><![CDATA[Eyzaguirre 539, San Bernardo<br><a href="https://www.google.com/maps/search/?api=1&query=Paris%20Mall%20Paseo%20San%20Bernardo%2C%20Eyzaguirre%20539%2C%20San%20Bernardo">Ver en Google Maps</a>]]></description><styleUrl>#s</styleUrl><Point><coordinates>-70.705421,-33.593164,0</coordinates></Point></Placemark>
<Placemark><name>Paris Bandera</name><description><![CDATA[Bandera 201, Santiago<br><a href="https://www.google.com/maps/search/?api=1&query=Paris%20Bandera%2C%20Bandera%20201%2C%20Santiago">Ver en Google Maps</a>]]></description><styleUrl>#s</styleUrl><Point><coordinates>-70.652046,-33.440766,0</coordinates></Point></Placemark>
<Placemark><name>Paris Arauco Estación</name><description><![CDATA[Av. Libertador B. O'Higgins 3322, Santiago<br><a href="https://www.google.com/maps/search/?api=1&query=Paris%20Arauco%20Estaci%C3%B3n%2C%20Av.%20Libertador%20B.%20O'Higgins%203322%2C%20Santiago">Ver en Google Maps</a>]]></description><styleUrl>#s</styleUrl><Point><coordinates>-70.680079,-33.451484,0</coordinates></Point></Placemark>
<Placemark><name>Paris Mall Barrio Independencia</name><description><![CDATA[Av. Independencia 565, Independencia<br><a href="https://www.google.com/maps/search/?api=1&query=Paris%20Mall%20Barrio%20Independencia%2C%20Av.%20Independencia%20565%2C%20Independencia">Ver en Google Maps</a>]]></description><styleUrl>#s</styleUrl><Point><coordinates>-70.653499,-33.424221,0</coordinates></Point></Placemark>
<Placemark><name>Paris Mall Plaza Norte</name><description><![CDATA[Av. Américo Vespucio 1737, Huechuraba<br><a href="https://www.google.com/maps/search/?api=1&query=Paris%20Mall%20Plaza%20Norte%2C%20Av.%20Am%C3%A9rico%20Vespucio%201737%2C%20Huechuraba">Ver en Google Maps</a>]]></description><styleUrl>#s</styleUrl><Point><coordinates>-70.679426,-33.36573,0</coordinates></Point></Placemark>
<Placemark><name>Paris Mall Arauco Quilicura</name><description><![CDATA[Av. O'Higgins 581, Quilicura<br><a href="https://www.google.com/maps/search/?api=1&query=Paris%20Mall%20Arauco%20Quilicura%2C%20Av.%20O'Higgins%20581%2C%20Quilicura">Ver en Google Maps</a>]]></description><styleUrl>#s</styleUrl><Point><coordinates>-70.730047,-33.368134,0</coordinates></Point></Placemark>
<Placemark><name>Paris Portal Rancagua</name><description><![CDATA[Portal Rancagua, Rancagua<br><a href="https://www.google.com/maps/search/?api=1&query=Paris%20Portal%20Rancagua%2C%20Portal%20Rancagua%2C%20Rancagua">Ver en Google Maps</a>]]></description><styleUrl>#s</styleUrl><Point><coordinates>-70.741,-34.17,0</coordinates></Point></Placemark>
<Placemark><name>Paris Mall Curicó</name><description><![CDATA[O'Higgins 201, Curicó<br><a href="https://www.google.com/maps/search/?api=1&query=Paris%20Mall%20Curic%C3%B3%2C%20O'Higgins%20201%2C%20Curic%C3%B3">Ver en Google Maps</a>]]></description><styleUrl>#s</styleUrl><Point><coordinates>-71.245095,-34.991144,0</coordinates></Point></Placemark>
<Placemark><name>Paris Mall Plaza Maule</name><description><![CDATA[Av. Circunvalación Oriente 1055, Talca<br><a href="https://www.google.com/maps/search/?api=1&query=Paris%20Mall%20Plaza%20Maule%2C%20Av.%20Circunvalaci%C3%B3n%20Oriente%201055%2C%20Talca">Ver en Google Maps</a>]]></description><styleUrl>#s</styleUrl><Point><coordinates>-71.630635,-35.432118,0</coordinates></Point></Placemark>
<Placemark><name>Paris Chillán El Roble</name><description><![CDATA[Av. El Roble 770, Chillán<br><a href="https://www.google.com/maps/search/?api=1&query=Paris%20Chill%C3%A1n%20El%20Roble%2C%20Av.%20El%20Roble%20770%2C%20Chill%C3%A1n">Ver en Google Maps</a>]]></description><styleUrl>#s</styleUrl><Point><coordinates>-72.100852,-36.609769,0</coordinates></Point></Placemark>
<Placemark><name>Paris Castellón</name><description><![CDATA[Castellón 539, Concepción<br><a href="https://www.google.com/maps/search/?api=1&query=Paris%20Castell%C3%B3n%2C%20Castell%C3%B3n%20539%2C%20Concepci%C3%B3n">Ver en Google Maps</a>]]></description><styleUrl>#s</styleUrl><Point><coordinates>-73.047627,-36.825195,0</coordinates></Point></Placemark>
<Placemark><name>Paris Manuel Montt</name><description><![CDATA[Manuel Montt 1600, Concepción<br><a href="https://www.google.com/maps/search/?api=1&query=Paris%20Manuel%20Montt%2C%20Manuel%20Montt%201600%2C%20Concepci%C3%B3n">Ver en Google Maps</a>]]></description><styleUrl>#s</styleUrl><Point><coordinates>-73.058,-36.835,0</coordinates></Point></Placemark>
<Placemark><name>Paris Mall Plaza El Trébol</name><description><![CDATA[Av. Jorge Alessandri 3177, Concepción<br><a href="https://www.google.com/maps/search/?api=1&query=Paris%20Mall%20Plaza%20El%20Tr%C3%A9bol%2C%20Av.%20Jorge%20Alessandri%203177%2C%20Concepci%C3%B3n">Ver en Google Maps</a>]]></description><styleUrl>#s</styleUrl><Point><coordinates>-73.069146,-36.790921,0</coordinates></Point></Placemark>
<Placemark><name>Paris Mall Portal Talcahuano</name><description><![CDATA[Portal Talcahuano, Talcahuano<br><a href="https://www.google.com/maps/search/?api=1&query=Paris%20Mall%20Portal%20Talcahuano%2C%20Portal%20Talcahuano%2C%20Talcahuano">Ver en Google Maps</a>]]></description><styleUrl>#s</styleUrl><Point><coordinates>-73.115,-36.705,0</coordinates></Point></Placemark>
<Placemark><name>Paris Mall Plaza Los Ángeles</name><description><![CDATA[Valdivia 440, Los Ángeles<br><a href="https://www.google.com/maps/search/?api=1&query=Paris%20Mall%20Plaza%20Los%20%C3%81ngeles%2C%20Valdivia%20440%2C%20Los%20%C3%81ngeles">Ver en Google Maps</a>]]></description><styleUrl>#s</styleUrl><Point><coordinates>-72.352546,-37.468319,0</coordinates></Point></Placemark>
<Placemark><name>Paris Arturo Prat</name><description><![CDATA[Arturo Prat 444, Temuco<br><a href="https://www.google.com/maps/search/?api=1&query=Paris%20Arturo%20Prat%2C%20Arturo%20Prat%20444%2C%20Temuco">Ver en Google Maps</a>]]></description><styleUrl>#s</styleUrl><Point><coordinates>-72.590826,-38.738076,0</coordinates></Point></Placemark>
<Placemark><name>Paris Portal Temuco</name><description><![CDATA[Av. Alemania 671, Temuco<br><a href="https://www.google.com/maps/search/?api=1&query=Paris%20Portal%20Temuco%2C%20Av.%20Alemania%20671%2C%20Temuco">Ver en Google Maps</a>]]></description><styleUrl>#s</styleUrl><Point><coordinates>-72.610161,-38.73265,0</coordinates></Point></Placemark>
<Placemark><name>Paris Caupolican</name><description><![CDATA[Caupolican 475, Valdivia<br><a href="https://www.google.com/maps/search/?api=1&query=Paris%20Caupolican%2C%20Caupolican%20475%2C%20Valdivia">Ver en Google Maps</a>]]></description><styleUrl>#s</styleUrl><Point><coordinates>-73.245,-39.815,0</coordinates></Point></Placemark>
<Placemark><name>Paris Portal Osorno</name><description><![CDATA[Portal Osorno, Osorno<br><a href="https://www.google.com/maps/search/?api=1&query=Paris%20Portal%20Osorno%2C%20Portal%20Osorno%2C%20Osorno">Ver en Google Maps</a>]]></description><styleUrl>#s</styleUrl><Point><coordinates>-73.136,-40.572,0</coordinates></Point></Placemark>
<Placemark><name>Paris Mall Paseo Costanera</name><description><![CDATA[Juan Soler Manfredini 10, Puerto Montt<br><a href="https://www.google.com/maps/search/?api=1&query=Paris%20Mall%20Paseo%20Costanera%2C%20Juan%20Soler%20Manfredini%2010%2C%20Puerto%20Montt">Ver en Google Maps</a>]]></description><styleUrl>#s</styleUrl><Point><coordinates>-72.936,-41.47,0</coordinates></Point></Placemark>
</Document></kml>