<?xml version="1.0" encoding="UTF-8"?>
<kml xmlns="http://www.opengis.net/kml/2.2"><Document><name>Clientes regionales</name><Style id="s"><IconStyle><color>ff88940D</color><scale>1</scale><Icon><href>https://www.gstatic.com/mapspro/images/stock/503-wht-blank_maps.png</href></Icon></IconStyle></Style>
<Placemark><name>La Liguria</name><description><![CDATA[21 de Mayo, Arica<br><a href="https://www.google.com/maps/search/?api=1&query=La%20Liguria%2C%2021%20de%20Mayo%2C%20Arica">Ver en Google Maps</a>]]></description><styleUrl>#s</styleUrl><Point><coordinates>-70.32007,-18.477501,0</coordinates></Point></Placemark>
<Placemark><name>La Liguria</name><description><![CDATA[Vivar 730, Iquique<br><a href="https://www.google.com/maps/search/?api=1&query=La%20Liguria%2C%20Vivar%20730%2C%20Iquique">Ver en Google Maps</a>]]></description><styleUrl>#s</styleUrl><Point><coordinates>-70.148526,-20.215249,0</coordinates></Point></Placemark>
<Placemark><name>La Liguria</name><description><![CDATA[Mall Plaza Iquique<br><a href="https://www.google.com/maps/search/?api=1&query=La%20Liguria%2C%20Mall%20Plaza%20Iquique">Ver en Google Maps</a>]]></description><styleUrl>#s</styleUrl><Point><coordinates>-70.142976,-20.232889,0</coordinates></Point></Placemark>
<Placemark><name>Sport House</name><description><![CDATA[Vivar, Iquique<br><a href="https://www.google.com/maps/search/?api=1&query=Sport%20House%2C%20Vivar%2C%20Iquique">Ver en Google Maps</a>]]></description><styleUrl>#s</styleUrl><Point><coordinates>-70.1513,-20.2142,0</coordinates></Point></Placemark>
<Placemark><name>Riviera Store</name><description><![CDATA[Thomson 601, Iquique<br><a href="https://www.google.com/maps/search/?api=1&query=Riviera%20Store%2C%20Thomson%20601%2C%20Iquique">Ver en Google Maps</a>]]></description><styleUrl>#s</styleUrl><Point><coordinates>-70.149276,-20.214907,0</coordinates></Point></Placemark>
<Placemark><name>Calzados Paola</name><description><![CDATA[M. A. Matta 2422, Antofagasta<br><a href="https://www.google.com/maps/search/?api=1&query=Calzados%20Paola%2C%20M.%20A.%20Matta%202422%2C%20Antofagasta">Ver en Google Maps</a>]]></description><styleUrl>#s</styleUrl><Point><coordinates>-70.397842,-23.650699,0</coordinates></Point></Placemark>
<Placemark><name>Calzados Paola</name><description><![CDATA[M. A. Matta 2432, Antofagasta<br><a href="https://www.google.com/maps/search/?api=1&query=Calzados%20Paola%2C%20M.%20A.%20Matta%202432%2C%20Antofagasta">Ver en Google Maps</a>]]></description><styleUrl>#s</styleUrl><Point><coordinates>-70.397842,-23.650699,0</coordinates></Point></Placemark>
<Placemark><name>Calzados Paola</name><description><![CDATA[M. A. Matta 2458, Antofagasta<br><a href="https://www.google.com/maps/search/?api=1&query=Calzados%20Paola%2C%20M.%20A.%20Matta%202458%2C%20Antofagasta">Ver en Google Maps</a>]]></description><styleUrl>#s</styleUrl><Point><coordinates>-70.397842,-23.650699,0</coordinates></Point></Placemark>
<Placemark><name>Calzados Paola</name><description><![CDATA[Maipu 668, Antofagasta<br><a href="https://www.google.com/maps/search/?api=1&query=Calzados%20Paola%2C%20Maipu%20668%2C%20Antofagasta">Ver en Google Maps</a>]]></description><styleUrl>#s</styleUrl><Point><coordinates>-70.397857,-23.650696,0</coordinates></Point></Placemark>
<Placemark><name>Albasini e Hijos</name><description><![CDATA[O'Higgins 420, Copiapó<br><a href="https://www.google.com/maps/search/?api=1&query=Albasini%20e%20Hijos%2C%20O'Higgins%20420%2C%20Copiap%C3%B3">Ver en Google Maps</a>]]></description><styleUrl>#s</styleUrl><Point><coordinates>-70.33562,-27.365029,0</coordinates></Point></Placemark>
<Placemark><name>Albasini e Hijos</name><description><![CDATA[Atacama 469, Copiapó<br><a href="https://www.google.com/maps/search/?api=1&query=Albasini%20e%20Hijos%2C%20Atacama%20469%2C%20Copiap%C3%B3">Ver en Google Maps</a>]]></description><styleUrl>#s</styleUrl><Point><coordinates>-70.335854,-27.364897,0</coordinates></Point></Placemark>
<Placemark><name>Establecimientos Seideman</name><description><![CDATA[Chacabuco 216, Quillota<br><a href="https://www.google.com/maps/search/?api=1&query=Establecimientos%20Seideman%2C%20Chacabuco%20216%2C%20Quillota">Ver en Google Maps</a>]]></description><styleUrl>#s</styleUrl><Point><coordinates>-71.246583,-32.879268,0</coordinates></Point></Placemark>
<Placemark><name>Establecimientos Seideman</name><description><![CDATA[J.J. Pérez 254, La Calera<br><a href="https://www.google.com/maps/search/?api=1&query=Establecimientos%20Seideman%2C%20J.J.%20P%C3%A9rez%20254%2C%20La%20Calera">Ver en Google Maps</a>]]></description><styleUrl>#s</styleUrl><Point><coordinates>-71.191093,-32.787769,0</coordinates></Point></Placemark>
<Placemark><name>Casa Anny</name><description><![CDATA[Maipu 164, Los Andes<br><a href="https://www.google.com/maps/search/?api=1&query=Casa%20Anny%2C%20Maipu%20164%2C%20Los%20Andes">Ver en Google Maps</a>]]></description><styleUrl>#s</styleUrl><Point><coordinates>-70.596558,-32.831859,0</coordinates></Point></Placemark>
<Placemark><name>Casa Anny</name><description><![CDATA[Membrillar 336, Los Andes<br><a href="https://www.google.com/maps/search/?api=1&query=Casa%20Anny%2C%20Membrillar%20336%2C%20Los%20Andes">Ver en Google Maps</a>]]></description><styleUrl>#s</styleUrl><Point><coordinates>-70.596194,-32.834158,0</coordinates></Point></Placemark>
<Placemark><name>Casa Anny</name><description><![CDATA[Portus 233, San Felipe<br><a href="https://www.google.com/maps/search/?api=1&query=Casa%20Anny%2C%20Portus%20233%2C%20San%20Felipe">Ver en Google Maps</a>]]></description><styleUrl>#s</styleUrl><Point><coordinates>-70.72324,-32.7513,0</coordinates></Point></Placemark>
<Placemark><name>Casa Anny</name><description><![CDATA[Ortiz de Rozas 475, La Ligua<br><a href="https://www.google.com/maps/search/?api=1&query=Casa%20Anny%2C%20Ortiz%20de%20Rozas%20475%2C%20La%20Ligua">Ver en Google Maps</a>]]></description><styleUrl>#s</styleUrl><Point><coordinates>-71.230584,-32.449057,0</coordinates></Point></Placemark>
<Placemark><name>Vision Deportes</name><description><![CDATA[Plaza de Armas 500, Melipilla<br><a href="https://www.google.com/maps/search/?api=1&query=Vision%20Deportes%2C%20Plaza%20de%20Armas%20500%2C%20Melipilla">Ver en Google Maps</a>]]></description><styleUrl>#s</styleUrl><Point><coordinates>-71.213994,-33.684939,0</coordinates></Point></Placemark>
<Placemark><name>Vision Deportes</name><description><![CDATA[J.J. Pérez 194, La Calera<br><a href="https://www.google.com/maps/search/?api=1&query=Vision%20Deportes%2C%20J.J.%20P%C3%A9rez%20194%2C%20La%20Calera">Ver en Google Maps</a>]]></description><styleUrl>#s</styleUrl><Point><coordinates>-71.189701,-32.788259,0</coordinates></Point></Placemark>
<Placemark><name>Vision Deportes</name><description><![CDATA[O'Higgins 131, Quillota<br><a href="https://www.google.com/maps/search/?api=1&query=Vision%20Deportes%2C%20O'Higgins%20131%2C%20Quillota">Ver en Google Maps</a>]]></description><styleUrl>#s</styleUrl><Point><coordinates>-71.246579,-32.878694,0</coordinates></Point></Placemark>
<Placemark><name>Vision Deportes</name><description><![CDATA[Mall Arauco San Antonio<br><a href="https://www.google.com/maps/search/?api=1&query=Vision%20Deportes%2C%20Mall%20Arauco%20San%20Antonio">Ver en Google Maps</a>]]></description><styleUrl>#s</styleUrl><Point><coordinates>-71.613829,-33.581081,0</coordinates></Point></Placemark>
<Placemark><name>Vision Deportes</name><description><![CDATA[Arturo Prat 523, Curicó<br><a href="https://www.google.com/maps/search/?api=1&query=Vision%20Deportes%2C%20Arturo%20Prat%20523%2C%20Curic%C3%B3">Ver en Google Maps</a>]]></description><styleUrl>#s</styleUrl><Point><coordinates>-71.242018,-34.983657,0</coordinates></Point></Placemark>
<Placemark><name>Vision Deportes</name><description><![CDATA[Uno Sur 1504, Talca<br><a href="https://www.google.com/maps/search/?api=1&query=Vision%20Deportes%2C%20Uno%20Sur%201504%2C%20Talca">Ver en Google Maps</a>]]></description><styleUrl>#s</styleUrl><Point><coordinates>-71.655655,-35.428016,0</coordinates></Point></Placemark>
<Placemark><name>Vision Deportes</name><description><![CDATA[Independencia 728, Linares<br><a href="https://www.google.com/maps/search/?api=1&query=Vision%20Deportes%2C%20Independencia%20728%2C%20Linares">Ver en Google Maps</a>]]></description><styleUrl>#s</styleUrl><Point><coordinates>-71.592576,-35.847282,0</coordinates></Point></Placemark>
<Placemark><name>Vision Deportes</name><description><![CDATA[Caracoles 259, San Pedro de Atacama<br><a href="https://www.google.com/maps/search/?api=1&query=Vision%20Deportes%2C%20Caracoles%20259%2C%20San%20Pedro%20de%20Atacama">Ver en Google Maps</a>]]></description><styleUrl>#s</styleUrl><Point><coordinates>-68.201946,-22.91127,0</coordinates></Point></Placemark>
<Placemark><name>Clever</name><description><![CDATA[Ortuzar 520, Melipilla<br><a href="https://www.google.com/maps/search/?api=1&query=Clever%2C%20Ortuzar%20520%2C%20Melipilla">Ver en Google Maps</a>]]></description><styleUrl>#s</styleUrl><Point><coordinates>-71.215412,-33.686143,0</coordinates></Point></Placemark>
<Placemark><name>Clever</name><description><![CDATA[Uno Sur 1579, Talca<br><a href="https://www.google.com/maps/search/?api=1&query=Clever%2C%20Uno%20Sur%201579%2C%20Talca">Ver en Google Maps</a>]]></description><styleUrl>#s</styleUrl><Point><coordinates>-71.654515,-35.427921,0</coordinates></Point></Placemark>
<Placemark><name>Clever</name><description><![CDATA[Mall Open Plaza La Calera<br><a href="https://www.google.com/maps/search/?api=1&query=Clever%2C%20Mall%20Open%20Plaza%20La%20Calera">Ver en Google Maps</a>]]></description><styleUrl>#s</styleUrl><Point><coordinates>-71.192544,-32.791745,0</coordinates></Point></Placemark>
<Placemark><name>Clever</name><description><![CDATA[Independencia 632, Linares<br><a href="https://www.google.com/maps/search/?api=1&query=Clever%2C%20Independencia%20632%2C%20Linares">Ver en Google Maps</a>]]></description><styleUrl>#s</styleUrl><Point><coordinates>-71.594084,-35.84699,0</coordinates></Point></Placemark>
<Placemark><name>Deportes Scarla</name><description><![CDATA[Mall Arauco Estación, Estación Central<br><a href="https://www.google.com/maps/search/?api=1&query=Deportes%20Scarla%2C%20Mall%20Arauco%20Estaci%C3%B3n%2C%20Estaci%C3%B3n%20Central">Ver en Google Maps</a>]]></description><styleUrl>#s</styleUrl><Point><coordinates>-70.679471,-33.451547,0</coordinates></Point></Placemark>
<Placemark><name>Deportes Scarla</name><description><![CDATA[Galería A/C/D, Estación Central<br><a href="https://www.google.com/maps/search/?api=1&query=Deportes%20Scarla%2C%20Galer%C3%ADa%20A%2FC%2FD%2C%20Estaci%C3%B3n%20Central">Ver en Google Maps</a>]]></description><styleUrl>#s</styleUrl><Point><coordinates>-70.684,-33.456,0</coordinates></Point></Placemark>
<Placemark><name>Deportes Scarla</name><description><![CDATA[Independencia 756, Rancagua<br><a href="https://www.google.com/maps/search/?api=1&query=Deportes%20Scarla%2C%20Independencia%20756%2C%20Rancagua">Ver en Google Maps</a>]]></description><styleUrl>#s</styleUrl><Point><coordinates>-70.745453,-34.169779,0</coordinates></Point></Placemark>
<Placemark><name>Calzado Paula</name><description><![CDATA[Franklin 801, Santiago<br><a href="https://www.google.com/maps/search/?api=1&query=Calzado%20Paula%2C%20Franklin%20801%2C%20Santiago">Ver en Google Maps</a>]]></description><styleUrl>#s</styleUrl><Point><coordinates>-70.643905,-33.47296,0</coordinates></Point></Placemark>
<Placemark><name>Calzado Paula</name><description><![CDATA[Franklin 1001, Santiago<br><a href="https://www.google.com/maps/search/?api=1&query=Calzado%20Paula%2C%20Franklin%201001%2C%20Santiago">Ver en Google Maps</a>]]></description><styleUrl>#s</styleUrl><Point><coordinates>-70.64676,-33.473104,0</coordinates></Point></Placemark>
<Placemark><name>Almacenes La Gran Ocasión</name><description><![CDATA[Franklin 835, Santiago<br><a href="https://www.google.com/maps/search/?api=1&query=Almacenes%20La%20Gran%20Ocasi%C3%B3n%2C%20Franklin%20835%2C%20Santiago">Ver en Google Maps</a>]]></description><styleUrl>#s</styleUrl><Point><coordinates>-70.64432,-33.472981,0</coordinates></Point></Placemark>
<Placemark><name>Luis Ugalde</name><description><![CDATA[Las Coimas 186, San Felipe<br><a href="https://www.google.com/maps/search/?api=1&query=Luis%20Ugalde%2C%20Las%20Coimas%20186%2C%20San%20Felipe">Ver en Google Maps</a>]]></description><styleUrl>#s</styleUrl><Point><coordinates>-70.724023,-32.750087,0</coordinates></Point></Placemark>
<Placemark><name>Luis Ugalde</name><description><![CDATA[Los Carrera 721, Quilpué<br><a href="https://www.google.com/maps/search/?api=1&query=Luis%20Ugalde%2C%20Los%20Carrera%20721%2C%20Quilpu%C3%A9">Ver en Google Maps</a>]]></description><styleUrl>#s</styleUrl><Point><coordinates>-71.442329,-33.048036,0</coordinates></Point></Placemark>
<Placemark><name>Tiendas San Antonio</name><description><![CDATA[Arturo Prat 325, Rengo<br><a href="https://www.google.com/maps/search/?api=1&query=Tiendas%20San%20Antonio%2C%20Arturo%20Prat%20325%2C%20Rengo">Ver en Google Maps</a>]]></description><styleUrl>#s</styleUrl><Point><coordinates>-70.859132,-34.406137,0</coordinates></Point></Placemark>
<Placemark><name>Tiendas San Antonio</name><description><![CDATA[Av. Estadio 869, Las Cabras<br><a href="https://www.google.com/maps/search/?api=1&query=Tiendas%20San%20Antonio%2C%20Av.%20Estadio%20869%2C%20Las%20Cabras">Ver en Google Maps</a>]]></description><styleUrl>#s</styleUrl><Point><coordinates>-71.31177,-34.291313,0</coordinates></Point></Placemark>
<Placemark><name>Tiendas San Antonio</name><description><![CDATA[Germán Castro 36, Quinta Tilcoco<br><a href="https://www.google.com/maps/search/?api=1&query=Tiendas%20San%20Antonio%2C%20Germ%C3%A1n%20Castro%2036%2C%20Quinta%20Tilcoco">Ver en Google Maps</a>]]></description><styleUrl>#s</styleUrl><Point><coordinates>-70.9692,-34.3803,0</coordinates></Point></Placemark>
<Placemark><name>Ok Sport</name><description><![CDATA[La Cantera 2325 L15, Coquimbo<br><a href="https://www.google.com/maps/search/?api=1&query=Ok%20Sport%2C%20La%20Cantera%202325%20L15%2C%20Coquimbo">Ver en Google Maps</a>]]></description><styleUrl>#s</styleUrl><Point><coordinates>-71.296194,-29.976331,0</coordinates></Point></Placemark>
<Placemark><name>Ok Sport</name><description><![CDATA[Camino Internacional 2440, Viña del Mar<br><a href="https://www.google.com/maps/search/?api=1&query=Ok%20Sport%2C%20Camino%20Internacional%202440%2C%20Vi%C3%B1a%20del%20Mar">Ver en Google Maps</a>]]></description><styleUrl>#s</styleUrl><Point><coordinates>-71.499181,-32.985342,0</coordinates></Point></Placemark>
<Placemark><name>Ok Sport</name><description><![CDATA[Av. Colin 665, Talca<br><a href="https://www.google.com/maps/search/?api=1&query=Ok%20Sport%2C%20Av.%20Colin%20665%2C%20Talca">Ver en Google Maps</a>]]></description><styleUrl>#s</styleUrl><Point><coordinates>-71.6404,-35.4291,0</coordinates></Point></Placemark>
<Placemark><name>Ok Sport</name><description><![CDATA[Mall Go Florida, La Florida<br><a href="https://www.google.com/maps/search/?api=1&query=Ok%20Sport%2C%20Mall%20Go%20Florida%2C%20La%20Florida">Ver en Google Maps</a>]]></description><styleUrl>#s</styleUrl><Point><coordinates>-70.5797,-33.5211,0</coordinates></Point></Placemark>
<Placemark><name>Tododeportes</name><description><![CDATA[B. O'Higgins 1055, San Fernando<br><a href="https://www.google.com/maps/search/?api=1&query=Tododeportes%2C%20B.%20O'Higgins%201055%2C%20San%20Fernando">Ver en Google Maps</a>]]></description><styleUrl>#s</styleUrl><Point><coordinates>-70.98378,-34.583234,0</coordinates></Point></Placemark>
<Placemark><name>Tododeportes</name><description><![CDATA[Manuel Rodríguez 701, San Fernando<br><a href="https://www.google.com/maps/search/?api=1&query=Tododeportes%2C%20Manuel%20Rodr%C3%ADguez%20701%2C%20San%20Fernando">Ver en Google Maps</a>]]></description><styleUrl>#s</styleUrl><Point><coordinates>-70.982649,-34.588133,0</coordinates></Point></Placemark>
<Placemark><name>Tododeportes</name><description><![CDATA[Av. Aníbal Pinto 290, Parral<br><a href="https://www.google.com/maps/search/?api=1&query=Tododeportes%2C%20Av.%20An%C3%ADbal%20Pinto%20290%2C%20Parral">Ver en Google Maps</a>]]></description><styleUrl>#s</styleUrl><Point><coordinates>-71.8298,-36.1402,0</coordinates></Point></Placemark>
<Placemark><name>Tododeportes</name><description><![CDATA[Arturo Prat 346, Rengo<br><a href="https://www.google.com/maps/search/?api=1&query=Tododeportes%2C%20Arturo%20Prat%20346%2C%20Rengo">Ver en Google Maps</a>]]></description><styleUrl>#s</styleUrl><Point><coordinates>-70.859179,-34.405906,0</coordinates></Point></Placemark>
<Placemark><name>Tododeportes</name><description><![CDATA[Arturo Prat 950, San Vicente de TT<br><a href="https://www.google.com/maps/search/?api=1&query=Tododeportes%2C%20Arturo%20Prat%20950%2C%20San%20Vicente%20de%20TT">Ver en Google Maps</a>]]></description><styleUrl>#s</styleUrl><Point><coordinates>-71.07759,-34.438593,0</coordinates></Point></Placemark>
<Placemark><name>Tododeportes</name><description><![CDATA[Ramón Sanfurgo 39, Santa Cruz<br><a href="https://www.google.com/maps/search/?api=1&query=Tododeportes%2C%20Ram%C3%B3n%20Sanfurgo%2039%2C%20Santa%20Cruz">Ver en Google Maps</a>]]></description><styleUrl>#s</styleUrl><Point><coordinates>-71.367896,-34.641976,0</coordinates></Point></Placemark>
<Placemark><name>La Americana</name><description><![CDATA[Peña 765, Curicó<br><a href="https://www.google.com/maps/search/?api=1&query=La%20Americana%2C%20Pe%C3%B1a%20765%2C%20Curic%C3%B3">Ver en Google Maps</a>]]></description><styleUrl>#s</styleUrl><Point><coordinates>-71.239,-34.986,0</coordinates></Point></Placemark>
<Placemark><name>La Americana</name><description><![CDATA[Camilo Henríquez 510, Curicó<br><a href="https://www.google.com/maps/search/?api=1&query=La%20Americana%2C%20Camilo%20Henr%C3%ADquez%20510%2C%20Curic%C3%B3">Ver en Google Maps</a>]]></description><styleUrl>#s</styleUrl><Point><coordinates>-71.24191,-34.98308,0</coordinates></Point></Placemark>
<Placemark><name>La Americana</name><description><![CDATA[Raúl Casanova 208, Santa Cruz<br><a href="https://www.google.com/maps/search/?api=1&query=La%20Americana%2C%20Ra%C3%BAl%20Casanova%20208%2C%20Santa%20Cruz">Ver en Google Maps</a>]]></description><styleUrl>#s</styleUrl><Point><coordinates>-71.36716,-34.641185,0</coordinates></Point></Placemark>
<Placemark><name>La Americana</name><description><![CDATA[Manuel Rodríguez 994, San Fernando<br><a href="https://www.google.com/maps/search/?api=1&query=La%20Americana%2C%20Manuel%20Rodr%C3%ADguez%20994%2C%20San%20Fernando">Ver en Google Maps</a>]]></description><styleUrl>#s</styleUrl><Point><coordinates>-70.985494,-34.587734,0</coordinates></Point></Placemark>
<Placemark><name>Distribuidora Multihogar</name><description><![CDATA[Peña 800, Curicó<br><a href="https://www.google.com/maps/search/?api=1&query=Distribuidora%20Multihogar%2C%20Pe%C3%B1a%20800%2C%20Curic%C3%B3">Ver en Google Maps</a>]]></description><styleUrl>#s</styleUrl><Point><coordinates>-71.241562,-34.982458,0</coordinates></Point></Placemark>
<Placemark><name>Distribuidora Multihogar</name><description><![CDATA[Rafael Casanova 457, Santa Cruz<br><a href="https://www.google.com/maps/search/?api=1&query=Distribuidora%20Multihogar%2C%20Rafael%20Casanova%20457%2C%20Santa%20Cruz">Ver en Google Maps</a>]]></description><styleUrl>#s</styleUrl><Point><coordinates>-71.371024,-34.641434,0</coordinates></Point></Placemark>
<Placemark><name>Distribuidora Multihogar</name><description><![CDATA[Manuel Rodríguez 800, San Fernando<br><a href="https://www.google.com/maps/search/?api=1&query=Distribuidora%20Multihogar%2C%20Manuel%20Rodr%C3%ADguez%20800%2C%20San%20Fernando">Ver en Google Maps</a>]]></description><styleUrl>#s</styleUrl><Point><coordinates>-70.986544,-34.587819,0</coordinates></Point></Placemark>
<Placemark><name>Distribuidora Multihogar</name><description><![CDATA[Germán Riesco 751, San Vicente de TT<br><a href="https://www.google.com/maps/search/?api=1&query=Distribuidora%20Multihogar%2C%20Germ%C3%A1n%20Riesco%20751%2C%20San%20Vicente%20de%20TT">Ver en Google Maps</a>]]></description><styleUrl>#s</styleUrl><Point><coordinates>-71.076422,-34.439699,0</coordinates></Point></Placemark>
<Placemark><name>Distribuidora Multihogar</name><description><![CDATA[Victoria 582, Cauquenes<br><a href="https://www.google.com/maps/search/?api=1&query=Distribuidora%20Multihogar%2C%20Victoria%20582%2C%20Cauquenes">Ver en Google Maps</a>]]></description><styleUrl>#s</styleUrl><Point><coordinates>-72.317211,-35.967327,0</coordinates></Point></Placemark>
<Placemark><name>Distribuidora Multihogar</name><description><![CDATA[Independencia 602, Linares<br><a href="https://www.google.com/maps/search/?api=1&query=Distribuidora%20Multihogar%2C%20Independencia%20602%2C%20Linares">Ver en Google Maps</a>]]></description><styleUrl>#s</styleUrl><Point><coordinates>-71.594192,-35.846989,0</coordinates></Point></Placemark>
<Placemark><name>Distribuidora Multihogar</name><description><![CDATA[Freire 770, Constitución<br><a href="https://www.google.com/maps/search/?api=1&query=Distribuidora%20Multihogar%2C%20Freire%20770%2C%20Constituci%C3%B3n">Ver en Google Maps</a>]]></description><styleUrl>#s</styleUrl><Point><coordinates>-72.409948,-35.333607,0</coordinates></Point></Placemark>
<Placemark><name>Multicentro</name><description><![CDATA[Mall Portal Centro, Talca<br><a href="https://www.google.com/maps/search/?api=1&query=Multicentro%2C%20Mall%20Portal%20Centro%2C%20Talca">Ver en Google Maps</a>]]></description><styleUrl>#s</styleUrl><Point><coordinates>-71.654409,-35.427568,0</coordinates></Point></Placemark>
<Placemark><name>Multicentro</name><description><![CDATA[Freire 412, Constitución<br><a href="https://www.google.com/maps/search/?api=1&query=Multicentro%2C%20Freire%20412%2C%20Constituci%C3%B3n">Ver en Google Maps</a>]]></description><styleUrl>#s</styleUrl><Point><coordinates>-72.411847,-35.330156,0</coordinates></Point></Placemark>
<Placemark><name>Multicentro</name><description><![CDATA[Independencia 651, Linares<br><a href="https://www.google.com/maps/search/?api=1&query=Multicentro%2C%20Independencia%20651%2C%20Linares">Ver en Google Maps</a>]]></description><styleUrl>#s</styleUrl><Point><coordinates>-71.59357,-35.84667,0</coordinates></Point></Placemark>
<Placemark><name>Multicentro</name><description><![CDATA[Victoria 510, Cauquenes<br><a href="https://www.google.com/maps/search/?api=1&query=Multicentro%2C%20Victoria%20510%2C%20Cauquenes">Ver en Google Maps</a>]]></description><styleUrl>#s</styleUrl><Point><coordinates>-72.31633,-35.967551,0</coordinates></Point></Placemark>
<Placemark><name>Multicentro</name><description><![CDATA[Germán Riesco 901, San Vicente de TT<br><a href="https://www.google.com/maps/search/?api=1&query=Multicentro%2C%20Germ%C3%A1n%20Riesco%20901%2C%20San%20Vicente%20de%20TT">Ver en Google Maps</a>]]></description><styleUrl>#s</styleUrl><Point><coordinates>-71.080944,-34.438796,0</coordinates></Point></Placemark>
<Placemark><name>Multicentro</name><description><![CDATA[Rafael Casanova, Santa Cruz<br><a href="https://www.google.com/maps/search/?api=1&query=Multicentro%2C%20Rafael%20Casanova%2C%20Santa%20Cruz">Ver en Google Maps</a>]]></description><styleUrl>#s</styleUrl><Point><coordinates>-71.369009,-34.641515,0</coordinates></Point></Placemark>
<Placemark><name>La Bota Verde</name><description><![CDATA[1 Sur 1280, Talca<br><a href="https://www.google.com/maps/search/?api=1&query=La%20Bota%20Verde%2C%201%20Sur%201280%2C%20Talca">Ver en Google Maps</a>]]></description><styleUrl>#s</styleUrl><Point><coordinates>-71.65865,-35.427883,0</coordinates></Point></Placemark>
<Placemark><name>La Bota Verde</name><description><![CDATA[Peña 782, Curicó<br><a href="https://www.google.com/maps/search/?api=1&query=La%20Bota%20Verde%2C%20Pe%C3%B1a%20782%2C%20Curic%C3%B3">Ver en Google Maps</a>]]></description><styleUrl>#s</styleUrl><Point><coordinates>-71.241598,-34.9829,0</coordinates></Point></Placemark>
<Placemark><name>La Bota Verde</name><description><![CDATA[Arturo Prat 2353, San Javier<br><a href="https://www.google.com/maps/search/?api=1&query=La%20Bota%20Verde%2C%20Arturo%20Prat%202353%2C%20San%20Javier">Ver en Google Maps</a>]]></description><styleUrl>#s</styleUrl><Point><coordinates>-71.730437,-35.595319,0</coordinates></Point></Placemark>
<Placemark><name>La Bota Verde</name><description><![CDATA[Independencia 640, Linares<br><a href="https://www.google.com/maps/search/?api=1&query=La%20Bota%20Verde%2C%20Independencia%20640%2C%20Linares">Ver en Google Maps</a>]]></description><styleUrl>#s</styleUrl><Point><coordinates>-71.593664,-35.847132,0</coordinates></Point></Placemark>
<Placemark><name>Passos</name><description><![CDATA[El Roble 660, Chillán<br><a href="https://www.google.com/maps/search/?api=1&query=Passos%2C%20El%20Roble%20660%2C%20Chill%C3%A1n">Ver en Google Maps</a>]]></description><styleUrl>#s</styleUrl><Point><coordinates>-72.102393,-36.609069,0</coordinates></Point></Placemark>
<Placemark><name>Telechea</name><description><![CDATA[Manuel Montt 780, Temuco<br><a href="https://www.google.com/maps/search/?api=1&query=Telechea%2C%20Manuel%20Montt%20780%2C%20Temuco">Ver en Google Maps</a>]]></description><styleUrl>#s</styleUrl><Point><coordinates>-72.588772,-38.738678,0</coordinates></Point></Placemark>
<Placemark><name>Telechea</name><description><![CDATA[Manuel Montt 922, Temuco<br><a href="https://www.google.com/maps/search/?api=1&query=Telechea%2C%20Manuel%20Montt%20922%2C%20Temuco">Ver en Google Maps</a>]]></description><styleUrl>#s</styleUrl><Point><coordinates>-72.590823,-38.738395,0</coordinates></Point></Placemark>
<Placemark><name>Telechea</name><description><![CDATA[Camilo Henríquez 301, Villarrica<br><a href="https://www.google.com/maps/search/?api=1&query=Telechea%2C%20Camilo%20Henr%C3%ADquez%20301%2C%20Villarrica">Ver en Google Maps</a>]]></description><styleUrl>#s</styleUrl><Point><coordinates>-72.225553,-39.28058,0</coordinates></Point></Placemark>
<Placemark><name>Dimarsa</name><description><![CDATA[Chillán 117, Puerto Montt<br><a href="https://www.google.com/maps/search/?api=1&query=Dimarsa%2C%20Chill%C3%A1n%20117%2C%20Puerto%20Montt">Ver en Google Maps</a>]]></description><styleUrl>#s</styleUrl><Point><coordinates>-72.94523,-41.472781,0</coordinates></Point></Placemark>
<Placemark><name>Dimarsa</name><description><![CDATA[Av. Ferrocarril 2001, Puerto Montt<br><a href="https://www.google.com/maps/search/?api=1&query=Dimarsa%2C%20Av.%20Ferrocarril%202001%2C%20Puerto%20Montt">Ver en Google Maps</a>]]></description><styleUrl>#s</styleUrl><Point><coordinates>-72.910829,-41.441453,0</coordinates></Point></Placemark>
<Placemark><name>Dimarsa</name><description><![CDATA[San Francisco 666, Puerto Varas<br><a href="https://www.google.com/maps/search/?api=1&query=Dimarsa%2C%20San%20Francisco%20666%2C%20Puerto%20Varas">Ver en Google Maps</a>]]></description><styleUrl>#s</styleUrl><Point><coordinates>-72.985598,-41.319275,0</coordinates></Point></Placemark>
<Placemark><name>Dimarsa</name><description><![CDATA[Av. Gramados 570, Puerto Varas<br><a href="https://www.google.com/maps/search/?api=1&query=Dimarsa%2C%20Av.%20Gramados%20570%2C%20Puerto%20Varas">Ver en Google Maps</a>]]></description><styleUrl>#s</styleUrl><Point><coordinates>-72.986895,-41.316858,0</coordinates></Point></Placemark>
<Placemark><name>Dimarsa</name><description><![CDATA[Federico Errázuriz 221, Calbuco<br><a href="https://www.google.com/maps/search/?api=1&query=Dimarsa%2C%20Federico%20Err%C3%A1zuriz%20221%2C%20Calbuco">Ver en Google Maps</a>]]></description><styleUrl>#s</styleUrl><Point><coordinates>-73.127056,-41.771924,0</coordinates></Point></Placemark>
<Placemark><name>Dimarsa</name><description><![CDATA[Pudeto 278, Ancud<br><a href="https://www.google.com/maps/search/?api=1&query=Dimarsa%2C%20Pudeto%20278%2C%20Ancud">Ver en Google Maps</a>]]></description><styleUrl>#s</styleUrl><Point><coordinates>-73.826787,-41.868939,0</coordinates></Point></Placemark>
<Placemark><name>Dimarsa</name><description><![CDATA[Libertad 605, Ancud<br><a href="https://www.google.com/maps/search/?api=1&query=Dimarsa%2C%20Libertad%20605%2C%20Ancud">Ver en Google Maps</a>]]></description><styleUrl>#s</styleUrl><Point><coordinates>-73.829077,-41.867575,0</coordinates></Point></Placemark>
<Placemark><name>Dimarsa</name><description><![CDATA[San Martín 754, Castro<br><a href="https://www.google.com/maps/search/?api=1&query=Dimarsa%2C%20San%20Mart%C3%ADn%20754%2C%20Castro">Ver en Google Maps</a>]]></description><styleUrl>#s</styleUrl><Point><coordinates>-73.763798,-42.477568,0</coordinates></Point></Placemark>
<Placemark><name>Dimarsa</name><description><![CDATA[Ignacio Serrano 240, Castro<br><a href="https://www.google.com/maps/search/?api=1&query=Dimarsa%2C%20Ignacio%20Serrano%20240%2C%20Castro">Ver en Google Maps</a>]]></description><styleUrl>#s</styleUrl><Point><coordinates>-73.762762,-42.479919,0</coordinates></Point></Placemark>
<Placemark><name>Dimarsa</name><description><![CDATA[Ladrilleros 247, Quellón<br><a href="https://www.google.com/maps/search/?api=1&query=Dimarsa%2C%20Ladrilleros%20247%2C%20Quell%C3%B3n">Ver en Google Maps</a>]]></description><styleUrl>#s</styleUrl><Point><coordinates>-73.615795,-43.117294,0</coordinates></Point></Placemark>
<Placemark><name>Dimarsa</name><description><![CDATA[Esmeralda 802, La Unión<br><a href="https://www.google.com/maps/search/?api=1&query=Dimarsa%2C%20Esmeralda%20802%2C%20La%20Uni%C3%B3n">Ver en Google Maps</a>]]></description><styleUrl>#s</styleUrl><Point><coordinates>-73.080756,-40.293627,0</coordinates></Point></Placemark>
<Placemark><name>Dimarsa</name><description><![CDATA[Esmeralda 793, La Unión<br><a href="https://www.google.com/maps/search/?api=1&query=Dimarsa%2C%20Esmeralda%20793%2C%20La%20Uni%C3%B3n">Ver en Google Maps</a>]]></description><styleUrl>#s</styleUrl><Point><coordinates>-73.080756,-40.293627,0</coordinates></Point></Placemark>
<Placemark><name>Mawi</name><description><![CDATA[San Martín 539, Castro<br><a href="https://www.google.com/maps/search/?api=1&query=Mawi%2C%20San%20Mart%C3%ADn%20539%2C%20Castro">Ver en Google Maps</a>]]></description><styleUrl>#s</styleUrl><Point><coordinates>-73.763359,-42.480026,0</coordinates></Point></Placemark>
<Placemark><name>Bonzer</name><description><![CDATA[Blanco Encalada 298, Castro<br><a href="https://www.google.com/maps/search/?api=1&query=Bonzer%2C%20Blanco%20Encalada%20298%2C%20Castro">Ver en Google Maps</a>]]></description><styleUrl>#s</styleUrl><Point><coordinates>-73.763357,-42.482988,0</coordinates></Point></Placemark>
<Placemark><name>Chelech</name><description><![CDATA[Bulnes 701, Puerto Natales<br><a href="https://www.google.com/maps/search/?api=1&query=Chelech%2C%20Bulnes%20701%2C%20Puerto%20Natales">Ver en Google Maps</a>]]></description><styleUrl>#s</styleUrl><Point><coordinates>-72.501162,-51.726984,0</coordinates></Point></Placemark>
<Placemark><name>El Arte de Vestir</name><description><![CDATA[Errázuriz 644, Punta Arenas<br><a href="https://www.google.com/maps/search/?api=1&query=El%20Arte%20de%20Vestir%2C%20Err%C3%A1zuriz%20644%2C%20Punta%20Arenas">Ver en Google Maps</a>]]></description><styleUrl>#s</styleUrl><Point><coordinates>-70.9058,-53.1498,0</coordinates></Point></Placemark>
<Placemark><name>El Arte de Vestir</name><description><![CDATA[Bories 831, Punta Arenas<br><a href="https://www.google.com/maps/search/?api=1&query=El%20Arte%20de%20Vestir%2C%20Bories%20831%2C%20Punta%20Arenas">Ver en Google Maps</a>]]></description><styleUrl>#s</styleUrl><Point><coordinates>-70.906418,-53.160391,0</coordinates></Point></Placemark>
<Placemark><name>El Arte de Vestir</name><description><![CDATA[Errázuriz 860, Punta Arenas<br><a href="https://www.google.com/maps/search/?api=1&query=El%20Arte%20de%20Vestir%2C%20Err%C3%A1zuriz%20860%2C%20Punta%20Arenas">Ver en Google Maps</a>]]></description><styleUrl>#s</styleUrl><Point><coordinates>-70.906,-53.15,0</coordinates></Point></Placemark>
<Placemark><name>El Arte de Vestir</name><description><![CDATA[Bories 982, Punta Arenas<br><a href="https://www.google.com/maps/search/?api=1&query=El%20Arte%20de%20Vestir%2C%20Bories%20982%2C%20Punta%20Arenas">Ver en Google Maps</a>]]></description><styleUrl>#s</styleUrl><Point><coordinates>-70.904,-53.1532,0</coordinates></Point></Placemark>
<Placemark><name>El Arte de Vestir</name><description><![CDATA[Bories esq. Menéndez, Punta Arenas<br><a href="https://www.google.com/maps/search/?api=1&query=El%20Arte%20de%20Vestir%2C%20Bories%20esq.%20Men%C3%A9ndez%2C%20Punta%20Arenas">Ver en Google Maps</a>]]></description><styleUrl>#s</styleUrl><Point><coordinates>-70.9031,-53.1521,0</coordinates></Point></Placemark>
</Document></kml>