<?xml version="1.0" encoding="UTF-8"?>
<kml xmlns="http://www.opengis.net/kml/2.2"><Document><name>Mall Plaza</name><Style id="s"><IconStyle><color>ff5D18C8</color><scale>1</scale><Icon><href>https://www.gstatic.com/mapspro/images/stock/503-wht-blank_maps.png</href></Icon></IconStyle></Style>
<Placemark><name>Mall Plaza Arica</name><description><![CDATA[Av. Diego Portales 640, Arica<br><a href="https://www.google.com/maps/search/?api=1&query=Mall%20Plaza%20Arica%2C%20Av.%20Diego%20Portales%20640%2C%20Arica">Ver en Google Maps</a>]]></description><styleUrl>#s</styleUrl><Point><coordinates>-70.309542,-18.469548,0</coordinates></Point></Placemark>
<Placemark><name>Mall Plaza Iquique</name><description><![CDATA[Av. Héroes de la Concepción 2555, Iquique<br><a href="https://www.google.com/maps/search/?api=1&query=Mall%20Plaza%20Iquique%2C%20Av.%20H%C3%A9roes%20de%20la%20Concepci%C3%B3n%202555%2C%20Iquique">Ver en Google Maps</a>]]></description><styleUrl>#s</styleUrl><Point><coordinates>-70.135,-20.23,0</coordinates></Point></Placemark>
<Placemark><name>Mall Plaza Antofagasta</name><description><![CDATA[Av. Balmaceda 2355, Antofagasta<br><a href="https://www.google.com/maps/search/?api=1&query=Mall%20Plaza%20Antofagasta%2C%20Av.%20Balmaceda%202355%2C%20Antofagasta">Ver en Google Maps</a>]]></description><styleUrl>#s</styleUrl><Point><coordinates>-70.40235,-23.645766,0</coordinates></Point></Placemark>
<Placemark><name>Mall Plaza Calama</name><description><![CDATA[Av. Balmaceda 3242, Calama<br><a href="https://www.google.com/maps/search/?api=1&query=Mall%20Plaza%20Calama%2C%20Av.%20Balmaceda%203242%2C%20Calama">Ver en Google Maps</a>]]></description><styleUrl>#s</styleUrl><Point><coordinates>-68.921671,-22.448362,0</coordinates></Point></Placemark>
<Placemark><name>Mall Plaza Copiapó</name><description><![CDATA[Av. Copayapu 5490, Copiapó<br><a href="https://www.google.com/maps/search/?api=1&query=Mall%20Plaza%20Copiap%C3%B3%2C%20Av.%20Copayapu%205490%2C%20Copiap%C3%B3">Ver en Google Maps</a>]]></description><styleUrl>#s</styleUrl><Point><coordinates>-70.325,-27.37,0</coordinates></Point></Placemark>
<Placemark><name>Mall Plaza La Serena</name><description><![CDATA[Av. Alberto Solari 1400, La Serena<br><a href="https://www.google.com/maps/search/?api=1&query=Mall%20Plaza%20La%20Serena%2C%20Av.%20Alberto%20Solari%201400%2C%20La%20Serena">Ver en Google Maps</a>]]></description><styleUrl>#s</styleUrl><Point><coordinates>-71.257094,-29.91207,0</coordinates></Point></Placemark>
<Placemark><name>Mall Plaza Norte</name><description><![CDATA[Av. Américo Vespucio 1737, Huechuraba<br><a href="https://www.google.com/maps/search/?api=1&query=Mall%20Plaza%20Norte%2C%20Av.%20Am%C3%A9rico%20Vespucio%201737%2C%20Huechuraba">Ver en Google Maps</a>]]></description><styleUrl>#s</styleUrl><Point><coordinates>-70.679426,-33.36573,0</coordinates></Point></Placemark>
<Placemark><name>Mall Plaza Egaña</name><description><![CDATA[Av. Larraín 5862, Ñuñoa<br><a href="https://www.google.com/maps/search/?api=1&query=Mall%20Plaza%20Ega%C3%B1a%2C%20Av.%20Larra%C3%ADn%205862%2C%20%C3%91u%C3%B1oa">Ver en Google Maps</a>]]></description><styleUrl>#s</styleUrl><Point><coordinates>-70.5742,-33.4526,0</coordinates></Point></Placemark>
<Placemark><name>Mall Plaza Vespucio</name><description><![CDATA[Av. Vicuña Mackenna 7110, La Florida<br><a href="https://www.google.com/maps/search/?api=1&query=Mall%20Plaza%20Vespucio%2C%20Av.%20Vicu%C3%B1a%20Mackenna%207110%2C%20La%20Florida">Ver en Google Maps</a>]]></description><styleUrl>#s</styleUrl><Point><coordinates>-70.601126,-33.517052,0</coordinates></Point></Placemark>
<Placemark><name>Mall Plaza Oeste</name><description><![CDATA[Av. Américo Vespucio 1501, Pudahuel<br><a href="https://www.google.com/maps/search/?api=1&query=Mall%20Plaza%20Oeste%2C%20Av.%20Am%C3%A9rico%20Vespucio%201501%2C%20Pudahuel">Ver en Google Maps</a>]]></description><styleUrl>#s</styleUrl><Point><coordinates>-70.7455,-33.4889,0</coordinates></Point></Placemark>
<Placemark><name>Mall Plaza Alameda</name><description><![CDATA[Av. Libertador B. O'Higgins 3470, Santiago<br><a href="https://www.google.com/maps/search/?api=1&query=Mall%20Plaza%20Alameda%2C%20Av.%20Libertador%20B.%20O'Higgins%203470%2C%20Santiago">Ver en Google Maps</a>]]></description><styleUrl>#s</styleUrl><Point><coordinates>-70.682307,-33.452696,0</coordinates></Point></Placemark>
<Placemark><name>Mall Plaza Tobalaba</name><description><![CDATA[Av. Camilo Henríquez 3692, Puente Alto<br><a href="https://www.google.com/maps/search/?api=1&query=Mall%20Plaza%20Tobalaba%2C%20Av.%20Camilo%20Henr%C3%ADquez%203692%2C%20Puente%20Alto">Ver en Google Maps</a>]]></description><styleUrl>#s</styleUrl><Point><coordinates>-70.557338,-33.570293,0</coordinates></Point></Placemark>
<Placemark><name>Mall Plaza Sur</name><description><![CDATA[Av. Jorge Alessandri 20040, Puente Alto<br><a href="https://www.google.com/maps/search/?api=1&query=Mall%20Plaza%20Sur%2C%20Av.%20Jorge%20Alessandri%2020040%2C%20Puente%20Alto">Ver en Google Maps</a>]]></description><styleUrl>#s</styleUrl><Point><coordinates>-70.707896,-33.633098,0</coordinates></Point></Placemark>
<Placemark><name>Mall Plaza Maule</name><description><![CDATA[Av. Circunvalación Oriente 1055, Talca<br><a href="https://www.google.com/maps/search/?api=1&query=Mall%20Plaza%20Maule%2C%20Av.%20Circunvalaci%C3%B3n%20Oriente%201055%2C%20Talca">Ver en Google Maps</a>]]></description><styleUrl>#s</styleUrl><Point><coordinates>-71.630635,-35.432118,0</coordinates></Point></Placemark>
<Placemark><name>Mall Plaza El Trébol</name><description><![CDATA[Av. Jorge Alessandri 3177, Concepción<br><a href="https://www.google.com/maps/search/?api=1&query=Mall%20Plaza%20El%20Tr%C3%A9bol%2C%20Av.%20Jorge%20Alessandri%203177%2C%20Concepci%C3%B3n">Ver en Google Maps</a>]]></description><styleUrl>#s</styleUrl><Point><coordinates>-73.069146,-36.790921,0</coordinates></Point></Placemark>
<Placemark><name>Mall Plaza Los Ángeles</name><description><![CDATA[Valdivia 440, Los Ángeles<br><a href="https://www.google.com/maps/search/?api=1&query=Mall%20Plaza%20Los%20%C3%81ngeles%2C%20Valdivia%20440%2C%20Los%20%C3%81ngeles">Ver en Google Maps</a>]]></description><styleUrl>#s</styleUrl><Point><coordinates>-72.352546,-37.468319,0</coordinates></Point></Placemark>
</Document></kml>