{"type":"FeatureCollection","features":[{"type":"Feature","properties":{"name":"Límites regionales","source":"geoBoundaries (BCN / OCHA), CC BY 3.0 IGO"},"geometry":{"type":"MultiLineString","coordinates":[[[-68.4808,-20.9451],[-68.5358,-21.0647],[-68.8597,-21.285],[-69.3131,-21.3982],[-69.5516,-21.6298],[-69.5575,-21.6248],[-69.5571,-21.6224],[-69.5618,-21.6233],[-69.563,-21.6206],[-69.5653,-21.6211],[-69.5663,-21.6162],[-69.5784,-21.6061],[-69.5792,-21.5997],[-69.5773,-21.5977],[-69.5832,-21.5925],[-69.586,-21.5839],[-69.5945,-21.5733],[-69.5942,-21.5685],[-69.5966,-21.5673],[-69.5982,-21.5614],[-69.6119,-21.5494],[-69.6257,-21.546],[-69.6271,-21.5349],[-69.6316,-21.5328],[-69.6274,-21.532],[-69.6257,-21.5289],[-69.6296,-21.526],[-69.6288,-21.5217],[-69.6353,-21.515],[-69.6352,-21.5106],[-69.6405,-21.5066],[-69.6395,-21.4999],[-69.6501,-21.4957],[-69.6556,-21.4855],[-69.6626,-21.4813],[-69.6609,-21.479],[-69.6654,-21.4739],[-69.6668,-21.463],[-69.6879,-21.4597],[-69.6888,-21.4545],[-69.695,-21.4505],[-69.702,-21.4561],[-69.7083,-21.4505],[-69.7132,-21.4532],[-69.7183,-21.4509],[-69.7226,-21.4526],[-69.725,-21.4494],[-69.7287,-21.4498],[-69.7318,-21.4466],[-69.7342,-21.4477],[-69.7348,-21.445],[-69.7387,-21.4447],[-69.7552,-21.434],[-69.7555,-21.4285],[-69.7628,-21.4257],[-69.7656,-21.4196],[-69.7681,-21.4237],[-69.7771,-21.4268],[-69.7817,-21.4323],[-69.7786,-21.4373],[-69.7811,-21.4417],[-69.7873,-21.4377],[-69.7916,-21.4409],[-69.7956,-21.4386],[-69.8017,-21.4415],[-69.8178,-21.4367],[-69.822,-21.4407],[-69.828,-21.4402],[-69.8303,-21.4433],[-69.8415,-21.4369],[-69.8519,-21.4399],[-69.8682,-21.4342],[-69.8821,-21.4372],[-69.8901,-21.4318],[-69.8993,-21.4304],[-69.9049,-21.4254],[-69.9121,-21.43],[-69.9186,-21.4259],[-69.9399,-21.4232],[-69.9417,-21.4258],[-69.9519,-21.4259],[-69.9631,-21.4317],[-69.9787,-21.4347],[-69.9872,-21.4332],[-69.9957,-21.4375],[-70.0052,-21.4385],[-70.0207,-21.434],[-70.0279,-21.4292],[-70.0326,-21.4299],[-70.0411,-21.4245],[-70.0583,-21.4302]],[[-70.6573,-26.061],[-70.6192,-26.061],[-70.6146,-26.0582],[-70.6163,-26.0537],[-70.6148,-26.0484],[-70.6075,-26.0451],[-70.6133,-26.0298],[-70.6052,-26.0041],[-70.602,-26.0033],[-70.5946,-26.0073],[-70.5759,-26.002],[-70.5547,-26.0077],[-70.5261,-26.0096],[-70.524,-26.0038],[-70.5102,-25.9979],[-70.5033,-25.9855],[-70.49,-25.9763],[-70.4832,-25.9679],[-70.4762,-25.9714],[-70.4358,-25.9526],[-70.4313,-25.9544],[-70.4201,-25.9534],[-70.417,-25.9464],[-70.4069,-25.9394],[-70.3928,-25.9388],[-70.3948,-25.9332],[-70.3932,-25.9288],[-70.3624,-25.9319],[-70.3465,-25.9309],[-70.3418,-25.9333],[-70.3354,-25.9238],[-70.3324,-25.9231],[-70.3243,-25.9311],[-70.313,-25.9109],[-70.3151,-25.9046],[-70.301,-25.8962],[-70.2952,-25.8966],[-70.2854,-25.9016],[-70.2807,-25.9073],[-70.2734,-25.9085],[-70.2659,-25.9189],[-70.2648,-25.9308],[-70.2528,-25.9318],[-70.2522,-25.9266],[-70.2481,-25.9269],[-70.2395,-25.9219],[-70.2405,-25.9161],[-70.2356,-25.9199],[-70.2302,-25.9181],[-70.2247,-25.9204],[-70.2172,-25.9313],[-70.2058,-25.9383],[-70.2018,-25.9385],[-70.1996,-25.9418],[-70.1844,-25.9435],[-70.166,-25.9399],[-70.1484,-25.9521],[-70.141,-25.9532],[-70.1368,-25.949],[-70.131,-25.9508],[-70.1279,-25.9551],[-70.1109,-25.9495],[-70.0964,-25.9518],[-70.0923,-25.9502],[-70.0877,-25.9539],[-70.0787,-25.9526],[-70.0751,-25.9553],[-70.0759,-25.965],[-70.023,-25.9199],[-69.9582,-25.9014],[-69.9084,-25.8945],[-69.8678,-25.9238],[-69.8543,-25.9453],[-69.8373,-25.9404],[-69.8194,-25.9239],[-69.808,-25.9271],[-69.8048,-25.925],[-69.7959,-25.9266],[-69.7901,-25.9231],[-69.7565,-25.9174],[-69.743,-25.9212],[-69.729,-25.9193],[-69.7027,-25.9344],[-69.673,-25.9433],[-69.6584,-25.9446],[-69.6321,-25.9409],[-69.6112,-25.942],[-69.608,-25.9448],[-69.6012,-25.945],[-69.5828,-25.9423],[-69.5473,-25.9446],[-69.5275,-25.9506],[-69.5121,-25.9512],[-69.503,-25.9487],[-69.5027,-25.9148],[-69.4946,-25.912],[-69.4767,-25.912],[-69.4682,-25.8979],[-69.4565,-25.8969],[-69.4518,-25.8939],[-69.4503,-25.8888],[-69.4453,-25.8839],[-69.4454,-25.8775],[-69.4402,-25.8708],[-69.4418,-25.8632],[-69.4391,-25.8596],[-69.4317,-25.8594],[-69.4269,-25.8564],[-69.3803,-25.8802],[-69.3678,-25.8801],[-69.3589,-25.8715],[-69.3496,-25.8664],[-69.3428,-25.868],[-69.3243,-25.8648],[-69.3033,-25.8698],[-69.2847,-25.8662],[-69.2784,-25.8631],[-69.2738,-25.8569],[-69.2693,-25.8586],[-69.268,-25.8665],[-69.2638,-25.8635],[-69.2569,-25.8632],[-69.2563,-25.8612],[-69.2482,-25.8606],[-69.244,-25.8563],[-69.2422,-25.8482],[-69.2375,-25.8477],[-69.2343,-25.8418],[-69.2297,-25.8391],[-69.2253,-25.8408],[-69.2215,-25.8388],[-69.216,-25.8412],[-69.2163,-25.834],[-69.2019,-25.8336],[-69.1714,-25.8164],[-69.1443,-25.8193],[-69.1238,-25.8087],[-69.1141,-25.8071],[-69.1111,-25.8023],[-69.0982,-25.8018],[-69.095,-25.7975],[-69.0938,-25.7929],[-69.0972,-25.7847],[-69.0791,-25.7539],[-69.0801,-25.7444],[-69.0706,-25.7403],[-69.0582,-25.7276],[-69.0604,-25.7247],[-69.0688,-25.7265],[-69.0815,-25.7227],[-69.0904,-25.7238],[-69.0947,-25.72],[-69.0902,-25.711],[-69.0707,-25.6898],[-69.0705,-25.6796],[-69.06,-25.6654],[-69.0558,-25.6464],[-69.0507,-25.6348],[-69.0668,-25.6061],[-69.0705,-25.5858],[-69.0793,-25.5863],[-69.0848,-25.5841],[-69.0814,-25.5795],[-69.068,-25.5792],[-69.0573,-25.5696],[-69.0544,-25.565],[-69.0521,-25.5437],[-69.0443,-25.5351],[-69.03,-25.5309],[-69.0227,-25.5088],[-69.0102,-25.5049],[-68.9973,-25.5078],[-68.9958,-25.5055],[-68.9942,-25.4947],[-68.9963,-25.4886],[-69.0021,-25.4831],[-69.0028,-25.4618],[-69.0169,-25.448],[-69.0234,-25.4448],[-69.034,-25.4466],[-69.0359,-25.4423],[-69.0217,-25.4267],[-68.9908,-25.4057],[-68.987,-25.3931],[-68.9874,-25.3768],[-68.9842,-25.3755],[-68.9709,-25.3779],[-68.9601,-25.3905],[-68.9507,-25.385],[-68.9453,-25.387],[-68.9384,-25.3835],[-68.925,-25.383],[-68.9193,-25.3779],[-68.9108,-25.3755],[-68.894,-25.3769],[-68.8802,-25.3751],[-68.8659,-25.3796],[-68.847,-25.3815],[-68.8365,-25.3774],[-68.8262,-25.3697],[-68.8218,-25.3702],[-68.8193,-25.3714],[-68.8185,-25.3793],[-68.8044,-25.3802],[-68.8007,-25.3847],[-68.7915,-25.3887],[-68.7898,-25.3955],[-68.7823,-25.4029],[-68.765,-25.3966],[-68.7488,-25.3811],[-68.7406,-25.3822],[-68.7249,-25.3903],[-68.699,-25.3655],[-68.6954,-25.3646],[-68.6822,-25.3693],[-68.6808,-25.3615],[-68.672,-25.3606],[-68.6748,-25.3519],[-68.6683,-25.345],[-68.6729,-25.333],[-68.6718,-25.3262],[-68.6615,-25.3069],[-68.6574,-25.3035],[-68.6491,-25.3039],[-68.6362,-25.3133],[-68.6006,-25.2933],[-68.5954,-25.3029],[-68.5892,-25.3007],[-68.5864,-25.2949],[-68.5875,-25.2901],[-68.5787,-25.2858],[-68.5649,-25.2937],[-68.5573,-25.3017],[-68.5455,-25.2989]],[[-70.2853,-19.2293],[-70.1309,-19.1547],[-70.099,-19.1194],[-70.0384,-19.0952],[-69.9841,-19.069],[-69.9793,-19.0642],[-69.9666,-19.0607],[-69.9483,-19.0493],[-69.9251,-19.0524],[-69.9042,-19.0453],[-69.8865,-19.0347],[-69.8242,-19.0472],[-69.7948,-19.0462],[-69.7888,-19.0403],[-69.7639,-19.0374],[-69.7491,-19.0319],[-69.7367,-19.0335],[-69.7148,-19.0261],[-69.6659,-19.0277],[-69.6447,-19.0211],[-69.6201,-19.0244],[-69.6009,-19.0219],[-69.5708,-19.0277],[-69.5394,-19.0291],[-69.5284,-19.0254],[-69.5094,-19.0262],[-69.487,-19.03],[-69.4841,-19.0332],[-69.4732,-19.0364],[-69.4658,-19.0321],[-69.4586,-19.033],[-69.4528,-19.0263],[-69.4255,-19.0247],[-69.4157,-19.0267],[-69.4024,-19.0345],[-69.3953,-19.0497],[-69.3958,-19.0618],[-69.3867,-19.0619],[-69.3542,-19.0848],[-69.3316,-19.0918],[-69.3149,-19.1031],[-69.3156,-19.1152],[-69.3122,-19.125],[-69.3179,-19.1365],[-69.3138,-19.1334],[-69.3024,-19.1322],[-69.2955,-19.1272],[-69.2915,-19.1146],[-69.2731,-19.109],[-69.2626,-19.1085],[-69.2334,-19.0939],[-69.2174,-19.0967],[-69.2095,-19.1018],[-69.2036,-19.1099],[-69.1914,-19.1045],[-69.1912,-19.0952],[-69.1695,-19.0975],[-69.1599,-19.1048],[-69.1495,-19.0997],[-69.1439,-19.0872],[-69.1378,-19.0847],[-69.1294,-19.0869],[-69.1288,-19.0821],[-69.1159,-19.0786],[-69.1041,-19.069],[-69.103,-19.0599],[-69.1064,-19.056],[-69.0905,-19.0465],[-69.0747,-19.0478],[-69.0722,-19.0272],[-69.0619,-19.0263],[-69.047,-19.0338],[-69.0465,-19.0263],[-69.033,-19.0136],[-69.0316,-19.0094],[-69.0251,-19.0061],[-69.0205,-19.008],[-69.0182,-19.0043],[-69.0143,-19.0032],[-69.0097,-18.9971],[-69.011,-18.9862],[-69.0164,-18.9843],[-69.0277,-18.9741],[-69.023,-18.9708],[-69.022,-18.9652],[-69.0189,-18.9628],[-69.022,-18.9593],[-69.0202,-18.9537],[-69.0116,-18.9489],[-69.0083,-18.9502],[-69.0065,-18.9544],[-68.9962,-18.9582],[-68.9846,-18.9536],[-68.9794,-18.9469],[-68.9734,-18.9474],[-68.9666,-18.9442],[-68.9639,-18.9478],[-68.9616,-18.9474],[-68.9502,-18.9367]],[[-71.4975,-29.1832],[-71.4502,-29.1847],[-71.4449,-29.1801],[-71.4147,-29.1842],[-71.3974,-29.1754],[-71.3891,-29.1761],[-71.3839,-29.1673],[-71.3844,-29.1607],[-71.3702,-29.1448],[-71.3649,-29.1487],[-71.3516,-29.1415],[-71.3261,-29.1556],[-71.3152,-29.158],[-71.3001,-29.1733],[-71.2842,-29.1818],[-71.2822,-29.1869],[-71.2651,-29.1776],[-71.2605,-29.1773],[-71.2582,-29.1796],[-71.2451,-29.177],[-71.2301,-29.1845],[-71.2001,-29.1856],[-71.1942,-29.2401],[-71.1834,-29.2839],[-71.1683,-29.2864],[-71.1646,-29.292],[-71.1554,-29.2979],[-71.1477,-29.2962],[-71.13,-29.3014],[-71.1226,-29.2978],[-71.1054,-29.2972],[-71.1011,-29.2983],[-71.0959,-29.3039],[-71.0858,-29.3063],[-71.0852,-29.3088],[-71.0899,-29.3154],[-71.0849,-29.3231],[-71.0833,-29.3393],[-71.0856,-29.3455],[-71.0934,-29.3495],[-71.0941,-29.3555],[-71.0598,-29.3566],[-71.0201,-29.3352],[-71.0171,-29.3268],[-71.0084,-29.3189],[-71.0105,-29.3078],[-71.0065,-29.3031],[-71.0051,-29.2964],[-71.0092,-29.2867],[-71.0055,-29.2822],[-70.9939,-29.2765],[-70.9938,-29.2727],[-70.9882,-29.2671],[-70.9874,-29.2598],[-70.9902,-29.2554],[-70.9882,-29.2406],[-70.9851,-29.2366],[-70.9849,-29.2291],[-70.9825,-29.2274],[-70.9711,-29.1937],[-70.9742,-29.1775],[-70.9659,-29.1692],[-70.9259,-29.1512],[-70.9071,-29.1305],[-70.8706,-29.1418],[-70.8674,-29.1447],[-70.844,-29.144],[-70.8207,-29.1383],[-70.8021,-29.139],[-70.7817,-29.1194],[-70.7712,-29.1185],[-70.759,-29.1101],[-70.7537,-29.1117],[-70.7476,-29.1047],[-70.7317,-29.1049],[-70.7264,-29.0944],[-70.727,-29.0892],[-70.7154,-29.0837],[-70.7211,-29.0725],[-70.7284,-29.0674],[-70.728,-29.0621],[-70.7237,-29.0572],[-70.7177,-29.0583],[-70.7169,-29.0563],[-70.6863,-29.0474],[-70.6655,-29.051],[-70.6619,-29.0497],[-70.6521,-29.057],[-70.647,-29.0544],[-70.6458,-29.0394],[-70.6289,-29.0437],[-70.6196,-29.04],[-70.6171,-29.0428],[-70.6136,-29.0424],[-70.611,-29.038],[-70.6069,-29.0379],[-70.6011,-29.0428],[-70.6013,-29.05],[-70.5751,-29.0536],[-70.57,-29.0535],[-70.5518,-29.0444],[-70.5423,-29.0492],[-70.5395,-29.0572],[-70.5344,-29.0616],[-70.5371,-29.0673],[-70.536,-29.074],[-70.5425,-29.0837],[-70.5422,-29.0978],[-70.536,-29.1079],[-70.5266,-29.1085],[-70.5323,-29.1285],[-70.5201,-29.1359],[-70.5157,-29.1342],[-70.4942,-29.1617],[-70.4944,-29.1659],[-70.4976,-29.1688],[-70.4907,-29.1761],[-70.4944,-29.1842],[-70.4933,-29.1977],[-70.4904,-29.2037],[-70.4943,-29.2101],[-70.4926,-29.2136],[-70.4941,-29.2176],[-70.4869,-29.2267],[-70.4804,-29.2254],[-70.478,-29.2308],[-70.4699,-29.2356],[-70.4679,-29.2396],[-70.4685,-29.2555],[-70.4632,-29.2647],[-70.4657,-29.266],[-70.4668,-29.2726],[-70.4718,-29.2732],[-70.4744,-29.2819],[-70.4805,-29.2869],[-70.4728,-29.2941],[-70.4664,-29.2961],[-70.462,-29.3022],[-70.4625,-29.3099],[-70.4552,-29.3103],[-70.4557,-29.3224],[-70.4459,-29.3227],[-70.4447,-29.3268],[-70.4458,-29.3328],[-70.4553,-29.3354],[-70.4628,-29.3482],[-70.4692,-29.3507],[-70.4717,-29.3572],[-70.4698,-29.3592],[-70.4743,-29.3604],[-70.466,-29.3633],[-70.4592,-29.3819],[-70.4248,-29.3934],[-70.4127,-29.3941],[-70.4098,-29.3988],[-70.4009,-29.3969],[-70.3938,-29.3988],[-70.3839,-29.3883],[-70.3805,-29.3789],[-70.3811,-29.3742],[-70.3747,-29.3743],[-70.3698,-29.3779],[-70.3654,-29.37],[-70.3048,-29.3736],[-70.2989,-29.3762],[-70.2837,-29.3961],[-70.2715,-29.4026],[-70.2615,-29.4148],[-70.2538,-29.4169],[-70.247,-29.4297],[-70.2378,-29.4317],[-70.239,-29.4353],[-70.2343,-29.4455],[-70.2294,-29.4455],[-70.2299,-29.4481],[-70.2249,-29.45],[-70.2239,-29.4636],[-70.2105,-29.4698],[-70.2098,-29.4777],[-70.2009,-29.4799],[-70.2011,-29.4948],[-70.1974,-29.4999],[-70.1928,-29.5187],[-70.1815,-29.5201],[-70.1723,-29.5257],[-70.1582,-29.5195],[-70.1432,-29.5291],[-70.1325,-29.5315],[-70.1223,-29.5263],[-70.1154,-29.5267],[-70.1049,-29.5229],[-70.0949,-29.5285],[-70.0897,-29.535],[-70.0859,-29.5352],[-70.0798,-29.5339],[-70.0747,-29.5278],[-70.0622,-29.5261],[-70.0533,-29.5221],[-70.0412,-29.5208],[-70.0337,-29.5238],[-70.0225,-29.5197],[-70.0182,-29.5127],[-70.0017,-29.5057],[-70.0003,-29.5003],[-69.9912,-29.4958],[-69.9757,-29.4989],[-69.9561,-29.4984],[-69.9516,-29.501]],[[-73.9763,-48.716],[-73.971,-48.7155],[-73.9592,-48.722],[-73.1428,-49.2117]],[[-71.737,-44.067],[-71.7547,-44.0628],[-71.7585,-44.057],[-71.7762,-44.0572],[-71.7816,-44.0596],[-71.7903,-44.0551],[-71.7922,-44.0524],[-71.7907,-44.05],[-71.7961,-44.0426],[-71.795,-44.0314],[-71.801,-44.0262],[-71.7988,-44.0241],[-71.8079,-44.0199],[-71.8104,-44.0164],[-71.8094,-44.0133],[-71.8217,-44.0109],[-71.8265,-44],[-71.8269,-43.9775],[-71.8249,-43.9736],[-71.8174,-43.9711],[-71.8141,-43.9627],[-71.8076,-43.9549],[-71.8278,-43.9506],[-71.8333,-43.9424],[-71.8494,-43.9385],[-71.8567,-43.9292],[-71.8814,-43.9297],[-71.8876,-43.9323],[-71.8916,-43.9385],[-71.8963,-43.9375],[-71.9102,-43.9407],[-71.918,-43.9395],[-71.9249,-43.9346],[-71.9588,-43.9258],[-71.9694,-43.9254],[-71.9733,-43.9287],[-71.9715,-43.935],[-71.9668,-43.939],[-71.9576,-43.9414],[-71.9557,-43.9463],[-71.9619,-43.9643],[-71.973,-43.9633],[-71.9789,-43.967],[-71.9826,-43.9663],[-71.9847,-43.961],[-71.9889,-43.9601],[-72.0147,-43.9654],[-72.019,-43.9605],[-72.0263,-43.9581],[-72.0255,-43.9523],[-72.0316,-43.9424],[-72.0439,-43.9363],[-72.0584,-43.9386],[-72.0632,-43.9498],[-72.0679,-43.9546],[-72.0776,-43.9557],[-72.1037,-43.941],[-72.108,-43.9339],[-72.1058,-43.9272],[-72.0987,-43.92],[-72.0764,-43.9049],[-72.0812,-43.8972],[-72.0951,-43.8909],[-72.1069,-43.8888],[-72.1139,-43.8796],[-72.1199,-43.8776],[-72.1246,-43.8791],[-72.1363,-43.8898],[-72.1546,-43.8808],[-72.1811,-43.8949],[-72.1873,-43.8833],[-72.1853,-43.873],[-72.1946,-43.8665],[-72.1952,-43.8599],[-72.2034,-43.8541],[-72.1938,-43.8454],[-72.1933,-43.8424],[-72.2256,-43.8367],[-72.248,-43.8417],[-72.2647,-43.842],[-72.2784,-43.8345],[-72.2822,-43.8312],[-72.2813,-43.8284],[-72.2404,-43.8074],[-72.2509,-43.7956],[-72.274,-43.79],[-72.2907,-43.7916],[-72.304,-43.7799],[-72.3041,-43.7754],[-72.3004,-43.7717],[-72.289,-43.7701],[-72.271,-43.7615],[-72.2765,-43.7555],[-72.2927,-43.7494],[-72.3032,-43.7356],[-72.3091,-43.7322],[-72.3091,-43.7263],[-72.2983,-43.7135],[-72.3064,-43.7158],[-72.3181,-43.7089],[-72.3227,-43.6927],[-72.3208,-43.6892],[-72.3222,-43.6841],[-72.3344,-43.674],[-72.3489,-43.6743],[-72.3603,-43.6831],[-72.3834,-43.6913],[-72.4033,-43.6901],[-72.4165,-43.7031],[-72.414,-43.7154],[-72.4205,-43.7228],[-72.4226,-43.7297],[-72.4346,-43.7255],[-72.4423,-43.7255],[-72.4522,-43.7355],[-72.4758,-43.7354],[-72.4811,-43.7439],[-72.475,-43.7526],[-72.483,-43.7568],[-72.4838,-43.7593],[-72.4839,-43.7691],[-72.48,-43.7735],[-72.4901,-43.7789],[-72.491,-43.7878],[-72.4945,-43.7891],[-72.4964,-43.7951],[-72.5014,-43.7968],[-72.5198,-43.7936],[-72.5234,-43.788],[-72.5317,-43.7837],[-72.5435,-43.7835],[-72.5576,-43.7765],[-72.5681,-43.7772],[-72.5848,-43.7667],[-72.5886,-43.761],[-72.6016,-43.7596],[-72.6122,-43.7551],[-72.6355,-43.7595],[-72.6538,-43.7596],[-72.6542,-43.7753],[-72.6619,-43.7774],[-72.6784,-43.773],[-72.6961,-43.764],[-72.7034,-43.7674],[-72.718,-43.7653],[-72.7398,-43.7709],[-72.7508,-43.7688],[-72.7636,-43.7701],[-72.7669,-43.7628],[-72.7747,-43.7566],[-72.7673,-43.7502],[-72.7756,-43.7494],[-72.8,-43.7404],[-72.801,-43.7342],[-72.7926,-43.7313],[-72.7934,-43.7256],[-72.7832,-43.7255],[-72.7835,-43.7144],[-72.7802,-43.7111],[-72.7801,-43.7062],[-72.7747,-43.7019],[-72.7764,-43.6965],[-72.7664,-43.6921],[-72.7682,-43.6879],[-72.7666,-43.6855],[-72.7909,-43.6738],[-72.7927,-43.6714],[-72.7897,-43.6667],[-72.7883,-43.656],[-72.7916,-43.6506],[-72.7905,-43.6453],[-72.794,-43.6418],[-72.8082,-43.6381],[-72.8237,-43.6447],[-72.8227,-43.6555],[-72.8257,-43.6575],[-72.8264,-43.666],[-72.8308,-43.6706],[-72.8321,-43.6794],[-72.8363,-43.6873],[-72.844,-43.6952],[-72.8402,-43.698],[-72.8394,-43.7029],[-72.846,-43.7098],[-72.8432,-43.7158],[-72.8438,-43.7223],[-72.8527,-43.7287],[-72.8548,-43.7403],[-72.8822,-43.7417],[-72.8939,-43.7382],[-72.9018,-43.7286],[-72.9068,-43.7276],[-72.9058,-43.7199],[-72.9091,-43.7118],[-72.9131,-43.7117],[-72.9197,-43.7069],[-72.9215,-43.7],[-72.9338,-43.6971],[-72.9567,-43.6982],[-72.9573,-43.709],[-72.9663,-43.7165],[-72.9914,-43.7138],[-73.0004,-43.7182],[-73.0116,-43.7179],[-73.0158,-43.7214],[-73.0256,-43.7197],[-73.0335,-43.7246],[-73.0356,-43.7284],[-73.0347,-43.7335],[-73.047,-43.738]],[[-71.5415,-32.1774],[-71.5217,-32.1813],[-71.513,-32.1783],[-71.5032,-32.1809],[-71.495,-32.1694],[-71.4927,-32.1592],[-71.4868,-32.1594],[-71.4777,-32.155],[-71.473,-32.162],[-71.4664,-32.1665],[-71.452,-32.1712],[-71.446,-32.1706],[-71.4414,-32.1745],[-71.4385,-32.1741],[-71.4343,-32.1815],[-71.4235,-32.1861],[-71.4138,-32.1865],[-71.4095,-32.1897],[-71.3894,-32.1895],[-71.3846,-32.1933],[-71.3751,-32.1958],[-71.3713,-32.2],[-71.3632,-32.2009],[-71.3558,-32.1976],[-71.3442,-32.1997],[-71.3386,-32.2031],[-71.3112,-32.1903],[-71.2906,-32.1918],[-71.286,-32.189],[-71.2869,-32.1818],[-71.2849,-32.1801],[-71.273,-32.1782],[-71.2667,-32.1706],[-71.2617,-32.1694],[-71.2557,-32.1722],[-71.25,-32.1625],[-71.2508,-32.1565],[-71.2468,-32.1501],[-71.2346,-32.1377],[-71.2266,-32.136],[-71.2218,-32.1273],[-71.2116,-32.1279],[-71.2028,-32.1335],[-71.2024,-32.1391],[-71.196,-32.1439],[-71.1914,-32.1513],[-71.1907,-32.1581],[-71.1817,-32.1711],[-71.1574,-32.1625],[-71.1433,-32.1513],[-71.1352,-32.1518],[-71.1318,-32.1448],[-71.132,-32.1393],[-71.1233,-32.1381],[-71.1216,-32.133],[-71.1126,-32.1291],[-71.0875,-32.1035],[-71.0674,-32.0947],[-71.0638,-32.089],[-71.0459,-32.0758],[-71.0312,-32.0738],[-71.0309,-32.0689],[-71.0414,-32.0581],[-71.0406,-32.053],[-71.0458,-32.0488],[-71.0412,-32.0325],[-71.0269,-32.0327],[-71.0216,-32.0357],[-71.0134,-32.0343],[-70.9876,-32.0455],[-70.9737,-32.0432],[-70.9653,-32.0472],[-70.9524,-32.048],[-70.9518,-32.0572],[-70.9422,-32.059],[-70.9398,-32.0628],[-70.9397,-32.0741],[-70.9305,-32.0795],[-70.9256,-32.0716],[-70.9145,-32.0633],[-70.9049,-32.0663],[-70.886,-32.0613],[-70.8789,-32.0639],[-70.8601,-32.053],[-70.837,-32.0508],[-70.83,-32.0432],[-70.8186,-32.0416],[-70.8027,-32.0344],[-70.795,-32.037],[-70.7924,-32.0438],[-70.7776,-32.0391],[-70.7722,-32.0403],[-70.7512,-32.0286],[-70.745,-32.0274],[-70.7395,-32.0208],[-70.7276,-32.0279],[-70.7015,-32.0328],[-70.6917,-32.0514],[-70.6912,-32.0632],[-70.6846,-32.0601],[-70.6744,-32.0626],[-70.6665,-32.061],[-70.657,-32.0549],[-70.6553,-32.063],[-70.6522,-32.0639],[-70.6446,-32.0779],[-70.6522,-32.0828],[-70.6574,-32.0991],[-70.6522,-32.1051],[-70.6539,-32.1124],[-70.6524,-32.1157],[-70.6549,-32.1202],[-70.6539,-32.1337],[-70.6448,-32.1391],[-70.6246,-32.1467],[-70.6138,-32.1461],[-70.607,-32.1556],[-70.5939,-32.1639],[-70.5646,-32.1654],[-70.5454,-32.1752],[-70.5343,-32.1708],[-70.531,-32.1656],[-70.5312,-32.1624],[-70.5363,-32.1585],[-70.5377,-32.1514],[-70.5324,-32.1482],[-70.5157,-32.1548],[-70.5047,-32.1561],[-70.5005,-32.162],[-70.503,-32.1715],[-70.4906,-32.1727],[-70.482,-32.1697],[-70.4732,-32.1759],[-70.4654,-32.1719],[-70.456,-32.1725],[-70.4532,-32.18],[-70.4458,-32.1881],[-70.4478,-32.1943],[-70.4525,-32.1971],[-70.452,-32.2028],[-70.4572,-32.213],[-70.454,-32.2234],[-70.4488,-32.2238],[-70.4443,-32.2208],[-70.4392,-32.2256],[-70.433,-32.227],[-70.4327,-32.2393],[-70.4359,-32.2434],[-70.4379,-32.2703],[-70.4289,-32.2722],[-70.4153,-32.2822],[-70.3991,-32.2731],[-70.3788,-32.2678],[-70.3609,-32.2538],[-70.3498,-32.2572],[-70.3442,-32.2634],[-70.3423,-32.2709],[-70.3304,-32.2761],[-70.3229,-32.2741],[-70.3206,-32.2692]],[[-71.0435,-38.1226],[-71.0725,-38.1027],[-71.0853,-38.0896],[-71.0959,-38.095],[-71.1094,-38.0916],[-71.1137,-38.0939],[-71.1165,-38.1021],[-71.1202,-38.1056],[-71.135,-38.1022],[-71.1451,-38.1094],[-71.1529,-38.1107],[-71.1632,-38.1114],[-71.1709,-38.1091],[-71.1802,-38.1005],[-71.1858,-38.1012],[-71.1922,-38.1058],[-71.1972,-38.1019],[-71.2044,-38.1033],[-71.2088,-38.1005],[-71.2264,-38.103],[-71.2271,-38.1006],[-71.2381,-38.098],[-71.2588,-38.0971],[-71.2652,-38.0982],[-71.2688,-38.1057],[-71.2745,-38.1053],[-71.2829,-38.1104],[-71.2957,-38.1084],[-71.2977,-38.0962],[-71.3025,-38.0904],[-71.3411,-38.0915],[-71.3465,-38.0862],[-71.3541,-38.0842],[-71.3677,-38.0896],[-71.3774,-38.0853],[-71.3926,-38.0979],[-71.4085,-38.107],[-71.4131,-38.1073],[-71.4105,-38.114],[-71.4135,-38.122],[-71.4102,-38.1236],[-71.4131,-38.1261],[-71.411,-38.1273],[-71.411,-38.1344],[-71.4191,-38.1431],[-71.4256,-38.1587],[-71.4289,-38.1596],[-71.4285,-38.1638],[-71.4319,-38.1662],[-71.436,-38.177],[-71.449,-38.1765],[-71.4604,-38.1845],[-71.4673,-38.1837],[-71.4785,-38.1913],[-71.4885,-38.1918],[-71.4954,-38.1968],[-71.4986,-38.2024],[-71.5108,-38.2098],[-71.5318,-38.204],[-71.5361,-38.2129],[-71.5341,-38.2146],[-71.5339,-38.2226],[-71.5305,-38.2264],[-71.5339,-38.2317],[-71.5502,-38.2413],[-71.5537,-38.2461],[-71.5728,-38.239],[-71.5805,-38.2309],[-71.6086,-38.2409],[-71.6115,-38.2439],[-71.6084,-38.2484],[-71.6096,-38.251],[-71.6189,-38.2599],[-71.6263,-38.2606],[-71.6253,-38.2671],[-71.6332,-38.275],[-71.6343,-38.2961],[-71.643,-38.3136],[-71.6494,-38.3144],[-71.6523,-38.3091],[-71.6569,-38.3083],[-71.6634,-38.2997],[-71.6734,-38.2995],[-71.6902,-38.2867],[-71.7094,-38.266],[-71.7107,-38.26],[-71.7064,-38.255],[-71.6996,-38.2582],[-71.6921,-38.2549],[-71.688,-38.25],[-71.6889,-38.2407],[-71.6977,-38.2301],[-71.7119,-38.2208],[-71.7156,-38.2101],[-71.7069,-38.2017],[-71.71,-38.1957],[-71.7067,-38.1886],[-71.7078,-38.1859],[-71.6947,-38.1784],[-71.694,-38.1692],[-71.7055,-38.1585],[-71.714,-38.1557],[-71.7214,-38.1462],[-71.709,-38.1346],[-71.7088,-38.126],[-71.7059,-38.124],[-71.7053,-38.1023],[-71.7025,-38.0993],[-71.7021,-38.0929],[-71.6997,-38.093],[-71.7012,-38.0895],[-71.699,-38.089],[-71.698,-38.0843],[-71.7007,-38.0695],[-71.7121,-38.0641],[-71.7231,-38.0526],[-71.7325,-38.0472],[-71.7342,-38.0432],[-71.7531,-38.0357],[-71.7622,-38.0346],[-71.7697,-38.0302],[-71.7766,-38.0303],[-71.7855,-38.0339],[-71.7875,-38.0376],[-71.8015,-38.0387],[-71.8031,-38.0417],[-71.808,-38.043],[-71.8152,-38.0419],[-71.8313,-38.0519],[-71.8478,-38.0545],[-71.8542,-38.0613],[-71.8633,-38.0653],[-71.8722,-38.0762],[-71.8791,-38.0783],[-71.8848,-38.0742],[-71.8877,-38.0757],[-71.8952,-38.0735],[-71.9007,-38.0679],[-71.8993,-38.0643],[-71.9041,-38.0617],[-71.9042,-38.0592],[-71.9173,-38.0538],[-71.919,-38.0495],[-71.9311,-38.0454],[-71.934,-38.0393],[-71.9295,-38.0337],[-71.9303,-38.0298],[-71.9353,-38.0286],[-71.9437,-38.0202],[-71.9471,-38.02],[-71.9566,-38.0023],[-71.966,-38.0005],[-71.9663,-37.9939],[-71.9822,-37.9923],[-71.9839,-37.9968],[-71.9963,-37.9968],[-71.9966,-37.9992],[-72.0081,-38.007],[-72.0157,-38.0079],[-72.0208,-38.0035],[-72.0238,-38.0102],[-72.0315,-38.0085],[-72.0381,-38.0126],[-72.0427,-38.0112],[-72.0492,-38.0142],[-72.0671,-38.0082],[-72.0686,-38.0034],[-72.0813,-38.0023],[-72.089,-37.9975],[-72.102,-37.9987],[-72.1045,-37.9921],[-72.113,-37.9927],[-72.1114,-37.9845],[-72.1129,-37.9816],[-72.1226,-37.981],[-72.1204,-37.9774],[-72.1287,-37.9695],[-72.1273,-37.9637],[-72.1352,-37.9621],[-72.1292,-37.9576],[-72.1291,-37.9531],[-72.143,-37.9533],[-72.1436,-37.9467],[-72.1461,-37.944],[-72.1515,-37.9412],[-72.1581,-37.9432],[-72.1622,-37.9417],[-72.1733,-37.9347],[-72.1778,-37.9274],[-72.1893,-37.9265],[-72.1931,-37.9216],[-72.196,-37.9217],[-72.1985,-37.9141],[-72.2017,-37.9131],[-72.2025,-37.9093],[-72.2068,-37.9076],[-72.2076,-37.9047],[-72.2252,-37.8976],[-72.2266,-37.8932],[-72.2376,-37.889],[-72.2452,-37.8785],[-72.2518,-37.8769],[-72.2564,-37.8835],[-72.2699,-37.8799],[-72.2761,-37.8827],[-72.278,-37.8797],[-72.2853,-37.8789],[-72.2877,-37.8754],[-72.3063,-37.8755],[-72.3177,-37.8816],[-72.326,-37.8723],[-72.3423,-37.8602],[-72.3509,-37.8585],[-72.3554,-37.8519],[-72.3868,-37.8502],[-72.3925,-37.8432],[-72.4011,-37.8419],[-72.4046,-37.8334],[-72.4032,-37.8288],[-72.4153,-37.8228],[-72.4128,-37.8204],[-72.4171,-37.8117],[-72.4241,-37.8072],[-72.4266,-37.8014],[-72.4259,-37.7965],[-72.4393,-37.7887],[-72.4415,-37.7848],[-72.4466,-37.7834],[-72.4493,-37.7731],[-72.4593,-37.7687],[-72.4711,-37.7512],[-72.4795,-37.748],[-72.4785,-37.7405],[-72.4848,-37.7216],[-72.4743,-37.7147],[-72.4724,-37.7088],[-72.4749,-37.7052],[-72.4791,-37.7051],[-72.4746,-37.6975],[-72.4836,-37.6924],[-72.483,-37.6852],[-72.4797,-37.6801],[-72.4858,-37.6767],[-72.484,-37.6746],[-72.4882,-37.6656],[-72.4854,-37.6646],[-72.486,-37.6603],[-72.4923,-37.6545],[-72.4937,-37.6457],[-72.4987,-37.6465],[-72.5061,-37.6434],[-72.5144,-37.6504],[-72.5256,-37.6475],[-72.5267,-37.6493],[-72.5235,-37.6518],[-72.5247,-37.6546],[-72.5329,-37.6543],[-72.5367,-37.6594],[-72.5375,-37.6656],[-72.5407,-37.6651],[-72.5424,-37.6612],[-72.557,-37.6582],[-72.5585,-37.661],[-72.563,-37.6599],[-72.566,-37.6666],[-72.5683,-37.6661],[-72.5679,-37.663],[-72.5755,-37.6649],[-72.5791,-37.6618],[-72.5829,-37.664],[-72.5838,-37.6676],[-72.5959,-37.6719],[-72.6007,-37.6677],[-72.5943,-37.6658],[-72.6049,-37.6602],[-72.632,-37.6689],[-72.6397,-37.6629],[-72.6509,-37.6647],[-72.6455,-37.6574],[-72.648,-37.6532],[-72.6466,-37.6475],[-72.6403,-37.6415],[-72.6532,-37.6302],[-72.6508,-37.6247],[-72.6534,-37.6207],[-72.6551,-37.6254],[-72.6651,-37.6295],[-72.666,-37.626],[-72.6689,-37.6265],[-72.6708,-37.6236],[-72.6811,-37.6236],[-72.6857,-37.6178],[-72.7138,-37.6261],[-72.7228,-37.6234],[-72.7272,-37.6261],[-72.7295,-37.6225],[-72.7287,-37.6182],[-72.7319,-37.6162],[-72.7414,-37.6182],[-72.7486,-37.6125],[-72.7537,-37.6138],[-72.7575,-37.6117],[-72.766,-37.5958],[-72.7759,-37.5961],[-72.7737,-37.5943],[-72.7716,-37.5831],[-72.7761,-37.5817],[-72.7843,-37.5912],[-72.7914,-37.5903],[-72.8024,-37.596],[-72.8081,-37.5961],[-72.812,-37.5935],[-72.8403,-37.5964],[-72.8527,-37.5902],[-72.8607,-37.5934],[-72.8637,-37.5996],[-72.8687,-37.5996],[-72.8671,-37.6037],[-72.8714,-37.6059],[-72.8739,-37.6044],[-72.9106,-37.6068],[-72.9156,-37.6135],[-72.9248,-37.6163],[-72.9274,-37.6197],[-72.9324,-37.6147],[-72.9392,-37.6163],[-72.9462,-37.6134],[-72.9537,-37.6157],[-72.969,-37.6153],[-72.9814,-37.619],[-72.9962,-37.618],[-73.007,-37.6204],[-73.004,-37.6252],[-73.0121,-37.6304],[-73.0222,-37.6297],[-73.0237,-37.6262],[-73.0288,-37.6253],[-73.0292,-37.6218],[-73.0359,-37.6191],[-73.0405,-37.6203],[-73.0419,-37.6176],[-73.0531,-37.6217],[-73.057,-37.6262],[-73.0666,-37.6245],[-73.0708,-37.6209],[-73.0741,-37.6293],[-73.0683,-37.6353],[-73.0641,-37.6349],[-73.0586,-37.6402],[-73.0648,-37.6486],[-73.0698,-37.6502],[-73.0682,-37.6599],[-73.0783,-37.6623],[-73.0802,-37.6763],[-73.1045,-37.6772],[-73.1036,-37.6828],[-73.106,-37.6875],[-73.1244,-37.689],[-73.1158,-37.6965],[-73.1142,-37.7115],[-73.1097,-37.7191],[-73.1106,-37.7212],[-73.103,-37.7263],[-73.0928,-37.7221],[-73.0817,-37.721],[-73.0713,-37.7095],[-73.0446,-37.7089],[-73.0398,-37.7104],[-73.035,-37.7175],[-73.0242,-37.7204],[-73.0245,-37.7281],[-73.019,-37.7358],[-73.0156,-37.7473],[-73.0163,-37.7529],[-73.0233,-37.7574],[-73.0243,-37.7644],[-73.0397,-37.7732],[-73.0416,-37.7812],[-73.0334,-37.7863],[-73.0325,-37.7913],[-73.0237,-37.8032],[-73.0239,-37.8068],[-73.03,-37.8106],[-73.0314,-37.8182],[-73.0384,-37.8307],[-73.0477,-37.8373],[-73.0449,-37.8397],[-73.0469,-37.8445],[-73.0708,-37.8542],[-73.0815,-37.8669],[-73.0937,-37.8713],[-73.1111,-37.8698],[-73.1173,-37.8714],[-73.1183,-37.8748],[-73.1252,-37.8775],[-73.1234,-37.8848],[-73.1303,-37.8958],[-73.1228,-37.9024],[-73.1105,-37.9079],[-73.1133,-37.91],[-73.1133,-37.9215],[-73.1103,-37.9288],[-73.114,-37.932],[-73.1131,-37.9395],[-73.1203,-37.9426],[-73.1223,-37.9468],[-73.1192,-37.9537],[-73.12,-37.9594],[-73.1286,-37.97],[-73.1286,-37.9729],[-73.1401,-37.9747],[-73.1402,-37.9783],[-73.1569,-37.9789],[-73.1624,-37.9843],[-73.1775,-37.9852],[-73.1863,-37.9882],[-73.1812,-38.0038],[-73.1937,-38.0133],[-73.1956,-38.0222],[-73.2029,-38.03],[-73.2063,-38.0407],[-73.202,-38.0466],[-73.2063,-38.0531],[-73.1925,-38.0561],[-73.1828,-38.0635],[-73.1762,-38.0624],[-73.1743,-38.0581],[-73.169,-38.0568],[-73.1616,-38.0644],[-73.1595,-38.073],[-73.1556,-38.0755],[-73.1455,-38.0777],[-73.124,-38.0767],[-73.1202,-38.0831],[-73.1146,-38.0833],[-73.0996,-38.095],[-73.0807,-38.0957],[-73.0778,-38.1003],[-73.0732,-38.1282],[-73.078,-38.1383],[-73.0883,-38.1422],[-73.0893,-38.1469],[-73.0888,-38.1513],[-73.0847,-38.1543],[-73.0775,-38.1685],[-73.0777,-38.1769],[-73.0848,-38.18],[-73.093,-38.1921],[-73.1049,-38.1911],[-73.1123,-38.1861],[-73.1215,-38.1886],[-73.1239,-38.1836],[-73.132,-38.184],[-73.1345,-38.1961],[-73.1334,-38.2054],[-73.1384,-38.2157],[-73.1535,-38.2197],[-73.1615,-38.2169],[-73.1615,-38.2204],[-73.174,-38.2272],[-73.2015,-38.2313],[-73.199,-38.2418],[-73.2058,-38.2502],[-73.2223,-38.2577],[-73.2223,-38.2719],[-73.2298,-38.2754],[-73.2425,-38.2758],[-73.246,-38.2792],[-73.2655,-38.2853],[-73.2738,-38.2956],[-73.2799,-38.2981],[-73.2829,-38.3054],[-73.3068,-38.3217],[-73.3288,-38.3432],[-73.3408,-38.3668],[-73.3374,-38.3693],[-73.33,-38.3687],[-73.3193,-38.3735],[-73.3079,-38.3747],[-73.3091,-38.3808],[-73.301,-38.3843],[-73.3037,-38.3948],[-73.3101,-38.4052],[-73.3089,-38.4121],[-73.3001,-38.4169],[-73.2997,-38.4229],[-73.2867,-38.4249],[-73.2797,-38.4339],[-73.2722,-38.4354],[-73.2727,-38.4398],[-73.2884,-38.4509],[-73.2835,-38.4645],[-73.2746,-38.4685],[-73.2767,-38.4748],[-73.2735,-38.4816],[-73.2746,-38.4901],[-73.2803,-38.4889],[-73.3068,-38.4923],[-73.3214,-38.4824],[-73.3229,-38.467],[-73.3167,-38.4627],[-73.314,-38.4574],[-73.3204,-38.4376],[-73.3353,-38.4281],[-73.3486,-38.4116],[-73.3545,-38.4102],[-73.3609,-38.4046],[-73.3786,-38.4037],[-73.3826,-38.3987],[-73.3859,-38.3996],[-73.3834,-38.4013],[-73.3887,-38.4029],[-73.3869,-38.4061],[-73.3895,-38.41],[-73.4041,-38.4157],[-73.4093,-38.4203],[-73.4172,-38.421],[-73.4214,-38.4304],[-73.4308,-38.4313],[-73.4331,-38.4346],[-73.433,-38.4439],[-73.438,-38.4495],[-73.4695,-38.4561],[-73.4735,-38.4606],[-73.4715,-38.4656],[-73.4742,-38.4671],[-73.4738,-38.4731],[-73.4943,-38.4721],[-73.4971,-38.4805],[-73.5035,-38.4843],[-73.5173,-38.4812]],[[-73.2427,-39.3903],[-73.2262,-39.3932],[-73.2224,-39.3985],[-73.2137,-39.4025],[-73.2018,-39.4131],[-73.1943,-39.411],[-73.1859,-39.4131],[-73.1794,-39.4108],[-73.1712,-39.4179],[-73.16,-39.4159],[-73.1453,-39.4098],[-73.1329,-39.3933],[-73.0996,-39.3947],[-73.0864,-39.3887],[-73.0859,-39.3844],[-73.0827,-39.3833],[-73.0803,-39.3768],[-73.0766,-39.3739],[-73.0715,-39.3608],[-73.0628,-39.3579],[-73.0464,-39.3374],[-73.0337,-39.3371],[-73.0331,-39.33],[-73.0277,-39.3242],[-73.0312,-39.3117],[-73.0279,-39.3095],[-73.0283,-39.3056],[-73.0235,-39.298],[-73.0117,-39.297],[-73.0099,-39.2928],[-73.0057,-39.2917],[-72.9905,-39.2998],[-72.9838,-39.2986],[-72.9779,-39.3005],[-72.9565,-39.3163],[-72.9461,-39.3173],[-72.9197,-39.3022],[-72.908,-39.2894],[-72.8582,-39.2882],[-72.8454,-39.295],[-72.8431,-39.3069],[-72.8335,-39.3108],[-72.8336,-39.3158],[-72.8364,-39.3225],[-72.8465,-39.3324],[-72.8582,-39.3349],[-72.8614,-39.3465],[-72.8571,-39.3566],[-72.8698,-39.3637],[-72.8748,-39.3716],[-72.887,-39.374],[-72.9002,-39.3812],[-72.9018,-39.3883],[-72.8972,-39.3917],[-72.8982,-39.3961],[-72.8962,-39.4],[-72.9006,-39.4089],[-72.8964,-39.4328],[-72.8897,-39.4255],[-72.8853,-39.4243],[-72.8835,-39.4122],[-72.8776,-39.4149],[-72.8691,-39.4146],[-72.8712,-39.4101],[-72.8693,-39.3987],[-72.8575,-39.3973],[-72.8468,-39.4077],[-72.8452,-39.4123],[-72.8393,-39.4137],[-72.8203,-39.4073],[-72.8174,-39.41],[-72.8034,-39.4099],[-72.7932,-39.405],[-72.7901,-39.4113],[-72.7907,-39.4164],[-72.7825,-39.4222],[-72.7839,-39.4259],[-72.7882,-39.4243],[-72.7895,-39.4324],[-72.776,-39.4312],[-72.7728,-39.4277],[-72.7713,-39.4326],[-72.7647,-39.4318],[-72.7552,-39.4387],[-72.7513,-39.4353],[-72.7403,-39.4417],[-72.7354,-39.4374],[-72.7404,-39.4356],[-72.7221,-39.426],[-72.7134,-39.426],[-72.7099,-39.4286],[-72.6887,-39.4329],[-72.6785,-39.4402],[-72.6745,-39.4519],[-72.6691,-39.4525],[-72.658,-39.4603],[-72.6427,-39.4574],[-72.6206,-39.4447],[-72.6046,-39.4495],[-72.5919,-39.4501],[-72.5582,-39.4431],[-72.5324,-39.4337],[-72.5221,-39.4633],[-72.5221,-39.472],[-72.5171,-39.477],[-72.5057,-39.4717],[-72.496,-39.4754],[-72.4806,-39.476],[-72.4741,-39.4795],[-72.4644,-39.4767],[-72.4571,-39.4798],[-72.4479,-39.4794],[-72.4399,-39.4749],[-72.4258,-39.4815],[-72.4174,-39.4802],[-72.4113,-39.4866],[-72.4026,-39.489],[-72.3796,-39.5046],[-72.3564,-39.5059],[-72.3432,-39.5093],[-72.3235,-39.509],[-72.3094,-39.4994],[-72.3004,-39.4987],[-72.2837,-39.4894],[-72.2791,-39.4902],[-72.2758,-39.4819],[-72.2715,-39.48],[-72.2643,-39.4709],[-72.2535,-39.4726],[-72.2516,-39.4684],[-72.2408,-39.4659],[-72.2278,-39.4693],[-72.2198,-39.4671],[-72.2164,-39.4692],[-72.2367,-39.4712],[-72.243,-39.4859],[-72.2583,-39.4915],[-72.254,-39.4975],[-72.2551,-39.5004],[-72.2644,-39.5042],[-72.2703,-39.5112],[-72.259,-39.519],[-72.2313,-39.5236],[-72.2152,-39.5311],[-72.2075,-39.5306],[-72.1941,-39.5238],[-72.1804,-39.5202],[-72.1469,-39.5209],[-72.127,-39.5102],[-72.1178,-39.5108],[-72.1113,-39.505],[-72.0893,-39.4966],[-72.0885,-39.4933],[-72.0847,-39.4921],[-72.0716,-39.4791],[-72.065,-39.478],[-72.0638,-39.4753],[-72.0611,-39.4756],[-72.0478,-39.4664],[-72.0374,-39.4648],[-72.0253,-39.4587],[-72.0102,-39.4466],[-71.9727,-39.4448],[-71.9583,-39.4374],[-71.9395,-39.4202],[-71.9225,-39.4211],[-71.9043,-39.4279],[-71.8879,-39.4294],[-71.8767,-39.4351],[-71.8614,-39.4352],[-71.8584,-39.4376],[-71.8588,-39.4433],[-71.8505,-39.4595],[-71.8422,-39.4698],[-71.8173,-39.4776],[-71.8167,-39.4828],[-71.811,-39.4896],[-71.7943,-39.4901],[-71.783,-39.4994],[-71.767,-39.5031],[-71.762,-39.5081],[-71.758,-39.508],[-71.7513,-39.5021],[-71.738,-39.5003],[-71.7188,-39.4936],[-71.7127,-39.4996],[-71.7043,-39.5019],[-71.7019,-39.5055],[-71.7081,-39.5215],[-71.7079,-39.5354],[-71.7036,-39.5401],[-71.7028,-39.5462],[-71.6956,-39.5512],[-71.6975,-39.5575],[-71.6961,-39.5631],[-71.679,-39.5656]],[[-71.8764,-40.568],[-71.8811,-40.5673],[-71.88,-40.5789],[-71.8908,-40.5866],[-71.9064,-40.5887],[-71.9109,-40.5869],[-71.9292,-40.591],[-71.933,-40.5962],[-71.9325,-40.6035],[-71.9355,-40.6081],[-71.9395,-40.6094],[-71.9501,-40.6214],[-71.9613,-40.6222],[-71.9638,-40.6251],[-71.9625,-40.6283],[-71.9703,-40.6349],[-71.9856,-40.6366],[-71.9902,-40.6339],[-72.0018,-40.6385],[-72.0062,-40.6356],[-72.0101,-40.6372],[-72.0205,-40.6317],[-72.0218,-40.6263],[-72.039,-40.6336],[-72.0521,-40.6301],[-72.0618,-40.6448],[-72.0617,-40.651],[-72.067,-40.6562],[-72.076,-40.6574],[-72.0798,-40.6607],[-72.0871,-40.6576],[-72.1,-40.6636],[-72.1012,-40.6602],[-72.1095,-40.6575],[-72.1229,-40.6582],[-72.1258,-40.6612],[-72.1374,-40.6574],[-72.1429,-40.6624],[-72.1551,-40.6614],[-72.1628,-40.6578],[-72.1718,-40.6631],[-72.1773,-40.6628],[-72.199,-40.6717],[-72.219,-40.6619],[-72.2308,-40.6619],[-72.2396,-40.6674],[-72.2487,-40.6666],[-72.2593,-40.6546],[-72.2695,-40.652],[-72.2702,-40.6498],[-72.2785,-40.6544],[-72.2855,-40.6514],[-72.2865,-40.6463],[-72.298,-40.6488],[-72.3004,-40.6562],[-72.3047,-40.6571],[-72.3067,-40.6605],[-72.3131,-40.6596],[-72.3152,-40.664],[-72.3089,-40.667],[-72.3176,-40.6731],[-72.3349,-40.6758],[-72.3447,-40.6752],[-72.3542,-40.6603],[-72.3569,-40.6597],[-72.4375,-40.6542],[-72.4921,-40.6617],[-72.5444,-40.6635],[-72.6069,-40.6812],[-72.6149,-40.6721],[-72.6253,-40.6701],[-72.6289,-40.6602],[-72.6448,-40.6564],[-72.6486,-40.6435],[-72.654,-40.642],[-72.6498,-40.6365],[-72.6543,-40.6342],[-72.6539,-40.6272],[-72.6572,-40.6246],[-72.6768,-40.6209],[-72.6829,-40.6247],[-72.6929,-40.626],[-72.7088,-40.615],[-72.7139,-40.6157],[-72.7219,-40.6105],[-72.7332,-40.6141],[-72.7343,-40.6107],[-72.7315,-40.6104],[-72.7316,-40.607],[-72.7346,-40.6053],[-72.748,-40.6033],[-72.7574,-40.6045],[-72.7721,-40.6013],[-72.7764,-40.5954],[-72.7806,-40.5968],[-72.7812,-40.5907],[-72.7862,-40.5878],[-72.79,-40.589],[-72.7953,-40.5852],[-72.7943,-40.5751],[-72.7967,-40.5657],[-72.8084,-40.5629],[-72.8197,-40.5562],[-72.8199,-40.5538],[-72.8133,-40.5495],[-72.8145,-40.5456],[-72.8197,-40.548],[-72.8187,-40.5505],[-72.8317,-40.5495],[-72.8325,-40.5467],[-72.8416,-40.5437],[-72.8507,-40.5358],[-72.8539,-40.5349],[-72.8577,-40.5372],[-72.8642,-40.5294],[-72.8562,-40.5317],[-72.8563,-40.527],[-72.8645,-40.525],[-72.8646,-40.5219],[-72.8793,-40.5184],[-72.8774,-40.5129],[-72.8842,-40.5136],[-72.8892,-40.5074],[-72.8922,-40.5069],[-72.8885,-40.4981],[-72.8929,-40.4921],[-72.8907,-40.4897],[-72.9063,-40.4744],[-72.902,-40.4633],[-72.9051,-40.4594],[-72.9059,-40.4524],[-72.9027,-40.4459],[-72.9072,-40.4407],[-72.9225,-40.4412],[-72.9239,-40.4345],[-72.9307,-40.4332],[-72.9404,-40.4269],[-72.943,-40.4142],[-72.9618,-40.4063],[-72.9638,-40.4004],[-72.9796,-40.3859],[-73.0306,-40.3842],[-73.047,-40.3722],[-73.0595,-40.3717],[-73.0626,-40.3673],[-73.0701,-40.3633],[-73.075,-40.3527],[-73.0801,-40.3489],[-73.0778,-40.3453],[-73.1019,-40.3511],[-73.1256,-40.3489],[-73.138,-40.3502],[-73.1446,-40.3557],[-73.1461,-40.3607],[-73.1488,-40.361],[-73.1627,-40.3588],[-73.1778,-40.3478],[-73.1932,-40.3499],[-73.2038,-40.3555],[-73.2198,-40.3512],[-73.2328,-40.3541],[-73.2523,-40.3516],[-73.2721,-40.3524],[-73.2818,-40.3491],[-73.2924,-40.3368],[-73.308,-40.3345],[-73.3282,-40.3362],[-73.3428,-40.3346],[-73.3641,-40.3427],[-73.3873,-40.3326],[-73.4059,-40.3379],[-73.4113,-40.3325],[-73.414,-40.3209],[-73.4262,-40.309],[-73.4324,-40.3051],[-73.4396,-40.3066],[-73.4474,-40.3042],[-73.4487,-40.3013],[-73.446,-40.2917],[-73.4519,-40.2854],[-73.4548,-40.2773],[-73.4535,-40.2716],[-73.456,-40.2696],[-73.4665,-40.2788],[-73.4881,-40.2768],[-73.5113,-40.2885],[-73.5521,-40.2912],[-73.5695,-40.2833],[-73.5775,-40.2832],[-73.5926,-40.3008],[-73.5972,-40.3017],[-73.6226,-40.2908],[-73.6538,-40.286],[-73.6718,-40.2769],[-73.6819,-40.2638],[-73.6825,-40.2507],[-73.6785,-40.2439],[-73.6847,-40.2383],[-73.6982,-40.2371],[-73.7147,-40.2453]],[[-71.0353,-36.4742],[-71.0388,-36.4698],[-71.0607,-36.4634],[-71.06,-36.4562],[-71.066,-36.4524],[-71.0681,-36.4479],[-71.0625,-36.4408],[-71.0639,-36.4379],[-71.0603,-36.4339],[-71.0613,-36.4275],[-71.0581,-36.4221],[-71.0614,-36.4193],[-71.065,-36.4092],[-71.0623,-36.4067],[-71.0642,-36.3965],[-71.0595,-36.3869],[-71.0665,-36.3796],[-71.0735,-36.3785],[-71.0823,-36.3682],[-71.0987,-36.3699],[-71.1149,-36.3619],[-71.1403,-36.3777],[-71.1447,-36.3839],[-71.1443,-36.389],[-71.1557,-36.4056],[-71.1638,-36.4005],[-71.17,-36.4043],[-71.1804,-36.4036],[-71.1843,-36.4092],[-71.1924,-36.4129],[-71.197,-36.4186],[-71.1971,-36.4384],[-71.2084,-36.4484],[-71.2208,-36.4511],[-71.2249,-36.4627],[-71.2333,-36.4659],[-71.247,-36.4597],[-71.2627,-36.44],[-71.2701,-36.441],[-71.2737,-36.4452],[-71.2815,-36.4484],[-71.286,-36.4591],[-71.2938,-36.4639],[-71.2954,-36.4785],[-71.3069,-36.4836],[-71.3095,-36.4952],[-71.3078,-36.4963],[-71.3096,-36.4988],[-71.3085,-36.5026],[-71.3118,-36.5054],[-71.3154,-36.5149],[-71.3153,-36.5215],[-71.3193,-36.5238],[-71.3203,-36.532],[-71.3302,-36.5421],[-71.3384,-36.5433],[-71.3448,-36.5355],[-71.3464,-36.5194],[-71.3528,-36.5125],[-71.3943,-36.5101],[-71.4098,-36.5032],[-71.4112,-36.4982],[-71.417,-36.4927],[-71.4199,-36.4804],[-71.4307,-36.467],[-71.4327,-36.4542],[-71.438,-36.4523],[-71.4384,-36.433],[-71.4417,-36.4302],[-71.4481,-36.4302],[-71.4499,-36.4243],[-71.4672,-36.4121],[-71.5025,-36.4155],[-71.5161,-36.4048],[-71.5223,-36.4092],[-71.5343,-36.4063],[-71.5448,-36.4073],[-71.5487,-36.4029],[-71.5538,-36.4043],[-71.5638,-36.4023],[-71.5712,-36.4043],[-71.583,-36.3925],[-71.5898,-36.3928],[-71.5975,-36.3898],[-71.601,-36.3857],[-71.6082,-36.3842],[-71.6098,-36.381],[-71.6192,-36.3765],[-71.6232,-36.3772],[-71.628,-36.372],[-71.6394,-36.3742],[-71.6542,-36.3704],[-71.6579,-36.3663],[-71.6641,-36.3655],[-71.6684,-36.3622],[-71.6728,-36.3628],[-71.6763,-36.3599],[-71.6878,-36.3587],[-71.6913,-36.3545],[-71.701,-36.3533],[-71.7008,-36.3482],[-71.7078,-36.3485],[-71.7134,-36.3452],[-71.7215,-36.3341],[-71.7322,-36.3254],[-71.7372,-36.3243],[-71.7399,-36.3197],[-71.7509,-36.3163],[-71.7632,-36.3084],[-71.7679,-36.3081],[-71.768,-36.3037],[-71.7744,-36.3008],[-71.7744,-36.2967],[-71.7863,-36.2929],[-71.7942,-36.284],[-71.7933,-36.2801],[-71.797,-36.2752],[-71.8036,-36.2727],[-71.8024,-36.2691],[-71.8055,-36.2653],[-71.8046,-36.2627],[-71.8113,-36.2592],[-71.8116,-36.2548],[-71.823,-36.256],[-71.8338,-36.2512],[-71.8451,-36.2558],[-71.8483,-36.2543],[-71.8468,-36.2471],[-71.8635,-36.2459],[-71.8671,-36.2478],[-71.8682,-36.2536],[-71.8725,-36.2575],[-71.8821,-36.259],[-71.8881,-36.2626],[-71.896,-36.2616],[-71.8987,-36.2656],[-71.9091,-36.2687],[-71.9208,-36.2591],[-71.934,-36.257],[-71.9444,-36.2586],[-71.9544,-36.2548],[-71.9565,-36.2504],[-71.9638,-36.2524],[-71.9662,-36.2593],[-71.9743,-36.2586],[-71.981,-36.2512],[-71.9801,-36.2402],[-71.9922,-36.2418],[-71.9932,-36.2315],[-71.9993,-36.2272],[-71.9997,-36.2169],[-71.9906,-36.2128],[-71.9906,-36.2087],[-71.9973,-36.2089],[-72.0007,-36.203],[-72.0125,-36.1988],[-72.0116,-36.1916],[-72.0204,-36.1897],[-72.0246,-36.1835],[-72.0235,-36.1744],[-72.036,-36.1763],[-72.0593,-36.1567],[-72.0728,-36.1563],[-72.0729,-36.1514],[-72.0692,-36.1499],[-72.0791,-36.1405],[-72.0724,-36.1374],[-72.0754,-36.1312],[-72.0883,-36.1306],[-72.0937,-36.1358],[-72.0991,-36.1371],[-72.0984,-36.1256],[-72.1032,-36.1233],[-72.1033,-36.1433],[-72.0978,-36.1467],[-72.0986,-36.1561],[-72.1012,-36.162],[-72.1047,-36.1639],[-72.1058,-36.169],[-72.1139,-36.1741],[-72.1219,-36.1869],[-72.1313,-36.1917],[-72.1281,-36.2007],[-72.1317,-36.2035],[-72.1308,-36.2173],[-72.1364,-36.2212],[-72.135,-36.2292],[-72.1424,-36.2391],[-72.1425,-36.2427],[-72.1391,-36.2459],[-72.1528,-36.2476],[-72.1521,-36.2418],[-72.1565,-36.2413],[-72.1543,-36.2353],[-72.1833,-36.2283],[-72.1865,-36.2258],[-72.186,-36.2224],[-72.191,-36.2197],[-72.2111,-36.2153],[-72.2109,-36.2109],[-72.2162,-36.2101],[-72.2169,-36.2154],[-72.2235,-36.2153],[-72.2205,-36.2079],[-72.2373,-36.207],[-72.247,-36.2178],[-72.2549,-36.2339],[-72.2647,-36.2473],[-72.2776,-36.2615],[-72.2826,-36.2564],[-72.2958,-36.2532],[-72.2983,-36.2472],[-72.3156,-36.2327],[-72.334,-36.2332],[-72.3455,-36.2369],[-72.3513,-36.2452],[-72.3725,-36.2572],[-72.3764,-36.2538],[-72.3802,-36.2542],[-72.3802,-36.2511],[-72.3894,-36.2484],[-72.3863,-36.245],[-72.3897,-36.242],[-72.3913,-36.2338],[-72.3995,-36.2319],[-72.4012,-36.2284],[-72.4038,-36.2289],[-72.4125,-36.2231],[-72.4122,-36.2078],[-72.3601,-36.2148],[-72.3378,-36.2055],[-72.3364,-36.1801],[-72.3384,-36.1744],[-72.3449,-36.1735],[-72.3521,-36.1677],[-72.3587,-36.1574],[-72.3708,-36.164],[-72.3736,-36.17],[-72.3818,-36.17],[-72.3902,-36.1753],[-72.4054,-36.1756],[-72.4215,-36.1699],[-72.4221,-36.1632],[-72.4264,-36.1572],[-72.4435,-36.156],[-72.4528,-36.1501],[-72.4678,-36.148],[-72.4726,-36.1522],[-72.4779,-36.1528],[-72.5018,-36.1434],[-72.4976,-36.1385],[-72.4983,-36.1351],[-72.4928,-36.1353],[-72.4947,-36.1289],[-72.4885,-36.1256],[-72.4928,-36.1071],[-72.5007,-36.1002],[-72.497,-36.0945],[-72.5014,-36.0857],[-72.4927,-36.086],[-72.4873,-36.0799],[-72.4927,-36.0723],[-72.5084,-36.0764],[-72.5121,-36.0809],[-72.5186,-36.0801],[-72.5241,-36.0731],[-72.5306,-36.0695],[-72.5368,-36.0698],[-72.5416,-36.0762],[-72.5439,-36.0752],[-72.548,-36.0779],[-72.5719,-36.074],[-72.5802,-36.0751],[-72.5832,-36.0779],[-72.5906,-36.0721],[-72.5875,-36.0683],[-72.5885,-36.0653],[-72.5921,-36.0657],[-72.593,-36.0618],[-72.6023,-36.0599],[-72.6011,-36.0568],[-72.6141,-36.0529],[-72.62,-36.0555],[-72.6202,-36.0509],[-72.6237,-36.0489],[-72.6239,-36.0462],[-72.623,-36.0419],[-72.62,-36.0409],[-72.6218,-36.0382],[-72.6199,-36.036],[-72.6241,-36.0353],[-72.6237,-36.0319],[-72.6334,-36.0313],[-72.6332,-36.0284],[-72.6303,-36.029],[-72.6306,-36.0253],[-72.6354,-36.0208],[-72.6402,-36.0209],[-72.645,-36.015],[-72.6553,-36.047],[-72.6563,-36.0406],[-72.6603,-36.0362],[-72.6678,-36.0303],[-72.6767,-36.0278],[-72.6798,-36.0219],[-72.6866,-36.0188],[-72.6962,-36.0221],[-72.7047,-36.017],[-72.7082,-36.0232],[-72.7144,-36.0215],[-72.7184,-36.0242],[-72.7214,-36.0227],[-72.7209,-36.0194],[-72.7435,-36.0079],[-72.7596,-36.0056],[-72.7657,-36.0057],[-72.7681,-36.0106],[-72.7751,-36.0112],[-72.7781,-36.0138]],[[-72.8825,-36.4454],[-72.877,-36.4483],[-72.8778,-36.4549],[-72.8725,-36.4572],[-72.8691,-36.4551],[-72.8613,-36.457],[-72.8541,-36.4623],[-72.8518,-36.4591],[-72.8413,-36.4619],[-72.8262,-36.4613],[-72.8195,-36.4541],[-72.8098,-36.4597],[-72.8135,-36.482],[-72.8002,-36.4968],[-72.8079,-36.5061],[-72.8012,-36.5108],[-72.8082,-36.511],[-72.8142,-36.5156],[-72.819,-36.5124],[-72.8279,-36.5265],[-72.8234,-36.5367],[-72.8261,-36.5427],[-72.7978,-36.5636],[-72.7976,-36.5703],[-72.8009,-36.5719],[-72.7983,-36.606],[-72.7646,-36.6053],[-72.7727,-36.6221],[-72.7771,-36.624],[-72.7733,-36.625],[-72.7431,-36.6215],[-72.7337,-36.6173],[-72.7323,-36.623],[-72.735,-36.6401],[-72.7196,-36.6554],[-72.6972,-36.6526],[-72.6876,-36.6546],[-72.6658,-36.6695],[-72.6543,-36.6665],[-72.6521,-36.6744],[-72.6456,-36.6819],[-72.6418,-36.6818],[-72.6371,-36.6863],[-72.6315,-36.6858],[-72.6234,-36.6905],[-72.6172,-36.6911],[-72.6214,-36.6965],[-72.6166,-36.7013],[-72.6181,-36.703],[-72.612,-36.7045],[-72.6069,-36.7165],[-72.6002,-36.724],[-72.5995,-36.7313],[-72.5903,-36.734],[-72.5901,-36.7403],[-72.5964,-36.7408],[-72.5972,-36.7454],[-72.5965,-36.7473],[-72.5855,-36.7484],[-72.5893,-36.7534],[-72.5964,-36.756],[-72.6027,-36.7677],[-72.5916,-36.7923],[-72.5931,-36.7962],[-72.5905,-36.8011],[-72.5935,-36.8078],[-72.5931,-36.8161],[-72.5798,-36.8217],[-72.5771,-36.8316],[-72.5678,-36.8365],[-72.5618,-36.8361],[-72.5534,-36.8395],[-72.5384,-36.8496],[-72.5565,-36.8476],[-72.5731,-36.8657],[-72.5701,-36.8725],[-72.562,-36.8773],[-72.5604,-36.8829],[-72.5611,-36.8902],[-72.5657,-36.8902],[-72.5708,-36.8937],[-72.5815,-36.8945],[-72.5952,-36.8911],[-72.6025,-36.8925],[-72.6183,-36.8864],[-72.6298,-36.8863],[-72.6358,-36.8829],[-72.6452,-36.8835],[-72.6541,-36.8922],[-72.6498,-36.9003],[-72.6512,-36.9056],[-72.6578,-36.9101],[-72.6525,-36.9217],[-72.6483,-36.9184],[-72.6144,-36.9201],[-72.588,-36.9285],[-72.5617,-36.9274],[-72.5515,-36.9317],[-72.5415,-36.9268],[-72.5318,-36.9272],[-72.5189,-36.9314],[-72.517,-36.9395],[-72.5099,-36.9327],[-72.5141,-36.9248],[-72.5118,-36.9233],[-72.5095,-36.9031],[-72.5023,-36.8957],[-72.4823,-36.8969],[-72.4698,-36.9132],[-72.4573,-36.9048],[-72.4514,-36.9083],[-72.4612,-36.9189],[-72.4615,-36.9272],[-72.4224,-36.9261],[-72.4202,-36.931],[-72.4076,-36.9288],[-72.4017,-36.918],[-72.3895,-36.9163],[-72.3854,-36.9119],[-72.3753,-36.9174],[-72.3662,-36.9381],[-72.3528,-36.939],[-72.3522,-36.9429],[-72.3483,-36.9459],[-72.3484,-36.9558],[-72.3424,-36.9669],[-72.3433,-36.9706],[-72.3317,-36.9711],[-72.326,-36.9815],[-72.3188,-36.9851],[-72.3113,-36.9829],[-72.2864,-36.9981],[-72.2716,-36.9972],[-72.2531,-37.0007],[-72.2434,-37.007],[-72.2293,-37.0091],[-72.2226,-37.0127],[-72.2193,-37.0181],[-72.1986,-37.0246],[-72.1921,-37.0304],[-72.1922,-37.0349],[-72.187,-37.04],[-72.188,-37.0432],[-72.1822,-37.0463],[-72.1872,-37.0531],[-72.2166,-37.0754],[-72.2285,-37.0798],[-72.2271,-37.0834],[-72.2309,-37.0837],[-72.2316,-37.0809],[-72.2438,-37.0855],[-72.2432,-37.0894],[-72.2536,-37.0897],[-72.2614,-37.0926],[-72.257,-37.106],[-72.2715,-37.1205],[-72.2616,-37.1233],[-72.2653,-37.1482],[-72.2685,-37.1469],[-72.2689,-37.1546],[-72.28,-37.1553],[-72.2744,-37.1948],[-72.2531,-37.1926],[-72.244,-37.1822],[-72.2376,-37.1864],[-72.2075,-37.187],[-72.1864,-37.196],[-72.1807,-37.1934],[-72.1689,-37.1975],[-72.1603,-37.1974],[-72.1411,-37.1866],[-72.1364,-37.1795],[-72.1259,-37.1809],[-72.1192,-37.1786],[-72.1097,-37.1798],[-72.1039,-37.187],[-72.0856,-37.1853],[-72.077,-37.1904],[-72.062,-37.1935],[-72.0631,-37.1848],[-72.0534,-37.1749],[-72.0574,-37.1718],[-72.0598,-37.1737],[-72.0663,-37.1679],[-72.0367,-37.1678],[-72.0358,-37.1656],[-72.0118,-37.1769],[-72.0076,-37.1831],[-71.9979,-37.1836],[-71.9985,-37.1882],[-71.9906,-37.1932],[-71.9775,-37.188],[-71.9762,-37.1914],[-71.9735,-37.189],[-71.9712,-37.1917],[-71.964,-37.1897],[-71.9456,-37.1925],[-71.9309,-37.1854],[-71.9193,-37.1866],[-71.9169,-37.1825],[-71.9112,-37.1815],[-71.9054,-37.1848],[-71.8994,-37.1847],[-71.8899,-37.1826],[-71.8777,-37.1694],[-71.8689,-37.1694],[-71.8663,-37.1632],[-71.8622,-37.1646],[-71.8595,-37.1614],[-71.8501,-37.162],[-71.8445,-37.1514],[-71.8432,-37.1387],[-71.841,-37.1376],[-71.8443,-37.129],[-71.8361,-37.1285],[-71.8376,-37.1252],[-71.8357,-37.1243],[-71.8271,-37.1249],[-71.8238,-37.1203],[-71.7971,-37.1087],[-71.7847,-37.112],[-71.7685,-37.1111],[-71.7579,-37.1154],[-71.7521,-37.1152],[-71.748,-37.1209],[-71.7359,-37.1226],[-71.7283,-37.1275],[-71.7228,-37.1243],[-71.7096,-37.1267],[-71.7007,-37.1336],[-71.6987,-37.1389],[-71.6943,-37.1393],[-71.6871,-37.1444],[-71.6779,-37.1449],[-71.6535,-37.1311],[-71.643,-37.1342],[-71.6325,-37.1319],[-71.6199,-37.1336],[-71.5813,-37.1244],[-71.5754,-37.1263],[-71.5694,-37.1335],[-71.5625,-37.1339],[-71.5561,-37.1306],[-71.5589,-37.1172],[-71.5564,-37.1011],[-71.5412,-37.0838],[-71.5403,-37.0637],[-71.5439,-37.0628],[-71.5459,-37.0589],[-71.5409,-37.0411],[-71.5485,-37.0325],[-71.5489,-37.0235],[-71.5517,-37.0196],[-71.5447,-37.0173],[-71.537,-37.0095],[-71.5105,-37.0046],[-71.4971,-37.0089],[-71.4918,-37.0159],[-71.4874,-37.0153],[-71.4798,-37.02],[-71.4798,-37.023],[-71.4743,-37.0293],[-71.474,-37.0353],[-71.4675,-37.0414],[-71.4614,-37.0436],[-71.4637,-37.0494],[-71.4613,-37.0573],[-71.4595,-37.0566],[-71.4614,-37.0603],[-71.4588,-37.0609],[-71.4586,-37.0662],[-71.4522,-37.0673],[-71.4457,-37.0728],[-71.4335,-37.0718],[-71.4294,-37.0757],[-71.4172,-37.0782],[-71.4114,-37.0828],[-71.4101,-37.0903],[-71.4057,-37.0848],[-71.4001,-37.0836],[-71.3958,-37.0796],[-71.3946,-37.0765],[-71.3971,-37.0729],[-71.394,-37.0691],[-71.3841,-37.0671],[-71.3677,-37.0686],[-71.3548,-37.0761],[-71.329,-37.0773],[-71.3228,-37.0809],[-71.3182,-37.0891],[-71.3103,-37.0939],[-71.3037,-37.1019],[-71.2823,-37.103],[-71.2722,-37.1082],[-71.2701,-37.1115],[-71.2587,-37.1094],[-71.2439,-37.1106],[-71.2263,-37.1035],[-71.1885,-37.0978],[-71.1865,-37.0996],[-71.1815,-37.0987],[-71.1741,-37.1064],[-71.1554,-37.1161],[-71.1144,-37.1158],[-71.0962,-37.1096]],[[-71.8323,-33.9048],[-71.8346,-33.9101],[-71.8431,-33.9183],[-71.838,-33.924],[-71.8338,-33.9234],[-71.8211,-33.9106],[-71.8091,-33.9073],[-71.7977,-33.9197],[-71.789,-33.9184],[-71.7823,-33.9242],[-71.7845,-33.9311],[-71.7821,-33.935],[-71.7689,-33.936],[-71.763,-33.9252],[-71.7497,-33.9203],[-71.7486,-33.9229],[-71.755,-33.9378],[-71.7498,-33.94],[-71.7364,-33.9393],[-71.7299,-33.942],[-71.726,-33.9459],[-71.7279,-33.9504],[-71.7233,-33.9559],[-71.7192,-33.9557],[-71.7183,-33.9509],[-71.7145,-33.9483]],[[-71.7145,-33.9483],[-71.7106,-33.9414],[-71.7038,-33.9405],[-71.6915,-33.9282],[-71.6655,-33.9182],[-71.5808,-33.8669],[-71.5732,-33.8738],[-71.5564,-33.8723],[-71.5558,-33.7829],[-71.5526,-33.7713],[-71.5455,-33.7652],[-71.536,-33.7641],[-71.5212,-33.7783],[-71.5149,-33.7743],[-71.4959,-33.7694],[-71.4792,-33.7776],[-71.4751,-33.7844],[-71.4644,-33.7861],[-71.4604,-33.7837],[-71.4288,-33.7891],[-71.4181,-33.7849],[-71.4085,-33.785],[-71.4079,-33.7763],[-71.3966,-33.7667],[-71.3761,-33.7661],[-71.3628,-33.759],[-71.3591,-33.7468],[-71.3672,-33.7461],[-71.3712,-33.7428],[-71.3746,-33.7445],[-71.392,-33.7373],[-71.3904,-33.729],[-71.3951,-33.7263],[-71.3968,-33.7205],[-71.4206,-33.7085],[-71.42,-33.7057],[-71.4246,-33.6982],[-71.4208,-33.6876],[-71.4362,-33.685],[-71.4378,-33.6799],[-71.434,-33.6761],[-71.4315,-33.6638],[-71.4269,-33.6605],[-71.4219,-33.6608],[-71.4181,-33.6581],[-71.3992,-33.6629],[-71.3956,-33.6555],[-71.3958,-33.6433],[-71.3827,-33.6345],[-71.3842,-33.6271],[-71.3827,-33.6233],[-71.3769,-33.6216],[-71.3592,-33.6233],[-71.3359,-33.6074],[-71.336,-33.6015],[-71.3319,-33.5945],[-71.332,-33.5856],[-71.3291,-33.5841],[-71.3289,-33.571],[-71.3311,-33.5675],[-71.3281,-33.5599],[-71.332,-33.5434],[-71.3347,-33.5413],[-71.3319,-33.5355],[-71.3511,-33.5286],[-71.3483,-33.5093],[-71.3516,-33.5055],[-71.3491,-33.5],[-71.3532,-33.4926],[-71.3395,-33.476],[-71.342,-33.4649],[-71.336,-33.4564],[-71.3389,-33.4497],[-71.3373,-33.4416],[-71.3405,-33.4393],[-71.3437,-33.4312],[-71.3415,-33.4275],[-71.3439,-33.4231],[-71.3433,-33.4157],[-71.3344,-33.413],[-71.3319,-33.4079],[-71.3264,-33.407],[-71.3216,-33.411],[-71.3065,-33.4094],[-71.2984,-33.4132],[-71.2817,-33.4105],[-71.2764,-33.4043],[-71.2768,-33.4003],[-71.2682,-33.3938],[-71.2669,-33.3876],[-71.2553,-33.3832],[-71.2442,-33.3837],[-71.236,-33.3741],[-71.2321,-33.3754],[-71.223,-33.3732],[-71.2199,-33.3611],[-71.2142,-33.3552],[-71.2158,-33.3486],[-71.2109,-33.3357],[-71.2134,-33.3311],[-71.2057,-33.3308],[-71.205,-33.321],[-71.1954,-33.3105],[-71.2062,-33.3085],[-71.2147,-33.2933],[-71.2137,-33.2866],[-71.2222,-33.2798],[-71.2233,-33.2715],[-71.2267,-33.2694],[-71.2197,-33.2595],[-71.2256,-33.2464],[-71.2207,-33.2401],[-71.2151,-33.2391],[-71.2153,-33.2344],[-71.1894,-33.2268],[-71.1708,-33.2309],[-71.1656,-33.2296],[-71.163,-33.2257],[-71.1519,-33.2286],[-71.1402,-33.2378],[-71.1198,-33.2309],[-71.1107,-33.2208],[-71.0941,-33.2197],[-71.0726,-33.2304],[-71.0602,-33.2253],[-71.0569,-33.2045],[-71.0477,-33.2098],[-71.0417,-33.2068],[-71.0385,-33.2076],[-71.0333,-33.2111],[-71.0331,-33.2154],[-71.0284,-33.2167],[-71.0257,-33.2149],[-71.0287,-33.2059],[-71.0265,-33.2018],[-71.0217,-33.201],[-71.0174,-33.2034],[-71.0147,-33.1999],[-70.9977,-33.1986],[-70.9982,-33.1923],[-70.9925,-33.1826],[-70.9938,-33.1795],[-70.9916,-33.1758],[-71.004,-33.1589],[-71.0046,-33.1544],[-71.0102,-33.1539],[-71.0143,-33.149],[-71.0121,-33.1444],[-71.0127,-33.1322],[-71.0193,-33.1201],[-71.0201,-33.1106],[-71.0151,-33.0955],[-71.0293,-33.0839],[-71.0174,-33.0692],[-71.0089,-33.0651],[-71.0102,-33.0602],[-71.0076,-33.0527],[-71.0009,-33.0504],[-71.0136,-33.038],[-71.0199,-33.0209],[-71.0201,-33.0116],[-71.0268,-33.0052],[-71.0278,-32.9892],[-71.0156,-32.9774],[-70.9997,-32.9756],[-70.9862,-32.9802],[-70.9828,-32.9765],[-70.971,-32.9765],[-70.963,-32.9736],[-70.9537,-32.9662],[-70.9468,-32.9724],[-70.9392,-32.9729],[-70.9265,-32.966],[-70.9227,-32.9541],[-70.916,-32.9447],[-70.9092,-32.945],[-70.9066,-32.9359],[-70.8971,-32.9343],[-70.8859,-32.9387],[-70.8723,-32.9311],[-70.8653,-32.9323],[-70.853,-32.929],[-70.842,-32.9225],[-70.8361,-32.9272],[-70.8168,-32.9307],[-70.8039,-32.9249],[-70.7943,-32.9259],[-70.7921,-32.9294],[-70.7817,-32.9292],[-70.778,-32.9334],[-70.7716,-32.9355],[-70.7617,-32.9294],[-70.7484,-32.9299],[-70.7365,-32.9238],[-70.7306,-32.9262],[-70.7282,-32.9246],[-70.7228,-32.9278],[-70.72,-32.9531],[-70.7074,-32.9607],[-70.6918,-32.9554],[-70.674,-32.9597],[-70.6599,-32.9536],[-70.6448,-32.9526],[-70.6367,-32.9475],[-70.6268,-32.9493],[-70.6212,-32.9478],[-70.6141,-32.9517],[-70.6096,-32.9441],[-70.6042,-32.9421],[-70.5943,-32.9486],[-70.5976,-32.953],[-70.5919,-32.9594],[-70.593,-32.9693],[-70.5788,-32.9785],[-70.5724,-32.9875],[-70.5653,-32.9903],[-70.5576,-32.9986],[-70.5579,-33.0036],[-70.551,-33.0077],[-70.5468,-33.0183],[-70.5531,-33.0348],[-70.5499,-33.0392],[-70.5447,-33.0403],[-70.5272,-33.0524],[-70.5271,-33.0583],[-70.5195,-33.073],[-70.5192,-33.0786],[-70.5091,-33.0892],[-70.4823,-33.0811],[-70.4784,-33.0756],[-70.4774,-33.0681],[-70.4659,-33.0629],[-70.4592,-33.0474],[-70.4338,-33.0212],[-70.4252,-33.0213],[-70.4232,-33.0257],[-70.4166,-33.0251],[-70.3995,-33.0342],[-70.3989,-33.0408],[-70.4013,-33.0434],[-70.3966,-33.0507],[-70.402,-33.0553],[-70.407,-33.065],[-70.3949,-33.0733],[-70.3947,-33.0803],[-70.3864,-33.0829],[-70.3882,-33.0893],[-70.3745,-33.1052],[-70.3613,-33.107],[-70.345,-33.1033],[-70.3428,-33.097],[-70.3378,-33.0965],[-70.3306,-33.1015],[-70.3207,-33.1034],[-70.3194,-33.1089],[-70.3111,-33.1084],[-70.3037,-33.113],[-70.2999,-33.1129],[-70.2961,-33.1255],[-70.2923,-33.1297],[-70.2869,-33.132],[-70.2714,-33.132],[-70.2696,-33.1363],[-70.2711,-33.1539],[-70.2651,-33.1739],[-70.2663,-33.1822],[-70.2439,-33.1874],[-70.2377,-33.1758],[-70.24,-33.1704],[-70.2393,-33.1647],[-70.2302,-33.1581],[-70.227,-33.1507],[-70.2362,-33.1404],[-70.2046,-33.1243],[-70.1996,-33.111],[-70.1902,-33.1095],[-70.1843,-33.1022],[-70.1559,-33.1131],[-70.1529,-33.1069],[-70.1587,-33.0992],[-70.1501,-33.0944],[-70.1364,-33.0942],[-70.1319,-33.0902],[-70.1291,-33.0794],[-70.1238,-33.075],[-70.1133,-33.0722],[-70.1153,-33.0642],[-70.1028,-33.0532],[-70.0994,-33.0529]],[[-71.7145,-33.9483],[-71.7077,-33.9601],[-71.7112,-33.967],[-71.6998,-33.9683],[-71.6985,-33.9728],[-71.694,-33.9755],[-71.6863,-33.9715],[-71.68,-33.9743],[-71.6714,-33.9727],[-71.6656,-33.9768],[-71.6669,-33.9973],[-71.6553,-33.9959],[-71.6396,-34.0013],[-71.6147,-34.0034],[-71.6102,-34.0091],[-71.6034,-34.0119],[-71.6025,-34.0188],[-71.5969,-34.0253],[-71.5873,-34.0283],[-71.5873,-34.0341],[-71.576,-34.0238],[-71.5751,-34.0193],[-71.5802,-34.0153],[-71.5807,-34.0115],[-71.5721,-34.0071],[-71.5753,-34.0003],[-71.5691,-33.9939],[-71.5709,-33.9891],[-71.5666,-33.9871],[-71.5632,-33.9871],[-71.5547,-33.9931],[-71.552,-33.9891],[-71.4983,-33.9983],[-71.458,-34.0181],[-71.4544,-34.0149],[-71.4485,-34.0144],[-71.443,-34.022],[-71.4372,-34.0238],[-71.4319,-34.0328],[-71.42,-34.0325],[-71.413,-34.0361],[-71.417,-34.0503],[-71.4148,-34.0577],[-71.4109,-34.0628],[-71.3985,-34.0681],[-71.3902,-34.076],[-71.3873,-34.0681],[-71.3711,-34.0609],[-71.3511,-34.065],[-71.3468,-34.0609],[-71.3478,-34.0561],[-71.3414,-34.0508],[-71.3337,-34.0525],[-71.3287,-34.049],[-71.3241,-34.0492],[-71.3163,-34.043],[-71.312,-34.0439],[-71.3064,-34.0395],[-71.3008,-34.0304],[-71.2982,-34.0379],[-71.292,-34.0446],[-71.2707,-34.0524],[-71.2668,-34.063],[-71.2704,-34.0654],[-71.2674,-34.0836],[-71.2432,-34.0957],[-71.2322,-34.1066],[-71.2312,-34.1172],[-71.2255,-34.1242],[-71.2162,-34.1317],[-71.2147,-34.1356],[-71.2051,-34.1354],[-71.202,-34.1452],[-71.188,-34.154],[-71.1849,-34.1584],[-71.1482,-34.1661],[-71.1264,-34.1667],[-71.1182,-34.1641],[-71.1129,-34.1667],[-71.1059,-34.1663],[-71.0914,-34.1749],[-71.0895,-34.1806],[-71.0716,-34.1842],[-71.0665,-34.1798],[-71.0542,-34.1787],[-71.0527,-34.1735],[-71.0429,-34.172],[-71.0323,-34.1648],[-71.0277,-34.1664],[-71.0249,-34.1705],[-71.0052,-34.1678],[-70.9847,-34.1733],[-70.9688,-34.172],[-70.9581,-34.1644],[-70.9434,-34.1597],[-70.9338,-34.1515],[-70.9143,-34.1447],[-70.9278,-34.1369],[-70.9346,-34.1233],[-70.9412,-34.1057],[-70.9383,-34.1011],[-70.9374,-34.09],[-70.9339,-34.0857],[-70.9194,-34.078],[-70.9129,-34.0806],[-70.9068,-34.0769],[-70.8997,-34.0794],[-70.8931,-34.0759],[-70.8891,-34.0589],[-70.8889,-34.054],[-70.8919,-34.0496],[-70.8888,-34.0387],[-70.8828,-34.0398],[-70.8703,-34.0371],[-70.8605,-34.0309],[-70.8468,-34.0286],[-70.841,-34.0322],[-70.8314,-34.032],[-70.8238,-34.0357],[-70.8177,-34.0355],[-70.8126,-34.0265],[-70.8077,-34.0254],[-70.8085,-34.0216],[-70.8056,-34.0163],[-70.8068,-34.0085],[-70.7933,-33.9999],[-70.7919,-33.993],[-70.7976,-33.9883],[-70.7958,-33.9823],[-70.7979,-33.975],[-70.8101,-33.9711],[-70.8247,-33.9621],[-70.8249,-33.9534],[-70.8184,-33.9487],[-70.8127,-33.9494],[-70.8061,-33.9454],[-70.8033,-33.9367],[-70.7967,-33.9314],[-70.7705,-33.9445],[-70.7583,-33.9429],[-70.7436,-33.924],[-70.7313,-33.9225],[-70.7273,-33.9181],[-70.7244,-33.9197],[-70.7195,-33.9174],[-70.7125,-33.9107],[-70.7115,-33.9067],[-70.708,-33.9055],[-70.7012,-33.9058],[-70.6909,-33.9124],[-70.6852,-33.9229],[-70.6752,-33.9292],[-70.6722,-33.9337],[-70.6629,-33.9382],[-70.654,-33.9369],[-70.6436,-33.9335],[-70.637,-33.9174],[-70.6259,-33.9136],[-70.6172,-33.9018],[-70.6001,-33.8945],[-70.5876,-33.8923],[-70.5827,-33.8972],[-70.5768,-33.8968],[-70.5744,-33.8933],[-70.5544,-33.8812],[-70.5412,-33.881],[-70.5306,-33.8862],[-70.5246,-33.8854],[-70.5165,-33.8882],[-70.5103,-33.8849],[-70.5044,-33.8761],[-70.5049,-33.8665],[-70.5026,-33.863],[-70.4954,-33.8604],[-70.4815,-33.8621],[-70.4773,-33.8602],[-70.4731,-33.8627],[-70.4611,-33.8584],[-70.4503,-33.8584],[-70.439,-33.8506],[-70.4338,-33.8536],[-70.4191,-33.8561],[-70.411,-33.8707],[-70.3981,-33.8803],[-70.3909,-33.8819],[-70.3839,-33.8794],[-70.3749,-33.8837],[-70.3755,-33.8888],[-70.3714,-33.8954],[-70.3729,-33.8996],[-70.3686,-33.9064],[-70.375,-33.9111],[-70.3786,-33.9188],[-70.3762,-33.9279],[-70.3624,-33.9483],[-70.3468,-33.9565],[-70.3464,-33.962],[-70.3508,-33.9673],[-70.3498,-33.971],[-70.3405,-33.9796],[-70.3295,-33.9814],[-70.3272,-33.992],[-70.3211,-33.9993],[-70.3278,-34.0098],[-70.3214,-34.0164],[-70.3308,-34.0208],[-70.3444,-34.039],[-70.3415,-34.0429],[-70.3403,-34.0532],[-70.3291,-34.0591],[-70.3149,-34.0573],[-70.3136,-34.0621],[-70.3084,-34.0669],[-70.3041,-34.0657],[-70.3021,-34.0607],[-70.2875,-34.0585],[-70.2707,-34.0657],[-70.2664,-34.071],[-70.2619,-34.0715],[-70.2528,-34.0598],[-70.2481,-34.0573],[-70.2449,-34.0352],[-70.2409,-34.0328],[-70.2147,-34.0304],[-70.2062,-34.0344],[-70.1861,-34.0324],[-70.1803,-34.0356],[-70.1694,-34.0452],[-70.1746,-34.0534],[-70.175,-34.0585],[-70.1711,-34.0679],[-70.1722,-34.0716],[-70.165,-34.0797],[-70.1587,-34.0932],[-70.1645,-34.0959],[-70.1644,-34.1006],[-70.1579,-34.1111],[-70.1446,-34.1166],[-70.1417,-34.1202],[-70.1615,-34.1341],[-70.1646,-34.1406],[-70.1603,-34.1497],[-70.1643,-34.1592],[-70.1538,-34.1612],[-70.146,-34.1733],[-70.1472,-34.1797],[-70.1357,-34.1878],[-70.1173,-34.1901],[-70.1152,-34.2003],[-70.1127,-34.2019],[-70.0932,-34.2031],[-70.0774,-34.198],[-70.0707,-34.2032],[-70.0505,-34.2267],[-70.0512,-34.2381],[-70.0492,-34.2439],[-70.0544,-34.2592],[-70.0533,-34.2794],[-70.0306,-34.2886]],[[-72.0563,-34.687],[-72.036,-34.6851],[-72.0343,-34.6876],[-72.0362,-34.6965],[-72.0332,-34.7004],[-72.0209,-34.6986],[-72.005,-34.705],[-72.0018,-34.7132],[-71.9945,-34.7165],[-71.9987,-34.728],[-71.9946,-34.7324],[-71.9973,-34.7405],[-71.9884,-34.7439],[-71.9873,-34.7471],[-71.9763,-34.7544],[-71.9653,-34.7501],[-71.9532,-34.7573],[-71.9529,-34.7641],[-71.9426,-34.7693],[-71.9447,-34.7886],[-71.938,-34.7928],[-71.9302,-34.804],[-71.9135,-34.8152],[-71.8993,-34.8167],[-71.8927,-34.8147],[-71.8852,-34.818],[-71.8651,-34.8181],[-71.8465,-34.8248],[-71.8425,-34.8366],[-71.8285,-34.8357],[-71.818,-34.8408],[-71.8097,-34.8372],[-71.8021,-34.8287],[-71.7953,-34.8272],[-71.7898,-34.8352],[-71.7749,-34.8458],[-71.7751,-34.8542],[-71.7719,-34.8614],[-71.7638,-34.8721],[-71.7597,-34.8741],[-71.7548,-34.8845],[-71.7437,-34.8891],[-71.7327,-34.8978],[-71.7272,-34.9038],[-71.7269,-34.9136],[-71.7236,-34.9118],[-71.7151,-34.9162],[-71.7146,-34.9215],[-71.7096,-34.9278],[-71.7096,-34.9373],[-71.6749,-34.9236],[-71.6674,-34.9091],[-71.6677,-34.9038],[-71.6741,-34.9022],[-71.6813,-34.8958],[-71.6887,-34.8971],[-71.6828,-34.8906],[-71.6794,-34.88],[-71.6731,-34.8773],[-71.6674,-34.871],[-71.6627,-34.8562],[-71.6592,-34.855],[-71.6425,-34.8609],[-71.6252,-34.8617],[-71.6234,-34.8652],[-71.6138,-34.867],[-71.6067,-34.8732],[-71.6095,-34.8805],[-71.6078,-34.8829],[-71.5999,-34.8833],[-71.5889,-34.8796],[-71.5769,-34.8673],[-71.5734,-34.8675],[-71.5725,-34.8738],[-71.5683,-34.8766],[-71.5529,-34.8718],[-71.5467,-34.876],[-71.5422,-34.8759],[-71.5351,-34.8695],[-71.5267,-34.8763],[-71.5138,-34.8762],[-71.4962,-34.892],[-71.4831,-34.8916],[-71.4777,-34.8968],[-71.4647,-34.9006],[-71.4606,-34.9002],[-71.4529,-34.8942],[-71.4515,-34.8876],[-71.4455,-34.882],[-71.4385,-34.8799],[-71.4345,-34.8846],[-71.4256,-34.8861],[-71.4256,-34.8899],[-71.4204,-34.897],[-71.4226,-34.9022],[-71.421,-34.9045],[-71.4174,-34.9046],[-71.4086,-34.8968],[-71.4045,-34.8977],[-71.3975,-34.8944],[-71.385,-34.9077],[-71.3653,-34.9127],[-71.3656,-34.9043],[-71.3692,-34.8951],[-71.377,-34.8955],[-71.3869,-34.8866],[-71.3869,-34.8689],[-71.3777,-34.8552],[-71.3833,-34.8501],[-71.3744,-34.8344],[-71.3601,-34.832],[-71.3571,-34.8261],[-71.3418,-34.8311],[-71.3309,-34.8228],[-71.3162,-34.816],[-71.3121,-34.81],[-71.3142,-34.8021],[-71.3089,-34.8015],[-71.3022,-34.7952],[-71.2939,-34.7971],[-71.2789,-34.7917],[-71.2764,-34.7952],[-71.2663,-34.7991],[-71.2623,-34.8151],[-71.2633,-34.8221],[-71.2611,-34.8244],[-71.2447,-34.8276],[-71.2311,-34.8259],[-71.22,-34.8343],[-71.2158,-34.8334],[-71.2134,-34.8353],[-71.1944,-34.8218],[-71.1891,-34.8044],[-71.1846,-34.8036],[-71.1805,-34.8061],[-71.1761,-34.802],[-71.1537,-34.7997],[-71.1493,-34.7962],[-71.1502,-34.794],[-71.143,-34.7895],[-71.1381,-34.7903],[-71.1349,-34.7864],[-71.0987,-34.8281],[-71.0697,-34.8213],[-71.0527,-34.8055],[-71.0469,-34.7925],[-71.0454,-34.7966],[-71.035,-34.8005],[-71.0238,-34.8098],[-71.0231,-34.8156],[-71.0181,-34.8188],[-71.0167,-34.825],[-71.0093,-34.8243],[-71.0011,-34.8274],[-70.9972,-34.8333],[-70.9853,-34.8397],[-70.9818,-34.8394],[-70.9796,-34.8467],[-70.9674,-34.8602],[-70.9683,-34.8647],[-70.9582,-34.8717],[-70.9523,-34.8715],[-70.9257,-34.8589],[-70.9062,-34.8575],[-70.8833,-34.8501],[-70.8639,-34.8528],[-70.8573,-34.8552],[-70.8539,-34.8597],[-70.8458,-34.8601],[-70.8217,-34.8713],[-70.8156,-34.8661],[-70.8182,-34.8628],[-70.8171,-34.8597],[-70.8095,-34.8523],[-70.8033,-34.8544],[-70.7966,-34.8532],[-70.7891,-34.8602],[-70.7779,-34.8577],[-70.7721,-34.8587],[-70.7607,-34.8664],[-70.7586,-34.872],[-70.7511,-34.8751],[-70.7491,-34.8842],[-70.7429,-34.8856],[-70.7383,-34.891],[-70.7234,-34.8955],[-70.7146,-34.9024],[-70.7105,-34.9155],[-70.7025,-34.9175],[-70.6948,-34.9258],[-70.6854,-34.9241],[-70.6686,-34.9464],[-70.6665,-34.9623],[-70.627,-34.9829],[-70.6223,-34.9876],[-70.6186,-34.9858],[-70.6149,-34.9608],[-70.5983,-34.9569],[-70.5861,-34.9617],[-70.5835,-34.9574],[-70.5681,-34.9526],[-70.5709,-34.9448],[-70.5683,-34.9397],[-70.5544,-34.9395],[-70.5413,-34.9339],[-70.5382,-34.9503],[-70.5237,-34.9516],[-70.5257,-34.965],[-70.5165,-34.9677],[-70.5108,-34.9721],[-70.4996,-34.9708],[-70.4873,-34.9759],[-70.4859,-34.9824],[-70.4804,-34.9856],[-70.4777,-34.9942],[-70.4703,-34.9938],[-70.4655,-34.9906],[-70.4291,-34.9887],[-70.4153,-34.9837],[-70.395,-34.9916],[-70.3897,-34.9987],[-70.381,-34.9998],[-70.3773,-34.998],[-70.365,-35.0053]]]}}]}